{"type": "FeatureCollection", "features": [{"type": "Feature", "properties": {"bydel_nr": 10, "navn": "Amager Vest"}, "geometry": {"type": "Polygon", "coordinates": [[[12.58271117, 55.66849764], [12.57959978, 55.66987926], [12.56831152, 55.66131723], [12.56750082, 55.66030256], [12.56837309, 55.66008763], [12.5680563, 55.65967672], [12.56718402, 55.65989166], [12.56344354, 55.65503937], [12.5634103, 55.65464593], [12.55489301, 55.64393999], [12.5542461, 55.64364208], [12.55427306, 55.64238061], [12.55257362, 55.64274167], [12.55194715, 55.64218754], [12.55400974, 55.64135803], [12.55357951, 55.64115599], [12.55152387, 55.64148128], [12.55133861, 55.64118923], [12.55205664, 55.64076412], [12.55182251, 55.64006869], [12.53480294, 55.6309343], [12.51354212, 55.61412485], [12.51106588, 55.61412197], [12.51110119, 55.61510541], [12.51096937, 55.6148145], [12.50700554, 55.61492217], [12.50635904, 55.61505649], [12.50651318, 55.6152624], [12.50564611, 55.61442774], [12.50494067, 55.61447475], [12.50474515, 55.61414954], [12.50555188, 55.61409368], [12.50606351, 55.61301483], [12.50598569, 55.61330731], [12.50680378, 55.61338804], [12.50863862, 55.61314743], [12.50886447, 55.61284311], [12.51066961, 55.61379712], [12.51352286, 55.6137786], [12.51300282, 55.61336722], [12.51617272, 55.61347162], [12.51608563, 55.61287456], [12.51634255, 55.61343296], [12.52057335, 55.61435896], [12.52352996, 55.61548801], [12.5692985, 55.61549774], [12.57184012, 55.61575101], [12.59190711, 55.62286306], [12.59343258, 55.63373872], [12.59231658, 55.63796402], [12.59905691, 55.63789843], [12.61719381, 55.64043614], [12.61066152, 55.65438793], [12.60858953, 55.65747511], [12.60157412, 55.66323832], [12.59630425, 55.6686969], [12.59057238, 55.66757476], [12.58742928, 55.66771063], [12.58271117, 55.66849764]]]}}, {"type": "Feature", "properties": {"bydel_nr": 7, "navn": "Brønshøj-Husum"}, "geometry": {"type": "Polygon", "coordinates": [[[12.46420157, 55.70089619], [12.47739605, 55.69779276], [12.49030449, 55.69862843], [12.4902149, 55.69734077], [12.49406855, 55.69784596], [12.50287059, 55.69821497], [12.50516459, 55.69664889], [12.50582135, 55.69684772], [12.50697851, 55.69746201], [12.51205647, 55.70212927], [12.51422854, 55.70648895], [12.5159757, 55.70662878], [12.51184855, 55.70844953], [12.51264577, 55.70927524], [12.51282152, 55.7101425], [12.51216759, 55.71173391], [12.5130705, 55.71259338], [12.51579017, 55.71407124], [12.51660446, 55.71710226], [12.51296245, 55.71772402], [12.51327456, 55.71888606], [12.51300655, 55.71984585], [12.50827162, 55.72026649], [12.50435707, 55.71985407], [12.50259426, 55.72053271], [12.50098525, 55.72044409], [12.4999735, 55.72073102], [12.49414054, 55.72297575], [12.49234391, 55.72270411], [12.48870217, 55.72449185], [12.48431652, 55.72476511], [12.47751119, 55.72209988], [12.47711105, 55.72103435], [12.47430387, 55.71984966], [12.47287083, 55.71886376], [12.46621089, 55.71887225], [12.46336857, 55.71762119], [12.45865814, 55.71682296], [12.45881977, 55.71646618], [12.45787586, 55.71448453], [12.45485895, 55.7133334], [12.45304564, 55.71222971], [12.45371685, 55.70711393], [12.45508488, 55.7061099], [12.45579597, 55.70501427], [12.45678559, 55.70443198], [12.46047909, 55.7033429], [12.46355924, 55.70297849], [12.46427305, 55.70224524], [12.46420157, 55.70089619]]]}}, {"type": "Feature", "properties": {"bydel_nr": 6, "navn": "Vanløse"}, "geometry": {"type": "Polygon", "coordinates": [[[12.4959211, 55.68406526], [12.50242303, 55.68777718], [12.50397217, 55.68825104], [12.51039848, 55.68910599], [12.51752534, 55.69085124], [12.52010789, 55.69235494], [12.52229538, 55.69414313], [12.52496776, 55.69515795], [12.52756143, 55.69558191], [12.52711316, 55.69583577], [12.52704606, 55.69631123], [12.52521502, 55.69720379], [12.52014285, 55.70133166], [12.51797472, 55.70355891], [12.5159757, 55.70662878], [12.51422854, 55.70648895], [12.51190522, 55.70196008], [12.50697851, 55.69746201], [12.50516459, 55.69664889], [12.50287059, 55.69821497], [12.49406855, 55.69784596], [12.4902149, 55.69734077], [12.49030449, 55.69862843], [12.47739605, 55.69779276], [12.46379897, 55.70079191], [12.46407989, 55.69902419], [12.46348598, 55.69634519], [12.4663774, 55.69340855], [12.46722421, 55.69150381], [12.4667193, 55.69144443], [12.4660139, 55.69020852], [12.46792328, 55.68280579], [12.46781215, 55.68234482], [12.46929022, 55.68134127], [12.46942305, 55.68022381], [12.47039746, 55.67879504], [12.47200195, 55.67762681], [12.47273094, 55.67606939], [12.47299332, 55.67456344], [12.47428334, 55.67276852], [12.48243057, 55.67266805], [12.48415104, 55.67381379], [12.48460425, 55.67574704], [12.48708684, 55.6774275], [12.48944673, 55.67812594], [12.49150851, 55.67917178], [12.49304785, 55.68209945], [12.49393472, 55.68304474], [12.49459055, 55.68315007], [12.49567861, 55.68453637], [12.49597889, 55.68455266], [12.4959211, 55.68406526]]]}}, {"type": "Feature", "properties": {"bydel_nr": 1, "navn": "Indre By"}, "geometry": {"type": "MultiPolygon", "coordinates": [[[[12.72896501, 55.70385931], [12.73143666, 55.7041644], [12.73425297, 55.70322559], [12.73345918, 55.70268686], [12.73120216, 55.70332258], [12.72925861, 55.70321768], [12.72896501, 55.70385931]]], [[[12.61148602, 55.69763139], [12.61954079, 55.69804155], [12.62935709, 55.69744618], [12.63056624, 55.69469154], [12.62534674, 55.69272428], [12.62525744, 55.69198222], [12.62406784, 55.6904384], [12.62486379, 55.69018145], [12.62468228, 55.69001602], [12.62331446, 55.69035508], [12.61963902, 55.6897612], [12.62023147, 55.68848176], [12.61972621, 55.68840917], [12.6193445, 55.68913921], [12.61580513, 55.68855887], [12.6135313, 55.68857929], [12.61371707, 55.68707787], [12.61659093, 55.68720646], [12.61786338, 55.68692009], [12.61662495, 55.68322552], [12.61565485, 55.6825269], [12.61427469, 55.6823363], [12.61415748, 55.68062443], [12.61489269, 55.67979655], [12.61451063, 55.67932046], [12.61364039, 55.67902369], [12.61288274, 55.67750268], [12.61329731, 55.67661078], [12.61177914, 55.67602321], [12.61023334, 55.67455961], [12.6100932, 55.67383944], [12.60901421, 55.67365589], [12.60778785, 55.672793], [12.60485761, 55.67160451], [12.60450817, 55.6710767], [12.60356472, 55.67103128], [12.60105691, 55.66994168], [12.60040799, 55.66937471], [12.59933424, 55.66947697], [12.59827524, 55.66925486], [12.59836081, 55.66890811], [12.59057238, 55.66757476], [12.58742928, 55.66771063], [12.58271117, 55.66849764], [12.5781225, 55.67081097], [12.57279043, 55.66770581], [12.56447708, 55.67461215], [12.56114106, 55.67345307], [12.56037036, 55.67464748], [12.55520953, 55.67367066], [12.55734123, 55.68174887], [12.56172397, 55.68631157], [12.56647814, 55.69008619], [12.57235813, 55.69386265], [12.57387555, 55.69545643], [12.57889749, 55.69780953], [12.57988497, 55.69631367], [12.59279316, 55.69935468], [12.59326789, 55.6968467], [12.59401503, 55.69566846], [12.59350109, 55.69488309], [12.59525828, 55.69452247], [12.5958208, 55.69402705], [12.59594826, 55.69341668], [12.59631245, 55.69341852], [12.59718661, 55.69426693], [12.59912457, 55.69488785], [12.59965336, 55.69544519], [12.60818205, 55.69729811], [12.61041294, 55.69570747], [12.61267815, 55.69529649], [12.61316954, 55.69615668], [12.60923091, 55.69718679], [12.61148602, 55.69763139]]], [[[12.66558488, 55.72167197], [12.66696692, 55.72147603], [12.66795483, 55.72092427], [12.66821211, 55.72053147], [12.66807026, 55.71971464], [12.66754585, 55.71934104], [12.66599647, 55.71910824], [12.66746842, 55.71938087], [12.66667964, 55.71943553], [12.66400038, 55.72058023], [12.66370983, 55.72054215], [12.66400299, 55.71969509], [12.66556363, 55.7190793], [12.66391998, 55.71965826], [12.66356868, 55.72066894], [12.66365762, 55.72102119], [12.66558488, 55.72167197]]], [[[12.61527478, 55.70312348], [12.61454559, 55.70201883], [12.61383336, 55.70161927], [12.61282413, 55.70255215], [12.61312182, 55.70265037], [12.61362027, 55.70216326], [12.6142545, 55.70237052], [12.61463777, 55.70295205], [12.61413604, 55.70345111], [12.61239735, 55.70335863], [12.6128872, 55.70287582], [12.6125915, 55.70277946], [12.61168263, 55.70369146], [12.61264826, 55.70389789], [12.61469856, 55.70369083], [12.61527478, 55.70312348]]]]}}, {"type": "Feature", "properties": {"bydel_nr": 3, "navn": "Nørrebro"}, "geometry": {"type": "Polygon", "coordinates": [[[12.53826906, 55.69711375], [12.5357972, 55.69569683], [12.53476395, 55.69444242], [12.53574601, 55.6938052], [12.53567872, 55.69204214], [12.53763316, 55.68990756], [12.54049631, 55.68842477], [12.54180252, 55.68735602], [12.54662888, 55.68532145], [12.55324018, 55.68487414], [12.55461982, 55.68440375], [12.5552675, 55.6838528], [12.55369236, 55.68161356], [12.55418754, 55.68149854], [12.55734123, 55.68174887], [12.56222507, 55.68679294], [12.56308652, 55.68718607], [12.5630947, 55.68753382], [12.56939105, 55.69199732], [12.56159677, 55.69635404], [12.56293303, 55.70641675], [12.56198458, 55.70596062], [12.5588659, 55.70318547], [12.55796099, 55.70354706], [12.55541852, 55.70969059], [12.55309498, 55.71142439], [12.54514366, 55.70851157], [12.54159578, 55.70660257], [12.53920632, 55.70410183], [12.53840634, 55.70272596], [12.5372382, 55.69932936], [12.53600361, 55.69748309], [12.53829863, 55.69767162], [12.53826906, 55.69711375]]]}}, {"type": "Feature", "properties": {"bydel_nr": 8, "navn": "Bispebjerg"}, "geometry": {"type": "Polygon", "coordinates": [[[12.53967346, 55.72599692], [12.5352395, 55.72710738], [12.52952834, 55.72714969], [12.52741849, 55.72683231], [12.52624507, 55.72710635], [12.52558697, 55.72681997], [12.52524155, 55.72734085], [12.52369087, 55.72756195], [12.52133683, 55.7278528], [12.5195992, 55.72756618], [12.51789668, 55.7263252], [12.51529414, 55.7228678], [12.51461983, 55.72288984], [12.51451305, 55.7216008], [12.51354007, 55.72041327], [12.51358452, 55.71996704], [12.51300655, 55.71984585], [12.51327456, 55.71888606], [12.51296245, 55.71772402], [12.51660446, 55.71710226], [12.51579017, 55.71407124], [12.5130705, 55.71259338], [12.51216759, 55.71173391], [12.51282152, 55.7101425], [12.51264577, 55.70927524], [12.51184855, 55.70844953], [12.51586277, 55.7067312], [12.51797472, 55.70355891], [12.52014285, 55.70133166], [12.52521502, 55.69720379], [12.52704606, 55.69631123], [12.52711316, 55.69583577], [12.52756143, 55.69558191], [12.52972533, 55.69583423], [12.53063668, 55.69671643], [12.53225054, 55.69667691], [12.53214954, 55.69713091], [12.53600361, 55.69748309], [12.5372382, 55.69932936], [12.53840634, 55.70272596], [12.53920632, 55.70410183], [12.54159578, 55.70660257], [12.54514366, 55.70851157], [12.55320306, 55.7114807], [12.56444446, 55.71927555], [12.56293427, 55.71996076], [12.56329188, 55.72021809], [12.56223219, 55.72069256], [12.56350194, 55.72182074], [12.56135542, 55.72274465], [12.55441288, 55.72293388], [12.55404557, 55.7234248], [12.54530336, 55.72415377], [12.54407137, 55.72406755], [12.54358532, 55.72363501], [12.54193889, 55.72372433], [12.54082692, 55.72422959], [12.53967346, 55.72599692]]]}}, {"type": "Feature", "properties": {"bydel_nr": 4, "navn": "Vesterbro-Kongens Enghave"}, "geometry": {"type": "Polygon", "coordinates": [[[12.54449878, 55.64045938], [12.54676682, 55.63897288], [12.54599323, 55.63930852], [12.54074744, 55.63654252], [12.54134947, 55.6361035], [12.54086773, 55.63622714], [12.54060573, 55.63577824], [12.53734107, 55.63481748], [12.53690605, 55.63442842], [12.53746083, 55.6340064], [12.53666517, 55.63428495], [12.53570346, 55.63389068], [12.53504599, 55.63328566], [12.53272846, 55.63220727], [12.53324495, 55.63176994], [12.53266557, 55.63203217], [12.53172161, 55.63174542], [12.53099344, 55.63188651], [12.53072235, 55.63227413], [12.53123388, 55.63534863], [12.53077405, 55.63577788], [12.52978974, 55.63580591], [12.52922505, 55.63618111], [12.5324982, 55.63627053], [12.53198659, 55.63724275], [12.53223628, 55.63853396], [12.53151677, 55.64200279], [12.53068164, 55.6424199], [12.53168325, 55.63932159], [12.53178269, 55.63804983], [12.52733127, 55.637531], [12.52640502, 55.64269746], [12.52612856, 55.64256211], [12.52702911, 55.63749868], [12.52684456, 55.63728025], [12.52821729, 55.63696191], [12.53158562, 55.63730661], [12.53189173, 55.63690786], [12.52795989, 55.63648944], [12.52549261, 55.63733272], [12.52258306, 55.63701842], [12.52116228, 55.64140926], [12.52265589, 55.64212499], [12.52240677, 55.64419055], [12.52336283, 55.64567766], [12.51910694, 55.65010849], [12.5165134, 55.65203174], [12.52049584, 55.65114592], [12.52047244, 55.6515587], [12.52349673, 55.65135073], [12.52755117, 55.65186382], [12.52443853, 55.6625295], [12.52764257, 55.66315898], [12.53058727, 55.66327416], [12.53054503, 55.66387048], [12.53012754, 55.66389291], [12.52822872, 55.66735359], [12.53493155, 55.66881947], [12.53482134, 55.66929337], [12.53831922, 55.67029275], [12.53940478, 55.67020878], [12.53951135, 55.6706374], [12.54752474, 55.67307255], [12.54995105, 55.67270092], [12.54992693, 55.6744397], [12.55409974, 55.67347215], [12.56037036, 55.67464748], [12.56114106, 55.67345307], [12.56447708, 55.67461215], [12.57279043, 55.66770581], [12.56674944, 55.66492181], [12.56667644, 55.66465795], [12.56533135, 55.66456426], [12.56303107, 55.6635143], [12.56531964, 55.66435614], [12.56586417, 55.66379654], [12.56517882, 55.66348563], [12.56476441, 55.66377805], [12.56360461, 55.6632535], [12.56401543, 55.66296365], [12.56366055, 55.66280231], [12.56291878, 55.66346351], [12.56257868, 55.66330971], [12.56412318, 55.66221397], [12.56650542, 55.66328892], [12.56464017, 55.66057322], [12.56379253, 55.66088153], [12.56436342, 55.66047799], [12.56410992, 55.66015558], [12.56336464, 55.65996426], [12.56290964, 55.66039768], [12.56317056, 55.66001892], [12.56109498, 55.6597246], [12.56032374, 55.65992045], [12.56051133, 55.66014675], [12.56029485, 55.66020323], [12.5597462, 55.65953026], [12.55818323, 55.65930821], [12.55839759, 55.65883955], [12.56303466, 55.65951331], [12.56426884, 55.65913668], [12.5636889, 55.6583555], [12.56271021, 55.65865723], [12.56187326, 55.65853602], [12.5637565, 55.6582168], [12.56290536, 55.65746168], [12.56166387, 55.65772968], [12.56292495, 55.65728085], [12.56187177, 55.6563567], [12.56083025, 55.65668813], [12.56190803, 55.65620165], [12.56060838, 55.65498957], [12.55947965, 55.65583731], [12.55900275, 55.65576148], [12.5588031, 55.65533668], [12.55999327, 55.65491705], [12.55860173, 55.653111], [12.55281598, 55.65448187], [12.55354957, 55.6554707], [12.55288644, 55.65696143], [12.55258239, 55.65691754], [12.55323556, 55.65548245], [12.55237015, 55.65435514], [12.55151676, 55.65459281], [12.55116663, 55.6551765], [12.55049831, 55.65537866], [12.54950272, 55.65459252], [12.54891521, 55.65471171], [12.55235586, 55.65372017], [12.5507234, 55.65227271], [12.55148754, 55.651997], [12.55317787, 55.65350312], [12.55642538, 55.65265743], [12.55446021, 55.65092254], [12.55467314, 55.65084554], [12.55665788, 55.6525968], [12.55834301, 55.65215846], [12.55856032, 55.65166816], [12.55610901, 55.64992247], [12.55677102, 55.64968103], [12.55610427, 55.64976333], [12.5557806, 55.64950711], [12.55617139, 55.64920844], [12.55563782, 55.64940168], [12.55525094, 55.64909172], [12.55563247, 55.64879516], [12.55509741, 55.64898827], [12.55479272, 55.64875907], [12.5551868, 55.6484579], [12.55451587, 55.64869677], [12.55433619, 55.64854851], [12.55498255, 55.64831685], [12.55428306, 55.64841217], [12.55394868, 55.64815796], [12.5543811, 55.64784388], [12.55362334, 55.64791064], [12.5540554, 55.64759537], [12.55348231, 55.64780342], [12.55252859, 55.64753563], [12.54685826, 55.64958705], [12.54811408, 55.65070602], [12.5477661, 55.65083302], [12.54659245, 55.64969671], [12.54622153, 55.6498304], [12.5476621, 55.65087097], [12.5470975, 55.65107701], [12.54715979, 55.65132475], [12.54602415, 55.6512214], [12.54509467, 55.65150794], [12.54329271, 55.64992608], [12.54147724, 55.65048206], [12.54111178, 55.65015573], [12.54333775, 55.64935849], [12.54534251, 55.64672136], [12.54466156, 55.64612185], [12.5455773, 55.64575354], [12.54759946, 55.6471221], [12.5466311, 55.64727496], [12.54708159, 55.64844286], [12.55306621, 55.64621209], [12.55399448, 55.64632165], [12.55519211, 55.64717861], [12.55583637, 55.64719682], [12.54908073, 55.64221743], [12.55123845, 55.64161697], [12.5514931, 55.64145461], [12.55133265, 55.64123631], [12.54873709, 55.64187875], [12.54870687, 55.6415142], [12.54978465, 55.64052166], [12.54908812, 55.6401401], [12.54867371, 55.64014071], [12.54676199, 55.64173206], [12.54491119, 55.64252781], [12.54149004, 55.64305067], [12.5409008, 55.64265112], [12.54153594, 55.64048198], [12.54449878, 55.64045938]]]}}, {"type": "Feature", "properties": {"bydel_nr": 5, "navn": "Valby"}, "geometry": {"type": "Polygon", "coordinates": [[[12.52822872, 55.66735359], [12.52331309, 55.66650584], [12.51100414, 55.66961228], [12.49653318, 55.66892823], [12.4954489, 55.67232856], [12.49329738, 55.67260185], [12.49260045, 55.67761626], [12.49131572, 55.67908256], [12.48944673, 55.67812594], [12.48708684, 55.6774275], [12.48475494, 55.67586214], [12.48415104, 55.67381379], [12.48243057, 55.67266805], [12.47428334, 55.67276852], [12.47473281, 55.67216193], [12.47861103, 55.67201288], [12.47812358, 55.66600956], [12.47856617, 55.66420755], [12.47817491, 55.66354058], [12.47807852, 55.66159443], [12.47731135, 55.65920712], [12.47786631, 55.65700321], [12.48165042, 55.65409459], [12.48336379, 55.65377909], [12.48732832, 55.65128128], [12.48853231, 55.64915859], [12.49013648, 55.64750559], [12.49047587, 55.64647101], [12.49158704, 55.6459454], [12.49430824, 55.64540976], [12.49721222, 55.64331446], [12.49720461, 55.64304788], [12.5009955, 55.64143515], [12.50268596, 55.63894896], [12.5066134, 55.63579301], [12.50708585, 55.63590853], [12.50921991, 55.63445601], [12.52003923, 55.63733559], [12.52235772, 55.63729273], [12.52116228, 55.64140926], [12.52265589, 55.64212499], [12.52240677, 55.64419055], [12.52336283, 55.64567766], [12.51910694, 55.65010849], [12.5165134, 55.65203174], [12.52049584, 55.65114592], [12.52047244, 55.6515587], [12.52349673, 55.65135073], [12.52755117, 55.65186382], [12.52443853, 55.6625295], [12.52764257, 55.66315898], [12.53058727, 55.66327416], [12.53054503, 55.66387048], [12.53012754, 55.66389291], [12.52822872, 55.66735359]]]}}, {"type": "Feature", "properties": {"bydel_nr": 9, "navn": "Amager Øst"}, "geometry": {"type": "Polygon", "coordinates": [[[12.63082255, 55.67057053], [12.63298745, 55.67102645], [12.63398034, 55.67024069], [12.63662152, 55.67018821], [12.6367226, 55.66950101], [12.63869476, 55.66805668], [12.63762788, 55.66698926], [12.63668414, 55.6668913], [12.63688302, 55.66680603], [12.64090719, 55.66704585], [12.63877015, 55.66817575], [12.63970353, 55.66916902], [12.63937659, 55.66925446], [12.63967522, 55.66972737], [12.64002657, 55.66968202], [12.64028135, 55.67007276], [12.64184111, 55.67014491], [12.64275387, 55.66952443], [12.64310079, 55.66995288], [12.64344491, 55.66991501], [12.64190529, 55.6672555], [12.64144263, 55.66712389], [12.64180496, 55.66707319], [12.64319963, 55.66907815], [12.64415664, 55.66930043], [12.644927, 55.67057923], [12.64443635, 55.66999485], [12.64128405, 55.67048107], [12.63652904, 55.67039242], [12.64127221, 55.6706241], [12.64175329, 55.67138358], [12.6432871, 55.67136275], [12.64468759, 55.67186454], [12.64569796, 55.67138052], [12.64572109, 55.67089741], [12.64583904, 55.67137674], [12.64486144, 55.67199688], [12.64651204, 55.6743309], [12.64822339, 55.67525595], [12.64769435, 55.67590162], [12.64811898, 55.67607879], [12.64468164, 55.67914806], [12.64077306, 55.67879492], [12.64042518, 55.67913358], [12.64065083, 55.67872735], [12.63947961, 55.67649473], [12.63635134, 55.67698543], [12.63464506, 55.67568568], [12.63299179, 55.67570705], [12.63493677, 55.67766336], [12.6346708, 55.67775174], [12.63467562, 55.67853979], [12.6339898, 55.67920777], [12.63510005, 55.67957718], [12.6352898, 55.6788704], [12.63551643, 55.6786911], [12.6353638, 55.67966721], [12.63973827, 55.68041218], [12.6391741, 55.68039236], [12.63699093, 55.68320307], [12.63725774, 55.6833779], [12.63674031, 55.6835257], [12.63548476, 55.68499321], [12.62738293, 55.68214201], [12.62491016, 55.68049405], [12.63047856, 55.67403687], [12.63351868, 55.67192838], [12.63249661, 55.67121756], [12.63051661, 55.67093861], [12.62858003, 55.67206069], [12.62067586, 55.68108223], [12.62485702, 55.68386028], [12.62594416, 55.6842423], [12.62640439, 55.68410521], [12.62682582, 55.68455212], [12.63594503, 55.68775676], [12.63286756, 55.69053621], [12.62823854, 55.68884599], [12.62741233, 55.68957382], [12.62640663, 55.68974787], [12.62516401, 55.68866556], [12.61989199, 55.68709113], [12.61991665, 55.68780754], [12.61970076, 55.68720337], [12.61786338, 55.68692009], [12.61662495, 55.68322552], [12.61565485, 55.6825269], [12.61427469, 55.6823363], [12.61415748, 55.68062443], [12.61489269, 55.67979655], [12.61451063, 55.67932046], [12.61364039, 55.67902369], [12.61288274, 55.67750268], [12.61332234, 55.67701713], [12.61327656, 55.67657268], [12.61177914, 55.67602321], [12.61023334, 55.67455961], [12.61018648, 55.67390516], [12.60901421, 55.67365589], [12.60778785, 55.672793], [12.60485761, 55.67160451], [12.60455768, 55.67109928], [12.60356472, 55.67103128], [12.60105691, 55.66994168], [12.60059202, 55.66943132], [12.59933424, 55.66947697], [12.59827524, 55.66925486], [12.59836081, 55.66890811], [12.59630425, 55.6686969], [12.60157412, 55.66323832], [12.60858953, 55.65747511], [12.61066152, 55.65438793], [12.61719381, 55.64043614], [12.6181192, 55.64059031], [12.619439, 55.63934249], [12.62091797, 55.63964302], [12.62104844, 55.6400013], [12.6272898, 55.64141394], [12.6259664, 55.64378755], [12.63398596, 55.64513953], [12.63432723, 55.6444049], [12.647907, 55.64630303], [12.64862213, 55.64753398], [12.65007691, 55.64738932], [12.65073794, 55.64766055], [12.64841707, 55.6476228], [12.64841488, 55.64793617], [12.64892439, 55.64788603], [12.64846338, 55.64807594], [12.64865512, 55.64839421], [12.6508193, 55.64790859], [12.6504103, 55.64825769], [12.64876082, 55.64850559], [12.6479313, 55.65029006], [12.6479715, 55.6515949], [12.64948211, 55.65395477], [12.65047579, 55.65453796], [12.65205792, 55.65460406], [12.65019317, 55.65468129], [12.64812767, 55.65575671], [12.64506978, 55.65761917], [12.64227505, 55.65994774], [12.64111831, 55.66105668], [12.63901812, 55.66402984], [12.63887997, 55.66442673], [12.63957822, 55.66518041], [12.63943119, 55.66550722], [12.6369922, 55.66279725], [12.63719638, 55.66226513], [12.6371554, 55.66256094], [12.6376149, 55.66234151], [12.63999578, 55.65963296], [12.64035479, 55.65879472], [12.64030828, 55.65782913], [12.64248984, 55.65751318], [12.64553998, 55.65572812], [12.64633552, 55.65497792], [12.64625292, 55.65448349], [12.64668914, 55.65432502], [12.64601105, 55.65303361], [12.64313923, 55.65141055], [12.64285984, 55.65092629], [12.64709231, 55.64832869], [12.64833999, 55.64819962], [12.6483509, 55.64787996], [12.64649382, 55.64801837], [12.64228359, 55.65076628], [12.6390311, 55.65633029], [12.63527155, 55.66118222], [12.63554668, 55.6633316], [12.63494673, 55.66476711], [12.6350637, 55.66431396], [12.63272335, 55.66363507], [12.63224108, 55.66465354], [12.63060364, 55.66457446], [12.63442988, 55.66530892], [12.63488707, 55.66487251], [12.6316598, 55.66855286], [12.63158347, 55.6694272], [12.63220592, 55.66960611], [12.63082255, 55.67057053]]]}}, {"type": "Feature", "properties": {"bydel_nr": 2, "navn": "Østerbro"}, "geometry": {"type": "Polygon", "coordinates": [[[12.59777177, 55.70348098], [12.59470849, 55.70280137], [12.59495768, 55.70205505], [12.5947264, 55.70167653], [12.59519207, 55.70139765], [12.59776263, 55.70259518], [12.59618307, 55.70130261], [12.59673416, 55.70107058], [12.5949638, 55.69586683], [12.59644178, 55.69574686], [12.59721167, 55.69877094], [12.5975504, 55.69903515], [12.59758866, 55.69874034], [12.59839226, 55.69867508], [12.59758644, 55.6956539], [12.59881524, 55.69555411], [12.59968023, 55.70278451], [12.60129566, 55.70396539], [12.60051278, 55.69556463], [12.59965336, 55.69544519], [12.59912457, 55.69488785], [12.59706703, 55.69420891], [12.59631245, 55.69341852], [12.59594826, 55.69341668], [12.59581511, 55.69403579], [12.59511122, 55.69460452], [12.59350109, 55.69488309], [12.59401503, 55.69566846], [12.59326789, 55.6968467], [12.59279316, 55.69935468], [12.57988497, 55.69631367], [12.57889749, 55.69780953], [12.57387555, 55.69545643], [12.57235813, 55.69386265], [12.56939105, 55.69199732], [12.56159677, 55.69635404], [12.56293303, 55.70641675], [12.56198458, 55.70596062], [12.5588659, 55.70318547], [12.55796099, 55.70354706], [12.55541852, 55.70969059], [12.55309498, 55.71142439], [12.56444446, 55.71927555], [12.56293427, 55.71996076], [12.56329188, 55.72021809], [12.56223219, 55.72069256], [12.56350194, 55.72182074], [12.56135948, 55.7225703], [12.56140871, 55.72386623], [12.56363562, 55.73153735], [12.56608015, 55.7312915], [12.56579128, 55.73271153], [12.56706233, 55.73247148], [12.56722607, 55.73185777], [12.56773512, 55.73179409], [12.56766238, 55.7312811], [12.56819567, 55.73008086], [12.57651807, 55.72894951], [12.57607261, 55.72761575], [12.57796893, 55.7229429], [12.57774234, 55.72224775], [12.58307911, 55.72184222], [12.5832006, 55.72086039], [12.58412179, 55.7198266], [12.58544806, 55.71993607], [12.58339252, 55.71954688], [12.5838571, 55.71748082], [12.58444074, 55.71724418], [12.58680339, 55.71755686], [12.5883437, 55.71832703], [12.5910867, 55.71870353], [12.59264498, 55.71839568], [12.59233891, 55.71779453], [12.59240987, 55.71811548], [12.59133748, 55.71836258], [12.59103975, 55.71794686], [12.58397378, 55.71704291], [12.58436744, 55.71579541], [12.58557995, 55.71604811], [12.58702484, 55.714555], [12.58687428, 55.71429796], [12.58788378, 55.71415175], [12.5883235, 55.71463189], [12.58982355, 55.714694], [12.58835967, 55.7123803], [12.59006906, 55.71059503], [12.5912176, 55.71081397], [12.5917597, 55.71007962], [12.59269756, 55.71038376], [12.59087449, 55.71216372], [12.5900523, 55.71217123], [12.59005973, 55.71256977], [12.59054775, 55.71258878], [12.59377479, 55.71710155], [12.59356068, 55.7171514], [12.59576024, 55.71926596], [12.59563381, 55.71971883], [12.60397255, 55.71834847], [12.6047809, 55.71961262], [12.60030359, 55.72052716], [12.60163062, 55.72436155], [12.60250545, 55.72471076], [12.60190992, 55.72395144], [12.60602404, 55.72310927], [12.60652536, 55.72378553], [12.60252557, 55.7252568], [12.6021447, 55.72489108], [12.60226884, 55.7256892], [12.61594587, 55.72064416], [12.62081682, 55.72385802], [12.62737313, 55.72508964], [12.63251094, 55.72506114], [12.63986941, 55.72238718], [12.6177119, 55.71223681], [12.6063293, 55.71452428], [12.60599102, 55.71399708], [12.61578702, 55.71189016], [12.61573138, 55.71153679], [12.61180703, 55.70973319], [12.61142291, 55.70902578], [12.6110073, 55.70893955], [12.61093039, 55.70930289], [12.61027837, 55.7094346], [12.610432, 55.7097041], [12.5998036, 55.71187502], [12.59946198, 55.71141812], [12.59698371, 55.71192179], [12.59705755, 55.71239184], [12.59627102, 55.71255338], [12.59542974, 55.71136405], [12.60327402, 55.70976416], [12.60480274, 55.7086784], [12.60537271, 55.70810657], [12.60565963, 55.70766999], [12.60534973, 55.70808342], [12.59788837, 55.70962011], [12.59811111, 55.70938846], [12.59773827, 55.70880563], [12.59719811, 55.70866631], [12.59897749, 55.70834636], [12.59896351, 55.70784624], [12.6022923, 55.70722557], [12.60293358, 55.70652158], [12.60247901, 55.70623094], [12.59923727, 55.7069088], [12.59924423, 55.7077377], [12.59896231, 55.70773743], [12.5989296, 55.7064486], [12.59869515, 55.70669376], [12.592012, 55.70602113], [12.59254311, 55.7046244], [12.59634815, 55.70502359], [12.59652093, 55.70382479], [12.59700101, 55.70400831], [12.59673763, 55.70398225], [12.5965803, 55.70506933], [12.59936905, 55.70534446], [12.59694497, 55.70386632], [12.59756218, 55.70392676], [12.59982982, 55.70531605], [12.60033982, 55.70529845], [12.59777177, 55.70348098]], [[12.59769937, 55.70947243], [12.59780727, 55.70963665], [12.59635009, 55.70974756], [12.59769937, 55.70947243]], [[12.59624994, 55.70976799], [12.59550945, 55.71010519], [12.59507819, 55.7099129], [12.59492935, 55.70907421], [12.59708528, 55.7086866], [12.59723102, 55.70890907], [12.59567808, 55.70922575], [12.59624994, 55.70976799]], [[12.60028648, 55.7139569], [12.59762407, 55.71445546], [12.59891106, 55.71622955], [12.60124709, 55.71575919], [12.6008024, 55.71488587], [12.60096862, 55.71446899], [12.60217597, 55.71567188], [12.60563681, 55.71466354], [12.60531034, 55.71416936], [12.60273227, 55.71471107], [12.60204531, 55.71363463], [12.60053107, 55.71425655], [12.60028648, 55.7139569]]]}}]}