{"type": "FeatureCollection", "features": [{"type": "Feature", "properties": {"kvarternr": 20101, "kvarternavn": "Middelalderbyen"}, "geometry": {"type": "Polygon", "coordinates": [[[12.57746703, 55.67411164], [12.58010935, 55.67211184], [12.5789768, 55.67146287], [12.57110671, 55.67543437], [12.5714002, 55.67555437], [12.56845352, 55.67669813], [12.5673801, 55.67741859], [12.56616836, 55.67885079], [12.57082967, 55.68247964], [12.57398975, 55.68451669], [12.58530329, 55.68145226], [12.58481532, 55.68080696], [12.58706333, 55.67587993], [12.58420227, 55.67612796], [12.57978823, 55.67770812], [12.57772374, 55.6771472], [12.57564103, 55.67566958], [12.57790867, 55.6769613], [12.57976061, 55.6775183], [12.58371504, 55.67598334], [12.58739057, 55.67529182], [12.58722686, 55.67495068], [12.58048027, 55.67226621], [12.57782907, 55.67424508], [12.57746703, 55.67411164]], [[12.57594964, 55.67547732], [12.57651012, 55.67490999], [12.5768542, 55.67501367], [12.57620156, 55.67558933], [12.57594964, 55.67547732]], [[12.57706816, 55.67486388], [12.57668028, 55.67476954], [12.57735231, 55.67419313], [12.57771763, 55.67432779], [12.57706816, 55.67486388]]]}}, {"type": "Feature", "properties": {"kvarternr": 20102, "kvarternavn": "Metropolzonen"}, "geometry": {"type": "Polygon", "coordinates": [[[12.5714002, 55.67555437], [12.57110671, 55.67543437], [12.5789768, 55.67146287], [12.5780847, 55.67095627], [12.5788631, 55.67056456], [12.5781225, 55.67081097], [12.57753813, 55.67060526], [12.57523729, 55.66908803], [12.57601542, 55.66912046], [12.57512643, 55.66902553], [12.57304099, 55.6678474], [12.57373202, 55.66783316], [12.57279043, 55.66770581], [12.56447708, 55.67461215], [12.56114106, 55.67345307], [12.56037036, 55.67464748], [12.55520953, 55.67367066], [12.55732001, 55.68168145], [12.55771635, 55.68213751], [12.56304194, 55.68004524], [12.56493827, 55.6785351], [12.56632042, 55.67901976], [12.56620664, 55.67862122], [12.5673801, 55.67741859], [12.56845352, 55.67669813], [12.5714002, 55.67555437]]]}}, {"type": "Feature", "properties": {"kvarternr": 20103, "kvarternavn": "Nansensgade-Kvarteret"}, "geometry": {"type": "Polygon", "coordinates": [[[12.56246603, 55.68027067], [12.55771635, 55.68213751], [12.56262903, 55.68713959], [12.5653603, 55.68612273], [12.56590094, 55.68661472], [12.57398975, 55.68451669], [12.56632042, 55.67901976], [12.56493827, 55.6785351], [12.56246603, 55.68027067]]]}}, {"type": "Feature", "properties": {"kvarternr": 20104, "kvarternavn": "Øster Farimagsgade-kvarteret"}, "geometry": {"type": "Polygon", "coordinates": [[[12.57616392, 55.68628911], [12.57377054, 55.68456915], [12.56590094, 55.68661472], [12.5653603, 55.68612273], [12.56262903, 55.68713959], [12.56647814, 55.69008619], [12.57235813, 55.69386265], [12.57387549, 55.69545643], [12.57889749, 55.69780953], [12.58032449, 55.69567444], [12.58720581, 55.69206651], [12.58449231, 55.69020284], [12.57616392, 55.68628911]]]}}, {"type": "Feature", "properties": {"kvarternr": 20201, "kvarternavn": "Christianshavn Neden Vandet"}, "geometry": {"type": "Polygon", "coordinates": [[[12.59091113, 55.67237236], [12.59065012, 55.67255482], [12.58754663, 55.67066591], [12.58398878, 55.67253236], [12.58361369, 55.67230127], [12.58755471, 55.67034164], [12.58719336, 55.67005268], [12.58114645, 55.67080494], [12.58474685, 55.67307273], [12.58738527, 55.67421353], [12.58728244, 55.67453231], [12.58749886, 55.67439878], [12.58971274, 55.67561594], [12.59165692, 55.67628035], [12.59245497, 55.67569996], [12.59269268, 55.67584409], [12.59197801, 55.67637669], [12.59514456, 55.6777277], [12.59606149, 55.67715989], [12.59662641, 55.67737904], [12.59572709, 55.67796443], [12.59663832, 55.67838479], [12.59841709, 55.67783082], [12.59417018, 55.6747544], [12.59277874, 55.67577947], [12.59254443, 55.67563455], [12.59395309, 55.67459437], [12.59105041, 55.67278746], [12.59129166, 55.67261225], [12.59091113, 55.67237236]]]}}, {"type": "Feature", "properties": {"kvarternr": 20105, "kvarternavn": "Østerport"}, "geometry": {"type": "Polygon", "coordinates": [[[12.59886263, 55.68915682], [12.59939865, 55.68836577], [12.59025757, 55.68731568], [12.58825516, 55.69151513], [12.58032449, 55.69567444], [12.57988497, 55.69631367], [12.59279316, 55.69935468], [12.59326789, 55.6968467], [12.59401503, 55.69566846], [12.59350109, 55.69488309], [12.59525828, 55.69452247], [12.5958208, 55.69402705], [12.59594826, 55.69341668], [12.59631245, 55.69341852], [12.59718661, 55.69426693], [12.59912457, 55.69488785], [12.59965336, 55.69544519], [12.60052361, 55.69497247], [12.60060103, 55.6941949], [12.59977442, 55.69489114], [12.59823946, 55.69425944], [12.59822398, 55.69373831], [12.5996008, 55.69348059], [12.60029783, 55.69404307], [12.60061318, 55.69396067], [12.60024616, 55.69342365], [12.59895416, 55.69290905], [12.59872737, 55.6918241], [12.59895464, 55.69141749], [12.60039643, 55.69105986], [12.59995229, 55.6890274], [12.59975768, 55.68939762], [12.59919349, 55.68943697], [12.59886263, 55.68915682]]]}}, {"type": "Feature", "properties": {"kvarternr": 20106, "kvarternavn": "Frederiksstaden"}, "geometry": {"type": "Polygon", "coordinates": [[[12.58737885, 55.68087737], [12.57377054, 55.68456915], [12.57670461, 55.68661583], [12.58449231, 55.69020284], [12.58720581, 55.69206651], [12.58825516, 55.69151513], [12.59025757, 55.68731568], [12.59939865, 55.68836577], [12.59365476, 55.68097332], [12.58860674, 55.68231612], [12.58737885, 55.68087737]]]}}, {"type": "Feature", "properties": {"kvarternr": 20309, "kvarternavn": "Lyngbyvej Vest"}, "geometry": {"type": "Polygon", "coordinates": [[[12.55857576, 55.71513441], [12.56293303, 55.70641675], [12.56198458, 55.70596062], [12.55886593, 55.70318546], [12.55765867, 55.70383037], [12.55645642, 55.70760329], [12.55541852, 55.70969059], [12.55309498, 55.71142439], [12.55857576, 55.71513441]]]}}, {"type": "Feature", "properties": {"kvarternr": 20107, "kvarternavn": "Gammelholm og Nyhavn"}, "geometry": {"type": "MultiPolygon", "coordinates": [[[[12.58993237, 55.67669754], [12.58750917, 55.67571549], [12.58706333, 55.67587993], [12.58481532, 55.68080696], [12.58528584, 55.68143004], [12.58737885, 55.68087737], [12.58860674, 55.68231612], [12.59365476, 55.68097332], [12.59390455, 55.68135264], [12.59485124, 55.68110341], [12.59631773, 55.68288228], [12.59703129, 55.68269335], [12.59400057, 55.67905669], [12.58795753, 55.68065849], [12.58776361, 55.68042589], [12.59362745, 55.67884677], [12.58993237, 55.67669754]]], [[[12.61447507, 55.7019701], [12.61378469, 55.70163033], [12.61282413, 55.70255215], [12.61312182, 55.70265037], [12.61362027, 55.70216326], [12.6142545, 55.70237052], [12.61463777, 55.70295205], [12.61413604, 55.70345111], [12.61239735, 55.70335863], [12.6128872, 55.70287582], [12.61259073, 55.70277913], [12.6116886, 55.70371488], [12.61469856, 55.70369083], [12.61527478, 55.70312348], [12.61447507, 55.7019701]]], [[[12.72906476, 55.7039566], [12.73143666, 55.7041644], [12.73425297, 55.70322559], [12.73358818, 55.7026793], [12.73120216, 55.70332258], [12.72931839, 55.70320312], [12.72906476, 55.7039566]]], [[[12.66717932, 55.72139281], [12.66819644, 55.72060157], [12.66807026, 55.71971464], [12.66772368, 55.71941352], [12.66599647, 55.71910824], [12.66746842, 55.71938087], [12.66667964, 55.71943553], [12.66400038, 55.72058023], [12.66370983, 55.72054215], [12.66400299, 55.71969509], [12.66556363, 55.7190793], [12.6638618, 55.71972002], [12.66356868, 55.72066894], [12.66399218, 55.72126728], [12.66558488, 55.72167197], [12.66717932, 55.72139281]]]]}}, {"type": "Feature", "properties": {"kvarternr": 20310, "kvarternavn": "Lyngbyvej Øst/Klimakvarteret"}, "geometry": {"type": "Polygon", "coordinates": [[[12.56293375, 55.70648369], [12.55986951, 55.71258539], [12.56840343, 55.71424019], [12.56695055, 55.71303047], [12.5671318, 55.71221821], [12.56908691, 55.71235497], [12.5696784, 55.71012344], [12.56854354, 55.71021442], [12.56941322, 55.70760855], [12.56293375, 55.70648369]]]}}, {"type": "Feature", "properties": {"kvarternr": 20311, "kvarternavn": "Fælled"}, "geometry": {"type": "Polygon", "coordinates": [[[12.57235813, 55.69386265], [12.56939105, 55.69199732], [12.56159677, 55.69635404], [12.56293303, 55.70641675], [12.57752806, 55.70917725], [12.57745011, 55.69979695], [12.57889749, 55.69780953], [12.57387549, 55.69545643], [12.57235813, 55.69386265]]]}}, {"type": "Feature", "properties": {"kvarternr": 20202, "kvarternavn": "Christianshavn Oven Vandet"}, "geometry": {"type": "Polygon", "coordinates": [[[12.59689643, 55.66884642], [12.59057238, 55.66757476], [12.58742928, 55.66771063], [12.58228725, 55.66860901], [12.57959978, 55.66987926], [12.58114645, 55.67080494], [12.58719336, 55.67005268], [12.59903239, 55.67751298], [12.6007652, 55.67693544], [12.60090439, 55.6764523], [12.60110028, 55.67672803], [12.60181752, 55.67479408], [12.60263462, 55.67450226], [12.6040964, 55.67465658], [12.60752626, 55.67685356], [12.60912896, 55.67895131], [12.60975515, 55.68056148], [12.60982584, 55.68332029], [12.61132157, 55.68366367], [12.61200156, 55.68437492], [12.61304837, 55.68473887], [12.61337374, 55.68362919], [12.61457195, 55.68305682], [12.61415745, 55.68062441], [12.61479198, 55.68016914], [12.61484988, 55.67966353], [12.61364041, 55.67902365], [12.61288274, 55.67750268], [12.61333465, 55.67698432], [12.61319789, 55.67646653], [12.61177914, 55.67602321], [12.61023334, 55.67455961], [12.6101619, 55.67388559], [12.60901421, 55.67365589], [12.60778785, 55.672793], [12.60485761, 55.67160451], [12.60455768, 55.67109928], [12.60356478, 55.67103126], [12.60105688, 55.66994169], [12.60059202, 55.66943132], [12.59933426, 55.66947696], [12.59827523, 55.66925487], [12.59836082, 55.66890811], [12.59689643, 55.66884642]], [[12.60285087, 55.67156951], [12.59869458, 55.67223822], [12.59864764, 55.67224577], [12.60285087, 55.67156951]], [[12.59397325, 55.67106536], [12.59295908, 55.67160951], [12.59397325, 55.67106536], [12.59397325, 55.67106536]]]}}, {"type": "Feature", "properties": {"kvarternr": 20203, "kvarternavn": "Holmen og Refshaleøen"}, "geometry": {"type": "MultiPolygon", "coordinates": [[[[12.59675661, 55.67889686], [12.59784027, 55.68006044], [12.60010174, 55.67950544], [12.59909175, 55.67826528], [12.59947748, 55.67801691], [12.60066133, 55.67937618], [12.60259281, 55.67891975], [12.60074473, 55.67955494], [12.60134985, 55.68028534], [12.6009657, 55.68039384], [12.60059314, 55.67996291], [12.59842292, 55.68055579], [12.59939665, 55.68167884], [12.60136717, 55.68115251], [12.59920153, 55.68189346], [12.59989624, 55.68272117], [12.60212423, 55.68212622], [12.60025158, 55.68278934], [12.60136347, 55.68406212], [12.60361249, 55.6834549], [12.60336632, 55.68317023], [12.60369801, 55.68308001], [12.60421318, 55.68374067], [12.60558863, 55.68356551], [12.60521681, 55.68301173], [12.60583749, 55.68283667], [12.60646099, 55.68350353], [12.60794202, 55.68290031], [12.60814887, 55.68152284], [12.60737936, 55.67938523], [12.60692791, 55.67895913], [12.60715858, 55.67887747], [12.60672488, 55.67834642], [12.60585548, 55.67840733], [12.60655648, 55.67818568], [12.6027271, 55.67886227], [12.60723356, 55.67767479], [12.60637372, 55.67653116], [12.60382151, 55.67484314], [12.60209906, 55.67486866], [12.60106045, 55.67727055], [12.59675661, 55.67889686]], [[12.60328101, 55.68307157], [12.60103809, 55.68047757], [12.6014346, 55.68036506], [12.60361818, 55.68297773], [12.60328101, 55.68307157]]], [[[12.6195216, 55.69804102], [12.6295314, 55.69741631], [12.63056624, 55.69469154], [12.62534674, 55.69272428], [12.62525744, 55.69198222], [12.62406784, 55.6904384], [12.62486379, 55.69018145], [12.62468228, 55.69001602], [12.62331446, 55.69035508], [12.61963902, 55.6897612], [12.62023147, 55.68848176], [12.61972621, 55.68840917], [12.6193445, 55.68913921], [12.61580513, 55.68855887], [12.6135313, 55.68857929], [12.61371707, 55.68707787], [12.61659093, 55.68720646], [12.61786338, 55.68692009], [12.61662492, 55.68322555], [12.61565485, 55.6825269], [12.61442394, 55.68235645], [12.61460444, 55.68301325], [12.61337374, 55.68362919], [12.61304837, 55.68473887], [12.61200156, 55.68437492], [12.61132157, 55.68366367], [12.61014693, 55.68334144], [12.60982584, 55.68332029], [12.60963916, 55.68385457], [12.60708366, 55.68387058], [12.60683274, 55.68353802], [12.60459845, 55.68403649], [12.60576707, 55.6855061], [12.60579425, 55.68636881], [12.60516934, 55.68637223], [12.60523266, 55.68740469], [12.60579196, 55.68757383], [12.60581859, 55.68857773], [12.6039081, 55.68876179], [12.6058065, 55.68886784], [12.60561596, 55.68910687], [12.60730547, 55.68943525], [12.60781683, 55.68924206], [12.60822815, 55.68790053], [12.60781115, 55.68759598], [12.60923409, 55.68404031], [12.60980921, 55.68406655], [12.60835101, 55.68721136], [12.61019179, 55.68795221], [12.61026338, 55.68900189], [12.61089268, 55.68937021], [12.60642137, 55.69003345], [12.60671742, 55.69048444], [12.60985442, 55.68990287], [12.61007201, 55.69042658], [12.60673769, 55.69105938], [12.60756157, 55.69447269], [12.60952299, 55.69414112], [12.61005536, 55.69504995], [12.60773359, 55.69548227], [12.60818205, 55.69729811], [12.61041294, 55.69570747], [12.61267815, 55.69529649], [12.61316894, 55.69615632], [12.60923092, 55.69719363], [12.61148602, 55.69763139], [12.6195216, 55.69804102]]]]}}, {"type": "Feature", "properties": {"kvarternr": 20301, "kvarternavn": "Nord/Komponistkvarteret"}, "geometry": {"type": "Polygon", "coordinates": [[[12.57752818, 55.71373114], [12.56897203, 55.71280849], [12.56864366, 55.71397062], [12.56802144, 55.71392056], [12.56949702, 55.71490703], [12.57226033, 55.71563637], [12.576242, 55.7159889], [12.5774815, 55.71572774], [12.57752818, 55.71373114]]]}}, {"type": "Feature", "properties": {"kvarternr": 20302, "kvarternavn": "Svanemøllen Syd/Øst"}, "geometry": {"type": "Polygon", "coordinates": [[[12.57752806, 55.70917725], [12.56941322, 55.70760855], [12.56854354, 55.71021442], [12.5696784, 55.71012344], [12.56908691, 55.71235497], [12.5671318, 55.71221821], [12.56695055, 55.71303047], [12.56802144, 55.71392056], [12.56864366, 55.71397062], [12.56897203, 55.71280849], [12.57752747, 55.71356766], [12.57736546, 55.7166213], [12.5820738, 55.71682017], [12.58328079, 55.71659994], [12.58929085, 55.70991188], [12.58510654, 55.70903046], [12.57752806, 55.70917725]]]}}, {"type": "Feature", "properties": {"kvarternr": 20303, "kvarternavn": "Århusgade Nord"}, "geometry": {"type": "Polygon", "coordinates": [[[12.57742871, 55.70498698], [12.57752806, 55.70917725], [12.58510654, 55.70903046], [12.58929085, 55.70991188], [12.59101064, 55.70730651], [12.58612296, 55.70675103], [12.5865283, 55.70593575], [12.57742871, 55.70498698]]]}}, {"type": "Feature", "properties": {"kvarternr": 20304, "kvarternavn": "Århusgade Syd"}, "geometry": {"type": "Polygon", "coordinates": [[[12.59218792, 55.70299754], [12.57785873, 55.69938896], [12.57745011, 55.69979695], [12.57742871, 55.70498698], [12.58139083, 55.70542682], [12.58466242, 55.70575888], [12.58624378, 55.70590712], [12.5865283, 55.70593575], [12.587419, 55.70429138], [12.58612296, 55.70675103], [12.59101064, 55.70730651], [12.59218792, 55.70299754]]]}}, {"type": "Feature", "properties": {"kvarternr": 20305, "kvarternavn": "Rosenvænget"}, "geometry": {"type": "Polygon", "coordinates": [[[12.59279316, 55.69935468], [12.57988497, 55.69631367], [12.57785873, 55.69938896], [12.59218792, 55.70299754], [12.59279316, 55.69935468]]]}}, {"type": "Feature", "properties": {"kvarternr": 20306, "kvarternavn": "Ny Ryvang"}, "geometry": {"type": "Polygon", "coordinates": [[[12.56862317, 55.72730732], [12.56950701, 55.72463976], [12.57270077, 55.71924061], [12.57452435, 55.71767928], [12.57738554, 55.71646694], [12.5774815, 55.71572774], [12.576242, 55.7159889], [12.57226033, 55.71563637], [12.56949702, 55.71490703], [12.56840343, 55.71424019], [12.55986951, 55.71258539], [12.55857576, 55.71513441], [12.56444446, 55.71927555], [12.56293432, 55.71996076], [12.56329188, 55.72021809], [12.56223219, 55.72069256], [12.56339755, 55.72193638], [12.56135948, 55.7225703], [12.56149494, 55.72445059], [12.56253428, 55.72806536], [12.56862317, 55.72730732]]]}}, {"type": "Feature", "properties": {"kvarternr": 20401, "kvarternavn": "Blågårdskvarteret/Assistens/Rantzausgade"}, "geometry": {"type": "Polygon", "coordinates": [[[12.5552675, 55.6838528], [12.55324021, 55.68487416], [12.54669414, 55.68530252], [12.54126964, 55.68767088], [12.5488403, 55.69434013], [12.55584766, 55.68970954], [12.56262903, 55.68713959], [12.55734123, 55.68174887], [12.55369242, 55.68161357], [12.5552675, 55.6838528]]]}}, {"type": "Feature", "properties": {"kvarternr": 20402, "kvarternavn": "Guldbergskvarteret/Panum/Ravnsborggade"}, "geometry": {"type": "Polygon", "coordinates": [[[12.55584766, 55.68970954], [12.5488403, 55.69434013], [12.56151101, 55.7055566], [12.56293303, 55.70641675], [12.56159677, 55.69635404], [12.56939105, 55.69199732], [12.56262903, 55.68713959], [12.55584766, 55.68970954]]]}}, {"type": "Feature", "properties": {"kvarternr": 20307, "kvarternavn": "Østerbro Nord"}, "geometry": {"type": "Polygon", "coordinates": [[[12.57784235, 55.7222308], [12.58307911, 55.72184222], [12.5832006, 55.72086039], [12.58412179, 55.7198266], [12.58544806, 55.71993607], [12.58339252, 55.71954688], [12.5838571, 55.71748082], [12.58434853, 55.71726403], [12.58680339, 55.71755686], [12.58824932, 55.71830115], [12.58988989, 55.71854965], [12.59153282, 55.71870954], [12.59264951, 55.71835746], [12.59233891, 55.71779453], [12.59240987, 55.71811548], [12.59133748, 55.71836258], [12.59103975, 55.71794686], [12.58397378, 55.71704291], [12.58436025, 55.71580238], [12.58557995, 55.71604811], [12.58702484, 55.714555], [12.58679032, 55.71426806], [12.5878664, 55.7140971], [12.58838736, 55.71462582], [12.58693147, 55.71257676], [12.58328079, 55.71659994], [12.5820738, 55.71682017], [12.57738554, 55.71646694], [12.57537465, 55.71723328], [12.57375173, 55.71820896], [12.57255949, 55.71943454], [12.56950701, 55.72463976], [12.56862317, 55.72730732], [12.56253428, 55.72806536], [12.56363562, 55.73153735], [12.56608015, 55.7312915], [12.56579128, 55.73271153], [12.56706233, 55.73247148], [12.56722607, 55.73185777], [12.56773512, 55.73179409], [12.56766238, 55.7312811], [12.56819567, 55.73008086], [12.57651807, 55.72894951], [12.57607261, 55.72761575], [12.57796893, 55.7229429], [12.57784235, 55.7222308]]]}}, {"type": "Feature", "properties": {"kvarternr": 20308, "kvarternavn": "Nordhavn"}, "geometry": {"type": "Polygon", "coordinates": [[[12.59470849, 55.70280137], [12.59495768, 55.70205505], [12.5947264, 55.70167653], [12.59519207, 55.70139765], [12.59776263, 55.70259518], [12.59618307, 55.70130261], [12.59673416, 55.70107058], [12.5949638, 55.69586683], [12.59644178, 55.69574686], [12.59721167, 55.69877095], [12.5975504, 55.69903515], [12.59758866, 55.69874034], [12.59839226, 55.69867508], [12.59758644, 55.6956539], [12.59881524, 55.6955541], [12.59968023, 55.70278451], [12.60136546, 55.70391313], [12.60051169, 55.69556066], [12.59965336, 55.69544519], [12.59912457, 55.69488785], [12.59706703, 55.69420891], [12.59631245, 55.69341852], [12.59594826, 55.69341668], [12.59581511, 55.69403579], [12.59511122, 55.69460452], [12.59350109, 55.69488309], [12.59401503, 55.69566846], [12.5931529, 55.69721825], [12.59210805, 55.70367907], [12.59127193, 55.70677565], [12.58910011, 55.7101708], [12.58693147, 55.71257676], [12.58838385, 55.71461939], [12.58982996, 55.71470131], [12.5883722, 55.71236825], [12.59006906, 55.71059503], [12.5912176, 55.71081397], [12.5917597, 55.71007962], [12.59269756, 55.71038376], [12.59087449, 55.71216372], [12.5900523, 55.71217123], [12.59005973, 55.71256977], [12.59054775, 55.71258878], [12.59377479, 55.71710155], [12.59356068, 55.7171514], [12.59576024, 55.71926596], [12.59563381, 55.71971883], [12.60397255, 55.71834848], [12.6047809, 55.71961262], [12.60030359, 55.72052716], [12.60163062, 55.72436155], [12.60250545, 55.72471076], [12.60190992, 55.72395144], [12.60602404, 55.72310927], [12.60652536, 55.72378553], [12.60252557, 55.7252568], [12.6021447, 55.72489108], [12.60223068, 55.72567657], [12.61594587, 55.72064416], [12.62081682, 55.72385802], [12.62737313, 55.72508964], [12.63251094, 55.72506114], [12.63986941, 55.72238718], [12.6177119, 55.71223681], [12.6063293, 55.71452428], [12.60599102, 55.71399708], [12.61578702, 55.71189016], [12.61573138, 55.71153679], [12.61180703, 55.70973319], [12.61142291, 55.70902578], [12.6110073, 55.70893955], [12.61093039, 55.70930289], [12.61027837, 55.7094346], [12.610432, 55.7097041], [12.5998036, 55.71187502], [12.59946198, 55.71141812], [12.59698371, 55.71192179], [12.59705755, 55.71239184], [12.59627102, 55.71255338], [12.59542974, 55.71136405], [12.60327402, 55.70976416], [12.60480274, 55.7086784], [12.6054173, 55.70805048], [12.60567347, 55.70751763], [12.60534973, 55.70808342], [12.59814802, 55.70956716], [12.59773827, 55.70880563], [12.59722295, 55.70866184], [12.59897749, 55.70834636], [12.59896343, 55.70783899], [12.6022923, 55.70722557], [12.60293358, 55.70652158], [12.60247901, 55.70623094], [12.59923727, 55.7069088], [12.59924425, 55.70774048], [12.59896228, 55.7077351], [12.5989296, 55.7064486], [12.59869515, 55.70669376], [12.592012, 55.70602113], [12.59254311, 55.7046244], [12.59634815, 55.70502359], [12.59652093, 55.70382479], [12.597001, 55.70400831], [12.59673763, 55.70398225], [12.5965803, 55.70506933], [12.59936905, 55.70534446], [12.59694497, 55.70386632], [12.59756218, 55.70392676], [12.59982982, 55.70531605], [12.60034442, 55.70529028], [12.59777177, 55.70348098], [12.59470849, 55.70280137]], [[12.60028648, 55.7139569], [12.60053107, 55.71425655], [12.60204531, 55.71363463], [12.60273227, 55.71471107], [12.60531034, 55.71416936], [12.60563681, 55.71466354], [12.60217597, 55.71567188], [12.60096862, 55.71446899], [12.6008024, 55.71488587], [12.60124709, 55.71575919], [12.59891106, 55.71622955], [12.59762407, 55.71445546], [12.60028648, 55.7139569]], [[12.59803406, 55.7095904], [12.59645405, 55.7099126], [12.59635009, 55.70974756], [12.59803406, 55.7095904]], [[12.59635441, 55.70993291], [12.59507819, 55.7099129], [12.59492935, 55.70907421], [12.59709721, 55.70868445], [12.59724396, 55.70890644], [12.59567808, 55.70922575], [12.59635441, 55.70993291]]]}}, {"type": "Feature", "properties": {"kvarternr": 20403, "kvarternavn": "Stefansgade/Nørrebroparken/Lundtoftegade"}, "geometry": {"type": "Polygon", "coordinates": [[[12.54126964, 55.68767088], [12.54049631, 55.68842477], [12.53730901, 55.69023513], [12.53564912, 55.69208985], [12.53572759, 55.69385069], [12.53476395, 55.69444242], [12.53609794, 55.69594394], [12.53826906, 55.69711375], [12.53829863, 55.69767162], [12.53600361, 55.69748309], [12.53693079, 55.69870922], [12.53781362, 55.70107744], [12.54048091, 55.6998626], [12.5488403, 55.69434013], [12.54126964, 55.68767088]]]}}, {"type": "Feature", "properties": {"kvarternr": 20404, "kvarternavn": "Mimersgade-kvarteret"}, "geometry": {"type": "Polygon", "coordinates": [[[12.54893369, 55.69441986], [12.54048091, 55.6998626], [12.53781362, 55.70107744], [12.53920632, 55.70410183], [12.54174725, 55.70670788], [12.55114137, 55.70142585], [12.55427901, 55.69911746], [12.54893369, 55.69441986]]]}}, {"type": "Feature", "properties": {"kvarternr": 20405, "kvarternavn": "Haraldsgade-kvarteret"}, "geometry": {"type": "Polygon", "coordinates": [[[12.55886593, 55.70318546], [12.55427901, 55.69911746], [12.55114137, 55.70142585], [12.54174725, 55.70670788], [12.54454265, 55.70835571], [12.55309498, 55.71142439], [12.55541852, 55.70969059], [12.55645642, 55.70760329], [12.55765867, 55.70383037], [12.55886593, 55.70318546]]]}}, {"type": "Feature", "properties": {"kvarternr": 20501, "kvarternavn": "Vesterbro vest"}, "geometry": {"type": "Polygon", "coordinates": [[[12.54158419, 55.66255558], [12.53058727, 55.66327416], [12.53054503, 55.66387048], [12.53012754, 55.66389291], [12.52822872, 55.66735359], [12.53493155, 55.66881947], [12.53482134, 55.66929337], [12.53831922, 55.67029275], [12.53940478, 55.67020878], [12.5395114, 55.67063737], [12.5450699, 55.67223573], [12.54617236, 55.67086265], [12.54158419, 55.66255558]]]}}, {"type": "Feature", "properties": {"kvarternr": 20502, "kvarternavn": "Vesterbro central"}, "geometry": {"type": "Polygon", "coordinates": [[[12.55877393, 55.66518497], [12.54176706, 55.6630229], [12.54617236, 55.67086265], [12.5450699, 55.67223573], [12.54752474, 55.67307255], [12.54995105, 55.67270092], [12.54992693, 55.6744397], [12.55447169, 55.67349293], [12.55472817, 55.67239955], [12.55380271, 55.67250583], [12.55386724, 55.67188997], [12.55618433, 55.66825294], [12.55504535, 55.66772329], [12.55701354, 55.66555288], [12.55877393, 55.66518497]]]}}, {"type": "Feature", "properties": {"kvarternr": 20503, "kvarternavn": "Vesterbro øst"}, "geometry": {"type": "Polygon", "coordinates": [[[12.56447708, 55.67461215], [12.57279043, 55.66770581], [12.57235981, 55.66746248], [12.57275405, 55.66720607], [12.57230875, 55.66743362], [12.56674944, 55.66492181], [12.56667644, 55.66465795], [12.56533332, 55.66456265], [12.56303108, 55.6635143], [12.56531964, 55.66435614], [12.56569553, 55.6640953], [12.56586417, 55.66379654], [12.56517882, 55.66348563], [12.56476441, 55.66377805], [12.56360461, 55.6632535], [12.56401543, 55.66296365], [12.56388383, 55.66263689], [12.56291878, 55.66346351], [12.56146391, 55.66326317], [12.55877393, 55.66518497], [12.55701354, 55.66555288], [12.55504535, 55.66772329], [12.55618433, 55.66825294], [12.55386724, 55.67188997], [12.55380271, 55.67250583], [12.55472817, 55.67239955], [12.55447169, 55.67349293], [12.55520953, 55.67367066], [12.56037036, 55.67464748], [12.56114106, 55.67345307], [12.56447708, 55.67461215]]]}}, {"type": "Feature", "properties": {"kvarternr": 21102, "kvarternavn": "Sundbyøster"}, "geometry": {"type": "Polygon", "coordinates": [[[12.61916313, 55.65377563], [12.61551753, 55.65317537], [12.61514404, 55.65391658], [12.61123426, 55.65317872], [12.60858953, 55.65747511], [12.60791175, 55.65804274], [12.60886161, 55.65834555], [12.61061456, 55.65971418], [12.61403678, 55.66052785], [12.61320633, 55.66177878], [12.6229335, 55.66372563], [12.62466252, 55.661508], [12.62898708, 55.66188964], [12.63179876, 55.65650677], [12.61889837, 55.65413022], [12.61916313, 55.65377563]]]}}, {"type": "Feature", "properties": {"kvarternr": 20504, "kvarternavn": "Vesterbro syd"}, "geometry": {"type": "Polygon", "coordinates": [[[12.56188942, 55.66318759], [12.56241813, 55.66342328], [12.56412318, 55.66221397], [12.56650542, 55.66328892], [12.56464017, 55.66057322], [12.56379253, 55.66088153], [12.56436342, 55.66047799], [12.56410992, 55.66015558], [12.56336464, 55.65996426], [12.56290964, 55.66039768], [12.56317056, 55.66001892], [12.56109498, 55.6597246], [12.56032374, 55.65992045], [12.56051133, 55.66014675], [12.56029485, 55.66020323], [12.55992389, 55.65974821], [12.56113423, 55.65962524], [12.56124436, 55.65952989], [12.55989531, 55.65971316], [12.55818323, 55.65930821], [12.55839759, 55.65883955], [12.56303466, 55.65951331], [12.56426884, 55.65913668], [12.5636889, 55.6583555], [12.56267156, 55.65865162], [12.5637549, 55.65821006], [12.56290536, 55.65746168], [12.5621352, 55.65769806], [12.56292495, 55.65728085], [12.56187177, 55.6563567], [12.56131745, 55.65663509], [12.56190803, 55.65620165], [12.56060838, 55.65498957], [12.5599819, 55.65531935], [12.55973523, 55.65500028], [12.55998667, 55.65491091], [12.5585997, 55.65311191], [12.55274128, 55.6544185], [12.55354957, 55.6554707], [12.55282416, 55.65709059], [12.54401779, 55.65571555], [12.53842367, 55.65410961], [12.53753367, 55.65530946], [12.54176706, 55.6630229], [12.55877393, 55.66518497], [12.56188942, 55.66318759]]]}}, {"type": "Feature", "properties": {"kvarternr": 20601, "kvarternavn": "Bavnehøj"}, "geometry": {"type": "Polygon", "coordinates": [[[12.53753367, 55.65530946], [12.53846322, 55.65401693], [12.52776435, 55.65104656], [12.52443853, 55.6625295], [12.52764257, 55.66315898], [12.53042708, 55.66327589], [12.5373356, 55.66304674], [12.54158419, 55.66255558], [12.53753367, 55.65530946]]]}}, {"type": "Feature", "properties": {"kvarternr": 20602, "kvarternavn": "Gl. Sydhavn"}, "geometry": {"type": "Polygon", "coordinates": [[[12.53156212, 55.63174945], [12.53072235, 55.63227413], [12.53123388, 55.63534863], [12.53077405, 55.63577788], [12.52978974, 55.63580591], [12.52922505, 55.63618111], [12.5324982, 55.63627053], [12.53198659, 55.63724275], [12.53223628, 55.63853396], [12.53151677, 55.64200279], [12.53068164, 55.6424199], [12.53168325, 55.63932159], [12.53178269, 55.63804983], [12.52733127, 55.637531], [12.52640502, 55.64269746], [12.52612856, 55.64256211], [12.52702911, 55.63749868], [12.52684456, 55.63728025], [12.52821729, 55.63696191], [12.53158562, 55.63730661], [12.53189173, 55.63690786], [12.52795989, 55.63648944], [12.52549261, 55.63733272], [12.52258306, 55.63701842], [12.52116228, 55.64140926], [12.52265589, 55.64212499], [12.52240677, 55.64419055], [12.52336283, 55.64567766], [12.51910694, 55.65010849], [12.5165134, 55.65203174], [12.52049584, 55.65114592], [12.52047244, 55.6515587], [12.52349673, 55.65135073], [12.52755117, 55.65186382], [12.52776435, 55.65104656], [12.53846322, 55.65401693], [12.54252357, 55.64607623], [12.54346508, 55.6451363], [12.54675465, 55.6429876], [12.55141442, 55.64134756], [12.55089216, 55.64123786], [12.54884503, 55.64196045], [12.54869275, 55.6415333], [12.54978465, 55.64052166], [12.54867371, 55.64014071], [12.54706877, 55.6415332], [12.54565614, 55.64226832], [12.54133375, 55.64305314], [12.5409008, 55.64265112], [12.54153594, 55.64048198], [12.54449878, 55.64045938], [12.54676156, 55.63896536], [12.54599323, 55.63930852], [12.54074744, 55.63654252], [12.54134947, 55.6361035], [12.54086773, 55.63622714], [12.54060573, 55.63577824], [12.53734107, 55.63481748], [12.53690605, 55.63442842], [12.53746083, 55.6340064], [12.53666517, 55.63428495], [12.53570346, 55.63389068], [12.53504599, 55.63328566], [12.53272846, 55.63220727], [12.53324495, 55.63176994], [12.53266557, 55.63203217], [12.53156212, 55.63174945]]]}}, {"type": "Feature", "properties": {"kvarternr": 20603, "kvarternavn": "Holmene"}, "geometry": {"type": "Polygon", "coordinates": [[[12.54908073, 55.64221743], [12.55221762, 55.64439062], [12.54843201, 55.64575475], [12.55282807, 55.64438718], [12.55175468, 55.64535254], [12.55107092, 55.64501859], [12.55157422, 55.64545993], [12.55052465, 55.64601017], [12.54966924, 55.64552622], [12.55032633, 55.646102], [12.54934308, 55.64650701], [12.55069273, 55.64610873], [12.55281563, 55.64480047], [12.55566399, 55.64682719], [12.5558245, 55.64722142], [12.55519211, 55.64717861], [12.55399448, 55.64632165], [12.55326646, 55.64636378], [12.55195906, 55.64549634], [12.5517798, 55.6456034], [12.55287407, 55.64634705], [12.55174575, 55.64675533], [12.55074428, 55.64614414], [12.55054091, 55.64623718], [12.55149562, 55.64684583], [12.54884388, 55.64780529], [12.54824013, 55.6470578], [12.54799885, 55.64711559], [12.54859802, 55.64789425], [12.54708159, 55.64844286], [12.54663108, 55.647275], [12.54913802, 55.64670904], [12.54722813, 55.64707625], [12.54555775, 55.64573624], [12.54476007, 55.64606232], [12.54552284, 55.64671191], [12.54333778, 55.64935846], [12.54111186, 55.65015572], [12.54147729, 55.65048201], [12.54329271, 55.64992608], [12.54509467, 55.65150794], [12.54602415, 55.6512214], [12.54715979, 55.65132475], [12.5470975, 55.65107701], [12.5476621, 55.65087097], [12.54622153, 55.6498304], [12.54659245, 55.64969671], [12.5477661, 55.65083302], [12.54811408, 55.65070602], [12.54685826, 55.64958705], [12.5517418, 55.64782089], [12.55230626, 55.64846063], [12.55263546, 55.64834612], [12.55195576, 55.64774332], [12.55252859, 55.64753563], [12.55348231, 55.64780342], [12.5540554, 55.64759537], [12.55362334, 55.64791064], [12.5543811, 55.64784388], [12.55394868, 55.64815796], [12.55428306, 55.64841217], [12.55498255, 55.64831685], [12.55318614, 55.64896622], [12.55271204, 55.64841404], [12.55238488, 55.64853043], [12.55299435, 55.64907147], [12.55264856, 55.64919691], [12.55294756, 55.64960389], [12.55344114, 55.64989686], [12.55395619, 55.64971108], [12.55349752, 55.64972756], [12.5529677, 55.64925795], [12.5551868, 55.6484579], [12.55479272, 55.64875907], [12.55509741, 55.64898827], [12.55563247, 55.64879516], [12.55525094, 55.64909172], [12.55563782, 55.64940168], [12.55617139, 55.64920844], [12.5557806, 55.64950711], [12.55610427, 55.64976333], [12.55677102, 55.64968103], [12.55474768, 55.65041405], [12.55399896, 55.64974934], [12.55331039, 55.64999562], [12.5540858, 55.65027699], [12.55402249, 55.65066092], [12.5563907, 55.64998775], [12.55862678, 55.65164249], [12.5583429, 55.65215851], [12.55665788, 55.6525968], [12.55467314, 55.65084554], [12.55446021, 55.65092254], [12.55642539, 55.65265743], [12.55317787, 55.65350312], [12.55148754, 55.651997], [12.5507234, 55.65227271], [12.55235586, 55.65372017], [12.54885258, 55.65463323], [12.54950272, 55.65459252], [12.55049831, 55.65537866], [12.55116663, 55.6551765], [12.55151676, 55.65459281], [12.55237015, 55.65435514], [12.55323556, 55.65548245], [12.55258239, 55.65691754], [12.5529441, 55.6568317], [12.55282416, 55.65709059], [12.54401779, 55.65571555], [12.53842367, 55.65410961], [12.54252357, 55.64607623], [12.54399314, 55.64469589], [12.54729082, 55.64273592], [12.55141442, 55.64134756], [12.54908073, 55.64221743]]]}}, {"type": "Feature", "properties": {"kvarternr": 21205, "kvarternavn": "Grønjordssøen (Ørestad Nord, Vejlands Kvarter)"}, "geometry": {"type": "Polygon", "coordinates": [[[12.58392386, 55.6643395], [12.59398744, 55.66300404], [12.59233011, 55.65733632], [12.59421465, 55.65498769], [12.59035633, 55.65499774], [12.5881363, 55.64922341], [12.58610213, 55.64124181], [12.58225175, 55.64071869], [12.56353936, 55.64148108], [12.56756295, 55.64882484], [12.56630503, 55.64995709], [12.56788628, 55.65288264], [12.56773519, 55.65325756], [12.56894045, 55.6529477], [12.56917272, 55.65336569], [12.56863302, 55.65643409], [12.56879539, 55.65691327], [12.57372238, 55.66069019], [12.58125518, 55.66288402], [12.58392386, 55.6643395]]]}}, {"type": "Feature", "properties": {"kvarternr": 20701, "kvarternavn": "Gl. Valby"}, "geometry": {"type": "Polygon", "coordinates": [[[12.5233423, 55.66650715], [12.52822872, 55.66735359], [12.53012754, 55.66389291], [12.53054503, 55.66387048], [12.53058246, 55.66337866], [12.50774782, 55.66343861], [12.50752503, 55.66397302], [12.49402903, 55.66411946], [12.49382804, 55.66903123], [12.5041081, 55.66681546], [12.50359543, 55.6679814], [12.50371956, 55.66914285], [12.51100414, 55.66961228], [12.5233423, 55.66650715]]]}}, {"type": "Feature", "properties": {"kvarternr": 20703, "kvarternavn": "Ålholm"}, "geometry": {"type": "Polygon", "coordinates": [[[12.49389111, 55.66907601], [12.49402903, 55.66411946], [12.4785694, 55.66427336], [12.47812358, 55.66600956], [12.478588, 55.67208015], [12.47473281, 55.67216193], [12.47428334, 55.67276852], [12.48243057, 55.67266805], [12.48415222, 55.6738136], [12.48475494, 55.67586214], [12.48708796, 55.67742735], [12.48944673, 55.67812594], [12.49131572, 55.67908256], [12.49260045, 55.67761626], [12.49329738, 55.67260185], [12.4954489, 55.67232856], [12.49653318, 55.66892823], [12.50263091, 55.66936147], [12.50371956, 55.66914285], [12.50359543, 55.6679814], [12.5041081, 55.66681546], [12.49389111, 55.66907601]]]}}, {"type": "Feature", "properties": {"kvarternr": 20702, "kvarternavn": "Valby syd"}, "geometry": {"type": "Polygon", "coordinates": [[[12.51917972, 55.65003831], [12.52336283, 55.64567766], [12.52240677, 55.64419055], [12.52265589, 55.64212499], [12.52116228, 55.64140926], [12.52235772, 55.63729273], [12.52003923, 55.63733559], [12.50884424, 55.63451579], [12.50708585, 55.63590853], [12.5066134, 55.63579301], [12.50262387, 55.63900176], [12.50150529, 55.64081136], [12.50353743, 55.64259376], [12.50453314, 55.64240077], [12.50607252, 55.64530108], [12.51183759, 55.65050104], [12.50783953, 55.65064791], [12.51153186, 55.65508202], [12.49503345, 55.66168515], [12.49398283, 55.66289583], [12.49402903, 55.66411946], [12.50752503, 55.66397302], [12.50774782, 55.66343861], [12.53058246, 55.66337866], [12.52443853, 55.6625295], [12.52755117, 55.65186382], [12.52349673, 55.65135073], [12.52047244, 55.6515587], [12.52049584, 55.65114592], [12.5165134, 55.65203174], [12.51917972, 55.65003831]]]}}, {"type": "Feature", "properties": {"kvarternr": 21210, "kvarternavn": "Ørestad City"}, "geometry": {"type": "Polygon", "coordinates": [[[12.57184513, 55.63159133], [12.57431432, 55.63127643], [12.5782401, 55.63140396], [12.5828493, 55.63046449], [12.58610213, 55.64124181], [12.58270632, 55.6407214], [12.57570584, 55.6409708], [12.57184513, 55.63159133]]]}}, {"type": "Feature", "properties": {"kvarternr": 20704, "kvarternavn": "Valby sydvest"}, "geometry": {"type": "Polygon", "coordinates": [[[12.50105108, 55.64139731], [12.49720461, 55.64304788], [12.49721222, 55.64331446], [12.49430824, 55.64540976], [12.49158704, 55.6459454], [12.49047587, 55.64647101], [12.49013648, 55.64750559], [12.48853122, 55.64916008], [12.48767412, 55.65092569], [12.48616293, 55.65194942], [12.48656623, 55.65219959], [12.48662988, 55.65269847], [12.48836256, 55.65269573], [12.48780533, 55.65338498], [12.50061268, 55.65631787], [12.49969802, 55.65806725], [12.49677551, 55.65966923], [12.49884319, 55.65999224], [12.51153186, 55.65508202], [12.50783953, 55.65064791], [12.51183759, 55.65050104], [12.50607252, 55.64530108], [12.50453314, 55.64240077], [12.50353743, 55.64259376], [12.50150529, 55.64081136], [12.50105108, 55.64139731]]]}}, {"type": "Feature", "properties": {"kvarternr": 20803, "kvarternavn": "Sallingvej Kvarter"}, "geometry": {"type": "Polygon", "coordinates": [[[12.50397217, 55.68825104], [12.5021219, 55.68757195], [12.50126489, 55.6880299], [12.49591472, 55.69316996], [12.49594422, 55.69352019], [12.49175747, 55.69479943], [12.49098187, 55.6973882], [12.49406855, 55.69784596], [12.50287059, 55.69821497], [12.50516459, 55.69664889], [12.50632898, 55.69705887], [12.51229728, 55.69313612], [12.51380198, 55.69260385], [12.51635955, 55.69057401], [12.51039848, 55.68910599], [12.50397217, 55.68825104]]]}}, {"type": "Feature", "properties": {"kvarternr": 20705, "kvarternavn": "Vigerslev"}, "geometry": {"type": "Polygon", "coordinates": [[[12.49677551, 55.65966923], [12.49969802, 55.65806725], [12.50061268, 55.65631787], [12.48780533, 55.65338498], [12.48836256, 55.65269573], [12.48662988, 55.65269847], [12.48656623, 55.65219959], [12.48616293, 55.65194942], [12.48329596, 55.65381199], [12.48165042, 55.65409459], [12.47882741, 55.65609858], [12.47782354, 55.65706108], [12.47730686, 55.65904442], [12.47807852, 55.66159443], [12.47817491, 55.66354058], [12.4785694, 55.66427336], [12.49402903, 55.66411946], [12.49398283, 55.66289583], [12.49473689, 55.66189932], [12.49884319, 55.65999224], [12.49677551, 55.65966923]]]}}, {"type": "Feature", "properties": {"kvarternr": 20905, "kvarternavn": "Bellahøj"}, "geometry": {"type": "Polygon", "coordinates": [[[12.51214804, 55.7022458], [12.50697851, 55.69746201], [12.50516459, 55.69664889], [12.5027479, 55.69843451], [12.50371214, 55.69873537], [12.50359431, 55.69952813], [12.50401687, 55.70013857], [12.50598911, 55.70103626], [12.50655736, 55.70160307], [12.50708147, 55.7025734], [12.50659934, 55.70312688], [12.50805293, 55.704567], [12.50917258, 55.70462749], [12.50887697, 55.70575836], [12.51008793, 55.70591721], [12.50989146, 55.7065278], [12.51184855, 55.70844953], [12.51594459, 55.70665998], [12.51422793, 55.70648887], [12.51214804, 55.7022458]]]}}, {"type": "Feature", "properties": {"kvarternr": 20801, "kvarternavn": "Jyllingevej Kvarter"}, "geometry": {"type": "Polygon", "coordinates": [[[12.48104676, 55.69121199], [12.48550133, 55.67789145], [12.48683822, 55.67710467], [12.48460425, 55.67574704], [12.48415222, 55.6738136], [12.48243057, 55.67266805], [12.47428334, 55.67276852], [12.47299329, 55.67456342], [12.47273094, 55.67606939], [12.47200195, 55.67762681], [12.47039745, 55.67879504], [12.46942305, 55.68022381], [12.46929022, 55.68134127], [12.46781215, 55.68234482], [12.46792328, 55.68280579], [12.4660139, 55.69020852], [12.4667193, 55.69144443], [12.46722421, 55.69150381], [12.4663774, 55.69340855], [12.46348598, 55.69634519], [12.46407989, 55.69902419], [12.46379897, 55.70079191], [12.47739605, 55.69779276], [12.49030449, 55.69862839], [12.4902149, 55.69734077], [12.49098187, 55.6973882], [12.49175747, 55.69479943], [12.49427341, 55.6939051], [12.48104676, 55.69121199]], [[12.48211574, 55.68473359], [12.48211577, 55.6847336], [12.48190084, 55.68471342], [12.48211574, 55.68473359]]]}}, {"type": "Feature", "properties": {"kvarternr": 20802, "kvarternavn": "Jernbane Allé Kvarter"}, "geometry": {"type": "Polygon", "coordinates": [[[12.48683822, 55.67710467], [12.48550133, 55.67789145], [12.48522848, 55.67862613], [12.48104676, 55.69121199], [12.49427341, 55.6939051], [12.49594422, 55.69352019], [12.49591472, 55.69316996], [12.50126489, 55.6880299], [12.5021219, 55.68757195], [12.4959211, 55.68406526], [12.49597889, 55.68455266], [12.4956785, 55.68453628], [12.49476871, 55.68330572], [12.49395805, 55.68306146], [12.49304785, 55.68209945], [12.49150851, 55.67917178], [12.48683822, 55.67710467]]]}}, {"type": "Feature", "properties": {"kvarternr": 20804, "kvarternavn": "Grøndals Park Kvarter"}, "geometry": {"type": "Polygon", "coordinates": [[[12.52633598, 55.69653018], [12.52704606, 55.69631123], [12.52711316, 55.69583577], [12.52756143, 55.69558191], [12.52496776, 55.69515795], [12.52291444, 55.69443307], [12.51880091, 55.69153611], [12.51635955, 55.69057401], [12.51380198, 55.69260385], [12.51229728, 55.69313612], [12.50632898, 55.69705887], [12.51205648, 55.70212929], [12.51422793, 55.70648887], [12.5159757, 55.70662878], [12.51797472, 55.70355891], [12.51946165, 55.70199061], [12.52633598, 55.69653018]]]}}, {"type": "Feature", "properties": {"kvarternr": 21005, "kvarternavn": "Nordvest"}, "geometry": {"type": "Polygon", "coordinates": [[[12.53063668, 55.69671643], [12.52972533, 55.69583423], [12.52756143, 55.69558191], [12.52711316, 55.69583577], [12.52704606, 55.69631123], [12.52521502, 55.69720379], [12.51946165, 55.70199061], [12.51797472, 55.70355891], [12.5159757, 55.70662878], [12.52160848, 55.70603338], [12.52243936, 55.70733079], [12.52498523, 55.70855715], [12.52142254, 55.70936728], [12.52174796, 55.70996313], [12.52336139, 55.70964755], [12.52336751, 55.71141866], [12.53207113, 55.71223687], [12.53208483, 55.711875], [12.53403756, 55.7124239], [12.53510191, 55.71347268], [12.53968954, 55.70840064], [12.54174725, 55.70670788], [12.53920632, 55.70410183], [12.53840634, 55.70272596], [12.5372382, 55.69932936], [12.53620029, 55.6976563], [12.53214954, 55.69713091], [12.53225054, 55.69667691], [12.53063668, 55.69671643]], [[12.53331569, 55.70184344], [12.53325933, 55.70185756], [12.533439, 55.70181246], [12.53331569, 55.70184344]]]}}, {"type": "Feature", "properties": {"kvarternr": 20901, "kvarternavn": "Husum"}, "geometry": {"type": "Polygon", "coordinates": [[[12.48854221, 55.69851316], [12.47739605, 55.69779276], [12.46420157, 55.70089619], [12.46427305, 55.70224524], [12.46371494, 55.70289414], [12.46115155, 55.70318714], [12.45678559, 55.70443198], [12.45579597, 55.70501427], [12.45508488, 55.7061099], [12.45371685, 55.70711393], [12.45304564, 55.71222971], [12.45485895, 55.7133334], [12.45787586, 55.71448453], [12.45881977, 55.71646618], [12.46808055, 55.71302924], [12.47761878, 55.71047609], [12.48512812, 55.70781539], [12.48582895, 55.70843431], [12.48580284, 55.70880918], [12.48693921, 55.7087366], [12.48818065, 55.70910642], [12.48917379, 55.71054461], [12.4898142, 55.7109494], [12.49439372, 55.71108022], [12.49472466, 55.70999148], [12.49438487, 55.706857], [12.49083445, 55.70409787], [12.48854221, 55.69851316]]]}}, {"type": "Feature", "properties": {"kvarternr": 21101, "kvarternavn": "Amagerbro øst"}, "geometry": {"type": "Polygon", "coordinates": [[[12.60896826, 55.65841827], [12.60776055, 55.65816427], [12.60157412, 55.66323832], [12.59630425, 55.6686969], [12.59836082, 55.66890811], [12.59827523, 55.66925487], [12.59933426, 55.66947696], [12.60050275, 55.66940018], [12.60105688, 55.66994169], [12.6054018, 55.67162635], [12.60811874, 55.66937237], [12.61120661, 55.66955028], [12.61825707, 55.66888362], [12.61479986, 55.66796668], [12.6156205, 55.66694761], [12.61708658, 55.66727268], [12.62023029, 55.66319411], [12.61320633, 55.66177878], [12.61403678, 55.66052785], [12.61061456, 55.65971418], [12.60896826, 55.65841827]]]}}, {"type": "Feature", "properties": {"kvarternr": 20902, "kvarternavn": "Husum Nord"}, "geometry": {"type": "Polygon", "coordinates": [[[12.48584973, 55.70872661], [12.48512812, 55.70781539], [12.47761878, 55.71047609], [12.46808055, 55.71302924], [12.45881977, 55.71646618], [12.45865814, 55.71682296], [12.46336857, 55.71762119], [12.46621089, 55.71887225], [12.47287083, 55.71886376], [12.4764962, 55.72078659], [12.47682188, 55.7204362], [12.47657983, 55.72003487], [12.47816495, 55.71899531], [12.48684092, 55.717124], [12.48887851, 55.71696048], [12.49176794, 55.71696012], [12.49535831, 55.71760037], [12.49741222, 55.71842017], [12.49817749, 55.71909877], [12.50473926, 55.7128459], [12.50363736, 55.71241811], [12.50323378, 55.71168218], [12.50252233, 55.71144844], [12.49901818, 55.71140977], [12.49740097, 55.71228336], [12.49567618, 55.71243964], [12.49463499, 55.71191159], [12.49439372, 55.71108022], [12.48996912, 55.71099782], [12.48921394, 55.71058918], [12.4881241, 55.70906889], [12.48584973, 55.70872661]]]}}, {"type": "Feature", "properties": {"kvarternr": 20903, "kvarternavn": "Tingbjerg"}, "geometry": {"type": "Polygon", "coordinates": [[[12.47691076, 55.72095452], [12.4764962, 55.72078659], [12.47682188, 55.7204362], [12.47656104, 55.72006205], [12.47816495, 55.71899531], [12.48684092, 55.717124], [12.49080014, 55.71690292], [12.49348925, 55.71718913], [12.4962847, 55.71790962], [12.49817749, 55.71909877], [12.49234391, 55.72270411], [12.48870217, 55.72449185], [12.48431652, 55.72476511], [12.47751119, 55.72209988], [12.47691076, 55.72095452]]]}}, {"type": "Feature", "properties": {"kvarternr": 20904, "kvarternavn": "Brønshøj"}, "geometry": {"type": "Polygon", "coordinates": [[[12.49406855, 55.69784596], [12.4902149, 55.69734077], [12.49030449, 55.69862839], [12.48854221, 55.69851316], [12.49083445, 55.70409787], [12.49438487, 55.706857], [12.49472466, 55.70999148], [12.49437168, 55.71121815], [12.49455915, 55.71182476], [12.49526538, 55.71232401], [12.49630323, 55.71248965], [12.49773774, 55.71216547], [12.49901818, 55.71140977], [12.50263158, 55.71145797], [12.50329289, 55.71173636], [12.50361189, 55.71240173], [12.50473926, 55.7128459], [12.49998363, 55.71717057], [12.49878036, 55.71866708], [12.49234391, 55.72270411], [12.49414054, 55.72297575], [12.4999735, 55.72073102], [12.50098525, 55.72044409], [12.50259426, 55.72053271], [12.50435707, 55.71985407], [12.50827162, 55.72026649], [12.51300655, 55.71984585], [12.51327456, 55.71888606], [12.51296245, 55.71772402], [12.51660505, 55.71710215], [12.51579017, 55.71407125], [12.5130705, 55.71259338], [12.51216759, 55.71173391], [12.51280111, 55.71027941], [12.51258449, 55.70917468], [12.50989146, 55.7065278], [12.51008793, 55.70591721], [12.50887697, 55.70575836], [12.50917258, 55.70462749], [12.50805293, 55.704567], [12.50659934, 55.70312688], [12.50708147, 55.7025734], [12.50655736, 55.70160307], [12.50389322, 55.70002958], [12.50359431, 55.69952813], [12.50371214, 55.69873537], [12.5027479, 55.69843451], [12.50304614, 55.69822694], [12.49406855, 55.69784596]]]}}, {"type": "Feature", "properties": {"kvarternr": 21001, "kvarternavn": "Emdrup"}, "geometry": {"type": "Polygon", "coordinates": [[[12.52983675, 55.72179281], [12.53139171, 55.72051023], [12.53144542, 55.7181214], [12.52815597, 55.71894565], [12.52359479, 55.71770729], [12.52145554, 55.7167694], [12.51792764, 55.71689632], [12.51296245, 55.71772402], [12.51327456, 55.71888606], [12.51300655, 55.71984585], [12.51358452, 55.71996704], [12.51354007, 55.72041327], [12.51451305, 55.7216008], [12.51461983, 55.72288984], [12.51529414, 55.7228678], [12.51837042, 55.72680293], [12.5195992, 55.72756618], [12.52133684, 55.72785279], [12.52524155, 55.72734085], [12.52558697, 55.72681997], [12.52624507, 55.72710635], [12.52741849, 55.72683231], [12.52952834, 55.72714969], [12.53512654, 55.72711335], [12.5387611, 55.72633309], [12.54026531, 55.72250037], [12.542097, 55.71969224], [12.54092905, 55.71938639], [12.53806983, 55.72025785], [12.53490855, 55.72041969], [12.53566051, 55.72282336], [12.52916835, 55.72311483], [12.52983675, 55.72179281]]]}}, {"type": "Feature", "properties": {"kvarternr": 21002, "kvarternavn": "Ryparken-Lundehus"}, "geometry": {"type": "Polygon", "coordinates": [[[12.56444446, 55.71927555], [12.55309498, 55.71142439], [12.55243358, 55.71182442], [12.54910189, 55.711734], [12.54697712, 55.71247719], [12.54612178, 55.71428268], [12.5407712, 55.72155524], [12.5387611, 55.72633309], [12.53972774, 55.72595247], [12.54082692, 55.72422959], [12.54183902, 55.72374213], [12.54358532, 55.72363501], [12.54380103, 55.72396493], [12.54467262, 55.72416917], [12.54935691, 55.72394594], [12.54956956, 55.72369731], [12.55023659, 55.72385961], [12.5520596, 55.72343312], [12.55404557, 55.7234248], [12.55441288, 55.72293388], [12.56135542, 55.72274465], [12.56339755, 55.72193638], [12.56223219, 55.72069256], [12.56329188, 55.72021809], [12.56293432, 55.71996076], [12.56444446, 55.71927555]]]}}, {"type": "Feature", "properties": {"kvarternr": 21003, "kvarternavn": "Bispebjerg"}, "geometry": {"type": "Polygon", "coordinates": [[[12.54099917, 55.71941649], [12.54220606, 55.71956584], [12.54634763, 55.71394477], [12.54688295, 55.71253482], [12.54905413, 55.71174243], [12.55243358, 55.71182442], [12.55309498, 55.71142439], [12.54454265, 55.70835571], [12.54174725, 55.70670788], [12.53968954, 55.70840064], [12.53510191, 55.71347268], [12.53403756, 55.7124239], [12.53208483, 55.711875], [12.53207113, 55.71223687], [12.53163897, 55.71221271], [12.52187653, 55.71127431], [12.51990729, 55.71557763], [12.52270976, 55.71738352], [12.52815597, 55.71894565], [12.53144542, 55.7181214], [12.53139171, 55.72051023], [12.52983675, 55.72179281], [12.52916835, 55.72311483], [12.53566051, 55.72282336], [12.53490855, 55.72041969], [12.53786653, 55.72029147], [12.54099917, 55.71941649]]]}}, {"type": "Feature", "properties": {"kvarternr": 21004, "kvarternavn": "Utterslev"}, "geometry": {"type": "Polygon", "coordinates": [[[12.52160848, 55.70603338], [12.5159757, 55.70662878], [12.51184855, 55.70844953], [12.51264577, 55.70927524], [12.51282152, 55.7101425], [12.51216759, 55.71173391], [12.5130705, 55.71259338], [12.51579017, 55.71407125], [12.51660505, 55.71710215], [12.52145554, 55.7167694], [12.51990729, 55.71557763], [12.52187653, 55.71127431], [12.52336751, 55.71141866], [12.52336503, 55.71040506], [12.52336139, 55.70964755], [12.52174796, 55.70996313], [12.52142254, 55.70936728], [12.52498523, 55.70855715], [12.52243936, 55.70733079], [12.52160848, 55.70603338]]]}}, {"type": "Feature", "properties": {"kvarternr": 21103, "kvarternavn": "Villakvartererne"}, "geometry": {"type": "Polygon", "coordinates": [[[12.62247301, 55.64035134], [12.619439, 55.63934249], [12.6181192, 55.64059031], [12.61719381, 55.64043614], [12.61123426, 55.65317872], [12.61514404, 55.65391658], [12.61551753, 55.65317537], [12.61674349, 55.65334738], [12.61916313, 55.65377563], [12.61889837, 55.65413022], [12.62667318, 55.65569482], [12.6380877, 55.6575575], [12.63967287, 55.6553689], [12.64222737, 55.6508184], [12.64649382, 55.64801837], [12.64823132, 55.64784532], [12.64833999, 55.64819962], [12.64709231, 55.64832869], [12.64285655, 55.65093607], [12.64313923, 55.65141055], [12.64627427, 55.65329314], [12.64670235, 55.6541268], [12.64625292, 55.65448349], [12.64633552, 55.65497792], [12.64241439, 55.65755101], [12.64030828, 55.65782913], [12.64417495, 55.65834685], [12.65003857, 55.65473088], [12.65205792, 55.65460406], [12.65047579, 55.65453796], [12.64948211, 55.65395477], [12.6479715, 55.6515949], [12.6479313, 55.65029006], [12.64876082, 55.64850559], [12.6504103, 55.64825769], [12.6508193, 55.64790859], [12.64865512, 55.64839421], [12.64846338, 55.64807594], [12.64892439, 55.64788603], [12.64841488, 55.64793617], [12.64841707, 55.6476228], [12.65073794, 55.64766055], [12.6505115, 55.64748967], [12.64862213, 55.64753398], [12.647907, 55.64630303], [12.63432723, 55.6444049], [12.63398596, 55.64513953], [12.6259664, 55.64378755], [12.6272898, 55.64141394], [12.62247301, 55.64035134]]]}}, {"type": "Feature", "properties": {"kvarternr": 21104, "kvarternavn": "Nordøstamager"}, "geometry": {"type": "Polygon", "coordinates": [[[12.63549337, 55.66311405], [12.63541738, 55.66260294], [12.63698215, 55.66278158], [12.63956817, 55.66550452], [12.63887997, 55.66442673], [12.63901812, 55.66402984], [12.63937405, 55.66361068], [12.64004844, 55.66380727], [12.6393848, 55.66358384], [12.64085421, 55.6614036], [12.64417495, 55.65834685], [12.64030828, 55.65782913], [12.64035479, 55.65879472], [12.63999578, 55.65963296], [12.6376149, 55.66234151], [12.6371554, 55.66256094], [12.63719638, 55.66226513], [12.63701546, 55.66272082], [12.63540724, 55.66253478], [12.63527155, 55.66118222], [12.6380877, 55.6575575], [12.63179876, 55.65650677], [12.62898708, 55.66188964], [12.62466252, 55.661508], [12.6229335, 55.66372563], [12.62023029, 55.66319411], [12.61708658, 55.66727268], [12.6156205, 55.66694761], [12.61479986, 55.66796668], [12.61825707, 55.66888362], [12.61120661, 55.66955028], [12.60811874, 55.66937237], [12.60568391, 55.67153199], [12.60485761, 55.67160451], [12.60778785, 55.672793], [12.60901421, 55.67365589], [12.6100932, 55.67383944], [12.61023334, 55.67455961], [12.61177914, 55.67602321], [12.61319789, 55.67646653], [12.61333465, 55.67698432], [12.61288274, 55.67750268], [12.61364041, 55.67902365], [12.61451063, 55.67932046], [12.61489269, 55.67979655], [12.61415745, 55.68062441], [12.61427469, 55.6823363], [12.61565485, 55.6825269], [12.61662492, 55.68322555], [12.61786338, 55.68692009], [12.61970076, 55.68720337], [12.61991665, 55.68780754], [12.61989199, 55.68709113], [12.62480746, 55.68870051], [12.62602321, 55.68811165], [12.62567427, 55.68879796], [12.62640663, 55.68974787], [12.62741233, 55.68957382], [12.62823854, 55.68884599], [12.63286756, 55.69053621], [12.63594503, 55.68775676], [12.62682582, 55.68455212], [12.62640439, 55.68410521], [12.62594416, 55.6842423], [12.62485702, 55.68386028], [12.62067586, 55.68108223], [12.62858003, 55.67206069], [12.63051661, 55.67093861], [12.63249661, 55.67121756], [12.63351868, 55.67192838], [12.63047856, 55.67403687], [12.62491016, 55.68049405], [12.62738293, 55.68214201], [12.63548476, 55.68499321], [12.63674031, 55.6835257], [12.63725774, 55.6833779], [12.63699093, 55.68320307], [12.6391741, 55.68039236], [12.63973827, 55.68041218], [12.6353638, 55.67966721], [12.63551643, 55.6786911], [12.63510005, 55.67957718], [12.6339898, 55.67920777], [12.63467562, 55.67853979], [12.6346708, 55.67775174], [12.63493677, 55.67766336], [12.63299179, 55.67570705], [12.63464506, 55.67568568], [12.63635134, 55.67698543], [12.63947961, 55.67649473], [12.64065083, 55.67872735], [12.64042518, 55.67913358], [12.64077306, 55.67879492], [12.64468164, 55.67914806], [12.64811898, 55.67607879], [12.64769435, 55.67590162], [12.64822499, 55.67532976], [12.64651204, 55.6743309], [12.64485749, 55.67198991], [12.64583904, 55.67137674], [12.64572109, 55.67089741], [12.64569796, 55.67138052], [12.64468759, 55.67186454], [12.6432871, 55.67136275], [12.64175329, 55.67138358], [12.64127221, 55.6706241], [12.63652904, 55.67039242], [12.64128405, 55.67048107], [12.64443635, 55.66999485], [12.644927, 55.67057923], [12.64415664, 55.66930043], [12.64319963, 55.66907815], [12.64180496, 55.66707319], [12.64144263, 55.66712389], [12.64190529, 55.6672555], [12.64344491, 55.66991501], [12.64310079, 55.66995288], [12.64275387, 55.66952443], [12.64184111, 55.67014491], [12.64028135, 55.67007276], [12.64002657, 55.66968202], [12.63967522, 55.66972737], [12.63937659, 55.66925446], [12.63970353, 55.66916902], [12.63877015, 55.66817575], [12.64090719, 55.66704585], [12.63688302, 55.66680603], [12.63668414, 55.6668913], [12.63762788, 55.66698926], [12.63869476, 55.66805668], [12.6367226, 55.66950101], [12.63662152, 55.67018821], [12.63398034, 55.67024069], [12.63298745, 55.67102645], [12.63079102, 55.67068144], [12.63220592, 55.66960611], [12.63158347, 55.6694272], [12.63192272, 55.66818492], [12.63489117, 55.6649921], [12.63442988, 55.66530892], [12.63060364, 55.66457446], [12.63224108, 55.66465354], [12.63272335, 55.66363507], [12.6350637, 55.66431396], [12.63491773, 55.66477668], [12.63549337, 55.66311405]]]}}, {"type": "Feature", "properties": {"kvarternr": 21201, "kvarternavn": "Amagerbro vest"}, "geometry": {"type": "Polygon", "coordinates": [[[12.59630425, 55.6686969], [12.60190162, 55.66296265], [12.59709281, 55.66161447], [12.59398744, 55.66300404], [12.59560007, 55.66838989], [12.59630425, 55.6686969]]]}}, {"type": "Feature", "properties": {"kvarternr": 21202, "kvarternavn": "Bryggen Syd"}, "geometry": {"type": "Polygon", "coordinates": [[[12.56774141, 55.65325336], [12.56788628, 55.65288264], [12.56630503, 55.64995709], [12.56756295, 55.64882484], [12.56353936, 55.64148108], [12.55591179, 55.64085201], [12.55141442, 55.64134756], [12.55357951, 55.64115599], [12.55400974, 55.64135803], [12.55194715, 55.64218754], [12.55257362, 55.64274167], [12.55351961, 55.64256488], [12.55371936, 55.64276975], [12.5532509, 55.64288754], [12.55345421, 55.64301127], [12.55378562, 55.64283778], [12.55355863, 55.64255078], [12.55427306, 55.64238061], [12.5542461, 55.64364208], [12.55489301, 55.64393999], [12.5634103, 55.65464593], [12.56344354, 55.65503937], [12.56718402, 55.65989166], [12.5680563, 55.65967672], [12.56837309, 55.66008763], [12.56750082, 55.66030256], [12.56884927, 55.66172939], [12.57284456, 55.6600263], [12.56879539, 55.65691327], [12.56863302, 55.65643409], [12.56917272, 55.65336569], [12.56894045, 55.6529477], [12.56774141, 55.65325336]]]}}, {"type": "Feature", "properties": {"kvarternr": 21203, "kvarternavn": "Faste Batteri"}, "geometry": {"type": "Polygon", "coordinates": [[[12.59057238, 55.66757476], [12.59560007, 55.66838989], [12.59398744, 55.66300404], [12.58488529, 55.66408845], [12.57648688, 55.66749414], [12.57789067, 55.66855342], [12.57766119, 55.66866704], [12.57801267, 55.66864548], [12.57959978, 55.66987926], [12.58271117, 55.66849764], [12.58742928, 55.66771063], [12.59057238, 55.66757476]]]}}, {"type": "Feature", "properties": {"kvarternr": 21204, "kvarternavn": "Gamle Bryggen"}, "geometry": {"type": "Polygon", "coordinates": [[[12.58125518, 55.66288402], [12.57387743, 55.66076086], [12.57284456, 55.6600263], [12.56884927, 55.66172939], [12.57648688, 55.66749414], [12.58392386, 55.6643395], [12.58125518, 55.66288402]]]}}, {"type": "Feature", "properties": {"kvarternr": 21206, "kvarternavn": "Kolonihavekvarteret"}, "geometry": {"type": "Polygon", "coordinates": [[[12.59144948, 55.6415819], [12.59343258, 55.63373872], [12.59190711, 55.62286306], [12.57918128, 55.61827475], [12.58710406, 55.64455748], [12.5881363, 55.64922341], [12.59035633, 55.65499774], [12.59421465, 55.65498769], [12.59232027, 55.64983725], [12.59118953, 55.64170154], [12.59144948, 55.6415819]]]}}, {"type": "Feature", "properties": {"kvarternr": 21207, "kvarternavn": "Sundbyvester"}, "geometry": {"type": "Polygon", "coordinates": [[[12.61066152, 55.65438793], [12.61719381, 55.64043614], [12.59905691, 55.63789843], [12.59231658, 55.63796402], [12.59144948, 55.6415819], [12.59118953, 55.64170154], [12.591819, 55.64581239], [12.59809983, 55.64610316], [12.5979298, 55.64794547], [12.59818449, 55.6485886], [12.60236204, 55.6528962], [12.60267029, 55.65389137], [12.60476754, 55.65652266], [12.60539182, 55.65709422], [12.60776055, 55.65816427], [12.60858953, 55.65747511], [12.61066152, 55.65438793]]]}}, {"type": "Feature", "properties": {"kvarternr": 21208, "kvarternavn": "Sundholmsvejs kvarteret"}, "geometry": {"type": "Polygon", "coordinates": [[[12.60539182, 55.65709422], [12.60267029, 55.65389137], [12.59835378, 55.65478605], [12.59421465, 55.65498769], [12.59233011, 55.65733632], [12.59398744, 55.66300404], [12.59709281, 55.66161447], [12.60190162, 55.66296265], [12.60776055, 55.65816427], [12.60539182, 55.65709422]]]}}, {"type": "Feature", "properties": {"kvarternr": 21209, "kvarternavn": "Urbanplanen"}, "geometry": {"type": "Polygon", "coordinates": [[[12.5982339, 55.64864876], [12.5979298, 55.64794547], [12.59809983, 55.64610316], [12.591819, 55.64581239], [12.59232027, 55.64983725], [12.59421465, 55.65498769], [12.59835378, 55.65478605], [12.60267029, 55.65389137], [12.60236204, 55.6528962], [12.5982339, 55.64864876]]]}}, {"type": "Feature", "properties": {"kvarternr": 21211, "kvarternavn": "Ørestad Syd"}, "geometry": {"type": "Polygon", "coordinates": [[[12.57371623, 55.63131549], [12.5782401, 55.63140396], [12.5828493, 55.63046449], [12.57918128, 55.61827475], [12.57269558, 55.61595162], [12.5692985, 55.61549774], [12.52352996, 55.61548801], [12.52057335, 55.61435896], [12.51634255, 55.61343296], [12.51608563, 55.61287456], [12.51617272, 55.61347162], [12.51300282, 55.61336722], [12.51352286, 55.6137786], [12.51066961, 55.61379712], [12.50886447, 55.61284311], [12.50863862, 55.61314743], [12.50680378, 55.61338804], [12.50598569, 55.61330731], [12.50606351, 55.61301483], [12.50555188, 55.61409368], [12.50474515, 55.61414954], [12.50494067, 55.61447475], [12.50564611, 55.61442774], [12.50651318, 55.6152624], [12.50635904, 55.61505649], [12.50700554, 55.61492217], [12.51096937, 55.6148145], [12.51110119, 55.61510541], [12.51106588, 55.61412197], [12.51354212, 55.61412485], [12.53480294, 55.6309343], [12.55182251, 55.64006869], [12.55205664, 55.64076412], [12.55141442, 55.64134756], [12.55591179, 55.64085201], [12.56353936, 55.64148108], [12.57570584, 55.6409708], [12.57184513, 55.63159133], [12.57371623, 55.63131549]]]}}]}