{"type": "FeatureCollection", "meta": {"built": "2026-09-23", "source_csv": "data/external/infra_projects.csv", "attribution": ["Plan- og Landdistriktsstyrelsen, Fingerplan 2019", "Transportministeriet, Status for anlægs- og byggeprojekter", "© OpenStreetMap contributors (ODbL)"]}, "features": [{"type": "Feature", "properties": {"id": "m5-phase-1", "name": "Metro M5, phase 1 (København H – Prags Boulevard)", "type": "metro", "status": "decided", "open_year": 2036, "open_year_original": null, "budget_mdkk": null, "agency": "Metroselskabet", "kommuner": ["101"], "parent_id": null, "schematic": true, "map": true, "source_url": "https://metroselskabet.dk/m5/", "source_doc": null, "geometry_source": "stations", "updated": "2026-09-23", "notes": "Alignment is not published as open data; the line is drawn through the station points below and is indicative. No budget in Anlægsstatus 1H 2026 — the report mentions M5 only as \"den mulige nye metro-linje (M5)\" (p. 22)."}, "geometry": {"type": "LineString", "coordinates": [[12.5667291, 55.6677487], [12.5654206, 55.6618894], [12.5890175, 55.6557682], [12.6120183, 55.6514955], [12.6170475, 55.662236], [12.6123354, 55.667438]]}}, {"type": "Feature", "properties": {"id": "m5-st-koebenhavn-h", "name": "M5: København H", "type": "metro", "status": "decided", "open_year": 2036, "open_year_original": null, "budget_mdkk": null, "agency": "Metroselskabet", "kommuner": ["101"], "parent_id": "m5-phase-1", "schematic": false, "map": true, "source_url": "https://metroselskabet.dk/m5/", "source_doc": null, "geometry_source": "osm:nwr[\"name\"~\"^København H$\"](55.66,12.54,55.69,12.59)", "updated": "2026-09-23", "notes": "Existing station; OSM maps it as railway=stop nodes, the point is their representative point."}, "geometry": {"type": "Point", "coordinates": [12.5667291, 55.6677487]}}, {"type": "Feature", "properties": {"id": "m5-st-bryggebroen", "name": "M5: v/Bryggebroen", "type": "metro", "status": "decided", "open_year": 2036, "open_year_original": null, "budget_mdkk": null, "agency": "Metroselskabet", "kommuner": ["101"], "parent_id": "m5-phase-1", "schematic": false, "map": true, "source_url": "https://metroselskabet.dk/m5/", "source_doc": null, "geometry_source": "osm:way[\"name\"=\"Bryggebroen\"](55.64,12.55,55.68,12.60)", "updated": "2026-09-23", "notes": "Indicative: placed at the named landmark, the station is not sited yet."}, "geometry": {"type": "Point", "coordinates": [12.5654206, 55.6618894]}}, {"type": "Feature", "properties": {"id": "m5-st-dr-byen", "name": "M5: DR Byen", "type": "metro", "status": "decided", "open_year": 2036, "open_year_original": null, "budget_mdkk": null, "agency": "Metroselskabet", "kommuner": ["101"], "parent_id": "m5-phase-1", "schematic": false, "map": true, "source_url": "https://metroselskabet.dk/m5/", "source_doc": null, "geometry_source": "osm:node[\"railway\"=\"station\"][\"name\"=\"DR Byen\"](55.64,12.56,55.67,12.60)", "updated": "2026-09-23", "notes": "Existing station, exact location."}, "geometry": {"type": "Point", "coordinates": [12.5890175, 55.6557682]}}, {"type": "Feature", "properties": {"id": "m5-st-amagerbrogade-s", "name": "M5: v/Amagerbrogade S", "type": "metro", "status": "decided", "open_year": 2036, "open_year_original": null, "budget_mdkk": null, "agency": "Metroselskabet", "kommuner": ["101"], "parent_id": "m5-phase-1", "schematic": false, "map": true, "source_url": "https://metroselskabet.dk/m5/", "source_doc": null, "geometry_source": "osm:way[\"name\"=\"Amagerbrogade\"](55.64,12.58,55.66,12.62)", "updated": "2026-09-23", "notes": "Indicative: placed on the named street, the station is not sited yet."}, "geometry": {"type": "Point", "coordinates": [12.6120183, 55.6514955]}}, {"type": "Feature", "properties": {"id": "m5-st-lergravsparken", "name": "M5: Lergravsparken", "type": "metro", "status": "decided", "open_year": 2036, "open_year_original": null, "budget_mdkk": null, "agency": "Metroselskabet", "kommuner": ["101"], "parent_id": "m5-phase-1", "schematic": false, "map": true, "source_url": "https://metroselskabet.dk/m5/", "source_doc": null, "geometry_source": "osm:node[\"railway\"=\"station\"][\"name\"=\"Lergravsparken\"](55.64,12.59,55.68,12.64)", "updated": "2026-09-23", "notes": "Existing station, exact location."}, "geometry": {"type": "Point", "coordinates": [12.6170475, 55.662236]}}, {"type": "Feature", "properties": {"id": "m5-st-prags-boulevard-oest", "name": "M5: v/Prags Boulevard Øst", "type": "metro", "status": "decided", "open_year": 2036, "open_year_original": null, "budget_mdkk": null, "agency": "Metroselskabet", "kommuner": ["101"], "parent_id": "m5-phase-1", "schematic": false, "map": true, "source_url": "https://metroselskabet.dk/m5/", "source_doc": null, "geometry_source": "osm:way[\"name\"=\"Prags Boulevard\"](55.66,12.58,55.70,12.64)", "updated": "2026-09-23", "notes": "Indicative: placed on the named street, the station is not sited yet."}, "geometry": {"type": "Point", "coordinates": [12.6123354, 55.667438]}}, {"type": "Feature", "properties": {"id": "m5-phase-2", "name": "Metro M5, phase 2 (Refshaleøen – Lynetteholm)", "type": "metro", "status": "decided", "open_year": 2045, "open_year_original": null, "budget_mdkk": null, "agency": "Metroselskabet", "kommuner": ["101"], "parent_id": null, "schematic": true, "map": true, "source_url": "https://metroselskabet.dk/m5/", "source_doc": null, "geometry_source": "stations", "updated": "2026-09-23", "notes": "Alignment indicative, drawn through the station points below. Depends on Lynetteholm being built."}, "geometry": {"type": "LineString", "coordinates": [[12.6136987, 55.6898219], [12.6315736, 55.7047733], [12.6315736, 55.7047733]]}}, {"type": "Feature", "properties": {"id": "m5-st-refshaleoeen", "name": "M5: v/Refshaleøen", "type": "metro", "status": "decided", "open_year": 2045, "open_year_original": null, "budget_mdkk": null, "agency": "Metroselskabet", "kommuner": ["101"], "parent_id": "m5-phase-2", "schematic": false, "map": true, "source_url": "https://metroselskabet.dk/m5/", "source_doc": null, "geometry_source": "osm:way[\"name\"=\"Refshalevej\"](55.68,12.59,55.70,12.63)", "updated": "2026-09-23", "notes": "Indicative: placed on Refshalevej, the station is not sited yet."}, "geometry": {"type": "Point", "coordinates": [12.6136987, 55.6898219]}}, {"type": "Feature", "properties": {"id": "m5-st-lynetteholm-s", "name": "M5: v/Lynetteholm S", "type": "metro", "status": "decided", "open_year": 2045, "open_year_original": null, "budget_mdkk": null, "agency": "Metroselskabet", "kommuner": ["101"], "parent_id": "m5-phase-2", "schematic": false, "map": true, "source_url": "https://metroselskabet.dk/m5/", "source_doc": null, "geometry_source": "osm:nwr[\"name\"=\"Lynetteholm\"](55.68,12.57,55.75,12.68)", "updated": "2026-09-23", "notes": "Indicative: OSM has Lynetteholm as a single named point, so both M5 phase-2 Lynetteholm stations fall on it until the island is mapped."}, "geometry": {"type": "Point", "coordinates": [12.6315736, 55.7047733]}}, {"type": "Feature", "properties": {"id": "m5-st-lynetteholm-n", "name": "M5: v/Lynetteholm N", "type": "metro", "status": "decided", "open_year": 2045, "open_year_original": null, "budget_mdkk": null, "agency": "Metroselskabet", "kommuner": ["101"], "parent_id": "m5-phase-2", "schematic": false, "map": true, "source_url": "https://metroselskabet.dk/m5/", "source_doc": null, "geometry_source": "osm:nwr[\"name\"=\"Lynetteholm\"](55.68,12.57,55.75,12.68)", "updated": "2026-09-23", "notes": "Indicative, same OSM point as Lynetteholm S — the two stations cannot be told apart yet."}, "geometry": {"type": "Point", "coordinates": [12.6315736, 55.7047733]}}, {"type": "Feature", "properties": {"id": "lynetteholm", "name": "Lynetteholm (new island, urban development and flood protection)", "type": "urban_dev", "status": "construction", "open_year": null, "open_year_original": null, "budget_mdkk": null, "agency": "By & Havn / Lynetteholm I/S", "kommuner": ["101"], "parent_id": null, "schematic": true, "map": true, "source_url": "https://www.byoghavn.dk/lynetteholm/", "source_doc": "Anlægsstatus 1H 2026 p. 37 (named as co-financier of Nordhavnstunnel)", "geometry_source": "manual:wkt:POLYGON((12.6170 55.7020, 12.6420 55.7020, 12.6420 55.7180, 12.6170 55.7180, 12.6170 55.7020))", "updated": "2026-09-23", "notes": "schematic corridor — not an official alignment. Rough reclamation area east of Refshaleøen (~2.8 km²), drawn by hand — By & Havn publishes no open-data boundary. No own budget or opening year in Anlægsstatus 1H 2026."}, "geometry": {"type": "Polygon", "coordinates": [[[12.617, 55.702], [12.642, 55.702], [12.642, 55.718], [12.617, 55.718], [12.617, 55.702]]]}}, {"type": "Feature", "properties": {"id": "nordhavn-udvikling", "name": "Nordhavn urban development", "type": "urban_dev", "status": "construction", "open_year": null, "open_year_original": null, "budget_mdkk": null, "agency": "By & Havn", "kommuner": ["101"], "parent_id": null, "schematic": true, "map": true, "source_url": "https://www.byoghavn.dk/nordhavn/", "source_doc": null, "geometry_source": "manual:wkt:POLYGON((12.5900 55.7060, 12.6250 55.7060, 12.6250 55.7250, 12.5900 55.7250, 12.5900 55.7060))", "updated": "2026-09-23", "notes": "schematic corridor — not an official alignment. Rough development area north of Nordhavn station, drawn by hand — By & Havn publishes no open-data boundary."}, "geometry": {"type": "Polygon", "coordinates": [[[12.59, 55.706], [12.625, 55.706], [12.625, 55.725], [12.59, 55.725], [12.59, 55.706]]]}}, {"type": "Feature", "properties": {"id": "nordhavnstunnel", "name": "Nordhavnstunnel", "type": "road", "status": "construction", "open_year": 2028, "open_year_original": null, "budget_mdkk": 4495.2, "agency": "Vejdirektoratet (for Københavns Kommune)", "kommuner": ["101"], "parent_id": null, "schematic": true, "map": true, "source_url": "https://www.vejdirektoratet.dk/projekt/nordhavnstunnel", "source_doc": "Anlægsstatus 1H 2026 p. 34, 37", "geometry_source": "manual:wkt:LINESTRING(12.5780 55.7090, 12.5900 55.7105, 12.6050 55.7120)", "updated": "2026-09-23", "notes": "schematic corridor — not an official alignment. Svanemøllen to Nordhavn (Kattegatvej). Financed by Københavns Kommune, By & Havn and the future Lynetteholm I/S; prepared for an extension as Østlig Ringvej."}, "geometry": {"type": "LineString", "coordinates": [[12.578, 55.709], [12.605, 55.712]]}}, {"type": "Feature", "properties": {"id": "ring3-letbane", "name": "Hovedstadens Letbane, Ring 3 (Lyngby – Ishøj)", "type": "letbane", "status": "opened", "open_year": 2026, "open_year_original": null, "budget_mdkk": null, "agency": "Hovedstadens Letbane I/S", "kommuner": ["153", "159", "161", "163", "173", "175", "183", "187"], "parent_id": null, "schematic": false, "map": true, "source_url": "https://www.dinletbane.dk/", "source_doc": null, "geometry_source": "fingerplan:fp19vh_letbane_line:all", "updated": "2026-09-23", "notes": "Opened in stages 2025–2026. Not in Anlægsstatus 1H 2026 (own company, not a state construction project)."}, "geometry": {"type": "MultiLineString", "coordinates": [[[12.3902482, 55.6624712], [12.3896474, 55.6626692], [12.3886009, 55.6646668], [12.3883774, 55.6655801], [12.3885487, 55.6667933], [12.3896262, 55.6684152], [12.3929616, 55.6711383], [12.3948866, 55.6741048], [12.3958488, 55.6765181], [12.3964335, 55.6807062], [12.397612, 55.6833137], [12.4126811, 55.6962362], [12.4159856, 55.6985005], [12.4193562, 55.7002078], [12.4252064, 55.7039775], [12.4368961, 55.7148373], [12.4388009, 55.7169041], [12.4397075, 55.7183445], [12.4424447, 55.7270329], [12.4447764, 55.7297575], [12.4468871, 55.7310204], [12.4494488, 55.7320581], [12.4624712, 55.7356461], [12.4860443, 55.7400736], [12.4900031, 55.7411818], [12.493101, 55.7425367], [12.493897, 55.7436235], [12.4953143, 55.7483069], [12.4950479, 55.7559933], [12.4954601, 55.761845], [12.4983213, 55.7678308], [12.5006039, 55.7694195], [12.5022645, 55.7690705], [12.5033334, 55.7700597], [12.5142484, 55.7743953], [12.5164007, 55.7747529], [12.520481, 55.7748456], [12.5222242, 55.7753222], [12.5225949, 55.7772136], [12.5237766, 55.7793054], [12.5182694, 55.7806212], [12.5210455, 55.7856669], [12.5262047, 55.7849109], [12.5272997, 55.7851922], [12.5281306, 55.7867659], [12.5303063, 55.7929725], [12.5304548, 55.7948472]], [[12.3587554, 55.6136541], [12.3601989, 55.6132475], [12.3618056, 55.6138789], [12.3649384, 55.6127576], [12.3656272, 55.6127476], [12.3782668, 55.6175656], [12.3792146, 55.6182262], [12.382407, 55.6219597], [12.3852665, 55.6239839], [12.3864711, 55.625204], [12.3977942, 55.6332328], [12.3998168, 55.6352044], [12.4006847, 55.6367742], [12.4009948, 55.6380965], [12.4008414, 55.6420134], [12.4011211, 55.6452053], [12.4007828, 55.646747], [12.3994729, 55.6488646], [12.3911997, 55.6580846], [12.3902611, 55.6595787], [12.3897601, 55.6621775], [12.3901687, 55.6624649], [12.3961958, 55.6630478]]]}}, {"type": "Feature", "properties": {"id": "koebenhavn-ringsted", "name": "Den nye bane København–Ringsted", "type": "rail", "status": "opened", "open_year": 2019, "open_year_original": null, "budget_mdkk": null, "agency": "Banedanmark", "kommuner": ["101", "153", "167", "169", "183", "187", "253", "259", "269", "329"], "parent_id": null, "schematic": false, "map": true, "source_url": "https://www.bane.dk/", "source_doc": null, "geometry_source": "fingerplan:fp19vo_kbh_ringsted_centerl:all", "updated": "2026-09-23", "notes": "Opened 2019; geometry is the Fingerplan 2019 centre-line reservation."}, "geometry": {"type": "MultiLineString", "coordinates": [[[12.5069526, 55.6566658], [12.5040616, 55.6576712], [12.5011595, 55.6582565], [12.4982299, 55.6583636], [12.4953495, 55.658021], [12.4925533, 55.6571663], [12.4875971, 55.6545007], [12.4839831, 55.6532308], [12.4724245, 55.651726], [12.4548285, 55.6486646], [12.4421353, 55.6468319], [12.4369471, 55.6452382], [12.4311705, 55.642472], [12.4272136, 55.6409694], [12.4205332, 55.6395418], [12.41581, 55.6391898], [12.4111836, 55.6393072], [12.4022896, 55.6399035], [12.3880714, 55.6415519], [12.3815326, 55.6419204], [12.3624808, 55.6416841], [12.3545806, 55.6409546], [12.3469939, 55.6394831], [12.3399797, 55.6373204], [12.3357049, 55.6354969], [12.3308703, 55.6328942], [12.3283269, 55.6311617], [12.3248018, 55.6281514], [12.3161384, 55.619364], [12.3114482, 55.615832], [12.3075358, 55.6136089], [12.2880156, 55.6037337], [12.2843262, 55.6015306], [12.2703409, 55.5905754], [12.2607691, 55.5844544], [12.2521148, 55.5778865], [12.2385689, 55.5692207], [12.2309182, 55.5633266], [12.2276888, 55.5597056], [12.2234366, 55.5537212], [12.2194564, 55.5498841], [12.2119788, 55.5442074], [12.2014084, 55.5383873], [12.1964582, 55.5347888], [12.1923123, 55.5303327], [12.1767674, 55.5084257], [12.1752857, 55.5057659], [12.169673783429998, 55.49317132053143]], [[12.169673783429998, 55.49317132053143], [12.1668222, 55.4895606], [12.162713, 55.4864276], [12.1577191, 55.4839521], [12.1512192, 55.4819514], [12.1467377, 55.4811489], [12.1424267, 55.4807464], [12.109629, 55.4802391], [12.0993708, 55.4792941], [12.0940792, 55.4783177], [12.0883707, 55.4768392], [12.076914, 55.4726727], [12.0716004, 55.471074], [12.0589115, 55.4680634], [12.0489458, 55.466264], [12.025564, 55.4635677], [12.0016919, 55.4596879], [11.9934957, 55.4587635], [11.9678204, 55.4576393], [11.9422218, 55.4586681]], [[12.1719898, 55.4984958], [12.1699259, 55.4949167], [12.169673783429998, 55.49317132053143]], [[12.169673783429998, 55.49317132053143], [12.1714709, 55.4887039]], [[12.1839203, 55.4712506], [12.1863152, 55.4648004]]]}}, {"type": "Feature", "properties": {"id": "ny-bane-vestfyn", "name": "Ny bane over Vestfyn", "type": "rail", "status": "construction", "open_year": 2029, "open_year_original": null, "budget_mdkk": 6305.4, "agency": "Banedanmark", "kommuner": ["410"], "parent_id": null, "schematic": false, "map": true, "source_url": "https://www.bane.dk/", "source_doc": "Anlægsstatus 1H 2026 p. 9", "geometry_source": "osm:way[\"railway\"=\"construction\"](55.45,9.70,55.60,10.30)", "updated": "2026-09-23", "notes": "Anlægsstatus notes the total expenditure is not expected to hold (\"Overholdelse af totaludgift: Nej\")."}, "geometry": {"type": "MultiLineString", "coordinates": [[[9.8430236, 55.4679122], [9.8382445, 55.4684653], [9.8320584, 55.4696603]], [[9.8291774, 55.4702076], [9.8380499, 55.4684375], [9.8432715, 55.4678404]], [[9.8526923, 55.4676209], [9.8437361, 55.4678599]], [[9.8439592, 55.467794], [9.8522366, 55.4675946]], [[9.8522366, 55.4675946], [9.8530226, 55.4676157]], [[9.8529347, 55.4676936], [9.8526923, 55.4676209]], [[9.864335, 55.4688291], [9.8529347, 55.4676936]], [[9.8530226, 55.4676157], [9.8643956, 55.4687516]], [[9.8643956, 55.4687516], [9.8727593, 55.4693479], [9.881545, 55.4692685], [9.8903158, 55.4685296], [9.8997144, 55.4669932]], [[9.8995773, 55.4670849], [9.8903212, 55.4685797], [9.8815477, 55.4693399], [9.8727526, 55.4693841], [9.864335, 55.4688291]], [[9.9167839, 55.4629522], [9.9010505, 55.4668458]], [[9.9010505, 55.4668458], [9.8995773, 55.4670849]], [[9.9011987, 55.4667566], [9.916773, 55.4628977]], [[9.8997144, 55.4669932], [9.9011987, 55.4667566]], [[9.9201781, 55.4620201], [9.9167839, 55.4629522]], [[9.916773, 55.4628977], [9.9200649, 55.4619915]], [[9.9200649, 55.4619915], [9.9222142, 55.4614315]], [[9.9220549, 55.4615409], [9.9201781, 55.4620201]], [[9.9222142, 55.4614315], [9.9313135, 55.4590269]], [[9.9313659, 55.4590494], [9.9220549, 55.4615409]], [[9.9634647, 55.4468957], [9.9582484, 55.4500967], [9.9520691, 55.4529288], [9.9409396, 55.4565348], [9.9313659, 55.4590494]], [[9.9313135, 55.4590269], [9.9409057, 55.4565068], [9.9519878, 55.452894], [9.9581998, 55.450036], [9.9633727, 55.446863]], [[9.8432715, 55.4678404], [9.8439592, 55.467794]], [[9.8437361, 55.4678599], [9.8430236, 55.4679122]]]}}, {"type": "Feature", "properties": {"id": "ringsted-odense-opgradering", "name": "Hastighedsopgradering Ringsted–Odense (200 km/t)", "type": "rail", "status": "construction", "open_year": 2030, "open_year_original": 2028, "budget_mdkk": 600.6, "agency": "Banedanmark", "kommuner": ["329", "330", "340", "440", "450", "461"], "parent_id": null, "schematic": true, "map": true, "source_url": "https://www.bane.dk/", "source_doc": "Anlægsstatus 1H 2026 p. 9, 12", "geometry_source": "manual:wkt:LINESTRING(11.7900 55.4400, 11.4000 55.3600, 11.1400 55.3300, 10.7900 55.3100, 10.5500 55.3600, 10.3900 55.3950)", "updated": "2026-09-23", "notes": "schematic corridor — not an official alignment. Ringsted – Korsør – Nyborg – Odense, the existing line being upgraded to 200 km/t. Opening year in the report is \"2028/2030\" (Nyborg–Odense 2028, Ringsted–Korsør 2030)."}, "geometry": {"type": "LineString", "coordinates": [[11.79, 55.44], [11.4, 55.36], [11.14, 55.33], [10.79, 55.31], [10.55, 55.36], [10.39, 55.395]]}}, {"type": "Feature", "properties": {"id": "femern-tunnel", "name": "Femern Bælt fixed link (Rødbyhavn – Puttgarden)", "type": "bridge_tunnel", "status": "construction", "open_year": 2032, "open_year_original": 2029, "budget_mdkk": 55100.0, "agency": "Femern A/S (Sund & Bælt)", "kommuner": ["360"], "parent_id": null, "schematic": false, "map": true, "source_url": "https://femern.com/da/presse/nyheder/femern-baelt-tunnelen-abnes-i-to-etaper/", "source_doc": "Anlægsstatus 1H 2026 p. 50", "geometry_source": "osm:way[\"name\"~\"Femern\"][\"man_made\"!=\"pier\"](54.55,11.20,54.75,11.45)", "updated": "2026-09-23", "notes": "earliest opening for road per Femern A/S 17 May 2026; rail undated; Anlægsstatus 1H 2026 says a new timetable is being prepared. Budget 55,100 mio. kr. is in 2015 prices, not the report's 2026 prices."}, "geometry": {"type": "MultiLineString", "coordinates": [[[11.4259865, 54.6793906], [11.410969, 54.6755341]], [[11.5200877, 54.6930947], [11.4642613, 54.6880202], [11.4549135, 54.6865812], [11.4450943, 54.684295]], [[11.3469188, 54.6557599], [11.3471938, 54.6558066], [11.3469188, 54.6557599]], [[11.445135, 54.6842582], [11.4548913, 54.6865373], [11.4639842, 54.68795], [11.5201041, 54.693055]], [[11.3881821, 54.6377247], [11.3890322, 54.6374869], [11.386524, 54.6342233], [11.3887409, 54.6350948], [11.395233, 54.6346645], [11.4026046, 54.6348667], [11.4039145, 54.634571], [11.4040829, 54.6349862], [11.3995949, 54.636706], [11.3994868, 54.637549], [11.4044265, 54.6434913], [11.3943933, 54.6465004]], [[11.3943933, 54.6465004], [11.3923395, 54.6438683]], [[11.3923395, 54.6438683], [11.3929081, 54.6433964]], [[11.3929081, 54.6433964], [11.3881821, 54.6377247]], [[11.4450943, 54.684295], [11.4259865, 54.6793906]], [[11.426026, 54.6793549], [11.445135, 54.6842582]], [[11.4110015, 54.6754948], [11.426026, 54.6793549]], [[11.4062178, 54.6740799], [11.3922508, 54.6684598], [11.3815995, 54.6622934], [11.3765466, 54.6590412], [11.3740266, 54.6570876], [11.3712679, 54.6544791], [11.367976004713393, 54.650690811090236]], [[11.367976004713393, 54.650690811090236], [11.3633533, 54.6451036]], [[11.3634253, 54.6450836], [11.368118335998638, 54.650649537755605]], [[11.368118335998638, 54.650649537755605], [11.3741166, 54.6570672], [11.3816461, 54.6622345], [11.3923137, 54.6683712], [11.4062442, 54.6740444]], [[11.410969, 54.6755341], [11.4062178, 54.6740799]], [[11.4062442, 54.6740444], [11.4110015, 54.6754948]], [[11.426026, 54.6793549], [11.445135, 54.6842582]], [[11.4450943, 54.684295], [11.4259865, 54.6793906]], [[11.3783736, 54.5758372], [11.3875686, 54.5830651], [11.3651188, 54.5927033], [11.3559256, 54.5854827], [11.3783736, 54.5758372]], [[11.3943933, 54.6465004], [11.3785368, 54.6509048]], [[11.3785368, 54.6509048], [11.3767719, 54.6479966], [11.3779628, 54.6475807], [11.3755059, 54.6442004]], [[11.3755059, 54.6442004], [11.3719554, 54.6399605]], [[11.3719554, 54.6399605], [11.3721099, 54.6396425]], [[11.3721099, 54.6396425], [11.3756421, 54.6384026], [11.3766984, 54.6396785], [11.3762974, 54.6397891], [11.3771102, 54.6408222], [11.3881821, 54.6377247]], [[11.3779657, 54.6511106], [11.3781719, 54.6514014], [11.3737732, 54.65268], [11.3735801, 54.6524814], [11.3719171, 54.6528942], [11.3708496, 54.6519972], [11.3704151, 54.6520779], [11.3689399, 54.6504113], [11.368118335998638, 54.650649537755605]], [[11.368118335998638, 54.650649537755605], [11.367976004713393, 54.650690811090236]], [[11.367976004713393, 54.650690811090236], [11.365769, 54.6513308], [11.3653614, 54.6507453], [11.3633394, 54.6513238], [11.3602558, 54.6488767], [11.3549945, 54.6511965], [11.3476434, 54.649688], [11.3519709, 54.6467276], [11.3559534, 54.6448146], [11.3662759, 54.6418893], [11.3721099, 54.6396425]], [[11.3755059, 54.6442004], [11.3746405, 54.6444403], [11.3774548, 54.6476808], [11.3762213, 54.6480971], [11.3785368, 54.6509048]], [[11.3785368, 54.6509048], [11.3779657, 54.6511106]], [[11.3731754, 54.6571905], [11.375687, 54.6588252]], [[11.3782257, 54.6603604], [11.3816133, 54.6627643]], [[11.375687, 54.6588252], [11.3782257, 54.6603604]]]}}, {"type": "Feature", "properties": {"id": "femern-landanlaeg", "name": "Danske landanlæg til Femern (Ringsted – Rødby)", "type": "rail", "status": "construction", "open_year": 2029, "open_year_original": 2028, "budget_mdkk": 9500.0, "agency": "Banedanmark", "kommuner": ["360", "376"], "parent_id": null, "schematic": false, "map": true, "source_url": "https://www.bane.dk/", "source_doc": "Anlægsstatus 1H 2026 p. 51", "geometry_source": "osm:way[\"railway\"=\"construction\"](54.65,11.30,55.45,11.95)", "updated": "2026-09-23", "notes": "Budget 9.5 mia. kr. in 2015 prices. Phase 1 Ringsted–Nykøbing F. track done 2021, power/signalling 2027; phase 2 Nykøbing F.–Rødby 2028/at the latest 2029."}, "geometry": {"type": "MultiLineString", "coordinates": [[[11.8638813, 54.758019], [11.8680424, 54.759216]], [[11.8680424, 54.759216], [11.8692796, 54.7597461]], [[11.846198, 54.7541345], [11.8516956, 54.7550408], [11.8592329, 54.7568217]], [[11.8697015, 54.7599546], [11.8714009, 54.7610123], [11.8732338, 54.7626518]], [[11.8692796, 54.7597461], [11.8697015, 54.7599546]], [[11.8460454, 54.7541124], [11.846198, 54.7541345]], [[11.4062178, 54.6740799], [11.3957555, 54.6699616], [11.3895516, 54.667095], [11.3765466, 54.6590412], [11.3712679, 54.6544791], [11.3633533, 54.6451036]], [[11.3634253, 54.6450836], [11.3703982, 54.653319], [11.3741166, 54.6570672], [11.3766542, 54.6590259], [11.3896284, 54.6670313], [11.3958301, 54.6699011], [11.4062442, 54.6740444]], [[11.8592329, 54.7568217], [11.8638813, 54.758019]], [[11.8732338, 54.7626518], [11.8736024, 54.7629954]], [[11.5411803, 54.695083], [11.5410096, 54.6950627]], [[11.5410242, 54.6950263], [11.5411963, 54.6950459]], [[11.5201041, 54.693055], [11.5203587, 54.6930779]], [[11.8241031, 54.7525997], [11.8376749, 54.7532366], [11.8460454, 54.7541124]]]}}, {"type": "Feature", "properties": {"id": "storstroemsbroen", "name": "Storstrømsbroen (new road and rail bridge)", "type": "bridge_tunnel", "status": "construction", "open_year": 2026, "open_year_original": 2022, "budget_mdkk": 5104.9, "agency": "Vejdirektoratet", "kommuner": ["376", "390"], "parent_id": null, "schematic": true, "map": true, "source_url": "https://www.vejdirektoratet.dk/projekt/storstroemsbroen", "source_doc": "Anlægsstatus 1H 2026 p. 34, 36", "geometry_source": "manual:wkt:LINESTRING(11.8878 54.9985, 11.8790 54.9700, 11.8710 54.9430)", "updated": "2026-09-23", "notes": "schematic corridor — not an official alignment. Straight Masnedø – Orehoved crossing: OpenStreetMap has no way for the new bridge (only the old rail bridges tagged \"Sydbanen\"), so the status stays construction. Report gives \"2026 (vej), 2027 (bane)\"; original 2022 (road) / 2018 (rail)."}, "geometry": {"type": "LineString", "coordinates": [[11.8878, 54.9985], [11.871, 54.943]]}}, {"type": "Feature", "properties": {"id": "frederikssundsmotorvejen", "name": "Frederikssundsmotorvejen (reservation, Fingerplan)", "type": "road", "status": "study", "open_year": null, "open_year_original": null, "budget_mdkk": null, "agency": "Vejdirektoratet", "kommuner": ["240", "250", "265"], "parent_id": null, "schematic": false, "map": true, "source_url": "https://www.vejdirektoratet.dk/", "source_doc": null, "geometry_source": "fingerplan:fp19vp_motorvejanlaeg_udv:kode=2", "updated": "2026-09-23", "notes": "Motorway reservation in Fingerplan 2019, identified by location (runs from 2.2 km off Smørum north-west to 3.0 km off Frederikssund). Searched Anlægsstatus 1H 2026 for \"Frederikssund\", \"Tværvej\" and \"3. etape\": the only hit is an S-train mention on p. 17, so the report has no row for this project — status stays study and budget and opening year stay empty."}, "geometry": {"type": "MultiLineString", "coordinates": [[[12.1066003, 55.7952448], [12.1037567, 55.7996731], [12.1026376, 55.8028265], [12.1021901, 55.805586], [12.1025176, 55.8098905], [12.1052564, 55.8202912], [12.1052019, 55.8230706], [12.1043906, 55.8269415], [12.1028444, 55.8316798], [12.1007214, 55.8362024], [12.0977071, 55.8411044], [12.0947051, 55.844949]], [[12.2906396, 55.718548], [12.2807809, 55.7184086], [12.2625796, 55.7173973], [12.2544983, 55.7177513], [12.2473939, 55.7187279], [12.2423566, 55.7198382], [12.2363589, 55.7216895], [12.223094, 55.727563], [12.2174731, 55.7295991], [12.2114076, 55.7311775], [12.1997604, 55.7336007], [12.1945172, 55.7351102], [12.1904277, 55.7366659], [12.1842238, 55.739882], [12.179791, 55.7431652], [12.1765549, 55.7465643], [12.1707276, 55.75424], [12.1656718, 55.7585901], [12.1611303, 55.7613564], [12.1469738, 55.7684599], [12.1339896, 55.7764904], [12.1198262, 55.7842507], [12.1117837, 55.7900493], [12.1079991, 55.7934814], [12.1066, 55.7952449]]]}}, {"type": "Feature", "properties": {"id": "hilleroedmotorvejen-forlaengelse", "name": "Udvidelse af Hillerødmotorvejens forlængelse til motorvej", "type": "road", "status": "construction", "open_year": 2027, "open_year_original": null, "budget_mdkk": 1614.7, "agency": "Vejdirektoratet", "kommuner": ["201", "219"], "parent_id": null, "schematic": false, "map": true, "source_url": "https://www.vejdirektoratet.dk/", "source_doc": "Anlægsstatus 1H 2026 p. 34", "geometry_source": "fingerplan:fp19vp_motorvejanlaeg_udv:kode=12", "updated": "2026-09-23", "notes": "Geometry is the Fingerplan reservation Allerød–Hillerød (identified by location). Report: total expenditure not expected to hold."}, "geometry": {"type": "MultiLineString", "coordinates": [[[12.2476599, 55.9356645], [12.2460694, 55.9390508], [12.2444777, 55.9445319], [12.2442109, 55.9474698], [12.2460388, 55.9550877]], [[12.3256005, 55.852523], [12.3114209, 55.8723321], [12.3080223, 55.8767192], [12.3030816, 55.8817494], [12.2977942, 55.8861658], [12.2928534, 55.8897356], [12.2768811, 55.8985773], [12.274062, 55.9004415], [12.2718508, 55.9023074], [12.2690766, 55.9058514], [12.2669196, 55.9102691], [12.2649645, 55.9134767], [12.2608195, 55.9193944], [12.250475, 55.9317961], [12.2476434, 55.9356559]], [[12.336891, 55.8440265], [12.3303512, 55.8478991], [12.3272194, 55.8505193], [12.3255924, 55.8526132]]]}}, {"type": "Feature", "properties": {"id": "oestlig-ringvej", "name": "Østlig Ringvej (harbour tunnel, København)", "type": "road", "status": "study", "open_year": null, "open_year_original": null, "budget_mdkk": null, "agency": "Vejdirektoratet / Københavns Kommune", "kommuner": ["101", "185"], "parent_id": null, "schematic": false, "map": true, "source_url": "https://www.vejdirektoratet.dk/", "source_doc": "Anlægsstatus 1H 2026 p. 36 (Nordhavnstunnel prepared for it)", "geometry_source": "fingerplan:fp19vp_igangvaerende_undersoeg:navn_spec=Østlig Ringvej", "updated": "2026-09-23", "notes": "Under study; Fingerplan 2019 marks the corridor as an ongoing investigation."}, "geometry": {"type": "MultiLineString", "coordinates": [[[12.5996101, 55.7168377], [12.6144636, 55.713452], [12.6176475, 55.7123688], [12.6215947, 55.7090324], [12.624979, 55.7055554], [12.6276996, 55.7021931], [12.6282287, 55.6951857], [12.6277225, 55.6906346], [12.6253917, 55.6854716], [12.617556151414572, 55.678565815859635]], [[12.617556151414572, 55.678565815859635], [12.6125998, 55.6741248], [12.6049501, 55.6682857], [12.5561313, 55.6385107], [12.5536626, 55.6372505]], [[12.617556, 55.678566], [12.617556151414572, 55.678565815859635]], [[12.617556151414572, 55.678565815859635], [12.6552771, 55.6326921]]]}}, {"type": "Feature", "properties": {"id": "hh-forbindelsen", "name": "HH-forbindelsen (Helsingør–Helsingborg)", "type": "bridge_tunnel", "status": "study", "open_year": null, "open_year_original": null, "budget_mdkk": null, "agency": "under study (DK/SE)", "kommuner": ["217"], "parent_id": null, "schematic": false, "map": true, "source_url": "https://www.trm.dk/", "source_doc": null, "geometry_source": "fingerplan:fp19vp_igangvaerende_undersoeg:navn_spec=Helsingør og Helsingborg (HH-forbindelse)", "updated": "2026-09-23", "notes": "Under study; no budget or opening year published."}, "geometry": {"type": "LineString", "coordinates": [[12.5385218, 56.0086922], [12.5428064, 56.0090396], [12.5513978, 56.008821], [12.5565599, 56.0077676], [12.5648377, 56.0045142], [12.5704152, 56.0032008], [12.5808228, 56.0018585], [12.6101703, 55.9999817], [12.6260185, 55.9998279], [12.635498, 56.0002598], [12.6613979, 56.002828], [12.6870464, 56.0071758], [12.7177905, 56.0128865], [12.7255829, 56.0132919]]}}, {"type": "Feature", "properties": {"id": "kattegatforbindelsen", "name": "Kattegatforbindelsen (Jylland–Sjælland)", "type": "bridge_tunnel", "status": "study", "open_year": null, "open_year_original": null, "budget_mdkk": null, "agency": "under study", "kommuner": ["326", "727", "741"], "parent_id": null, "schematic": true, "map": true, "source_url": "https://www.trm.dk/", "source_doc": null, "geometry_source": "manual:wkt:LINESTRING(11.0900 55.6800, 10.8700 55.7500, 10.6200 55.8300, 10.4200 55.8800, 10.2500 55.9200)", "updated": "2026-09-23", "notes": "schematic corridor — not an official alignment. Kalundborg (Røsnæs) – Samsø – Hou/Odder, drawn to show the corridor under study. No alignment has been published."}, "geometry": {"type": "LineString", "coordinates": [[11.09, 55.68], [10.87, 55.75], [10.62, 55.83], [10.42, 55.88], [10.25, 55.92]]}}, {"type": "Feature", "properties": {"id": "aarhus-letbane-etape2", "name": "Aarhus Letbane etape 2 (Brabrand)", "type": "letbane", "status": "study", "open_year": 2037, "open_year_original": null, "budget_mdkk": null, "agency": "Aarhus Letbane / Aarhus Kommune", "kommuner": ["751"], "parent_id": null, "schematic": true, "map": true, "source_url": "https://www.aarhusletbane.dk/", "source_doc": null, "geometry_source": "manual:wkt:LINESTRING(10.2045 56.1499, 10.1780 56.1520, 10.1450 56.1540, 10.1180 56.1560)", "updated": "2026-09-23", "notes": "schematic corridor — not an official alignment. Aarhus H along Silkeborgvej to Brabrand/Gellerup. Decision expected 2027–28, opening 2037 per Aarhus Letbane; not in Anlægsstatus 1H 2026 and no alignment in OpenStreetMap."}, "geometry": {"type": "LineString", "coordinates": [[10.2045, 56.1499], [10.178, 56.152], [10.145, 56.154], [10.118, 56.156]]}}, {"type": "Feature", "properties": {"id": "tredje-limfjordsforbindelse", "name": "Tredje Limfjordsforbindelse ved Aalborg", "type": "road", "status": "construction", "open_year": 2034, "open_year_original": null, "budget_mdkk": 8869.7, "agency": "Vejdirektoratet", "kommuner": ["851"], "parent_id": null, "schematic": false, "map": true, "source_url": "https://www.vejdirektoratet.dk/", "source_doc": "Anlægsstatus 1H 2026 p. 34", "geometry_source": "osm:way[\"highway\"=\"construction\"](56.98,9.75,57.14,10.00)", "updated": "2026-09-23", "notes": "Largest road project in the report by budget."}, "geometry": {"type": "MultiLineString", "coordinates": [[[9.9107266, 57.0491097], [9.9110225, 57.0490749]], [[9.9107529, 57.0490841], [9.9110494, 57.0490433]], [[9.9985157, 57.0115344], [10.0015518, 57.0114576]], [[9.9203023, 57.040083], [9.9201948, 57.0401404]], [[9.9348469, 57.0430315], [9.9348136, 57.042596]]]}}, {"type": "Feature", "properties": {"id": "marselis-tunnel", "name": "Ny tunnel under Marselis Boulevard, Aarhus", "type": "road", "status": "construction", "open_year": 2035, "open_year_original": null, "budget_mdkk": 4139.7, "agency": "Vejdirektoratet", "kommuner": ["751"], "parent_id": null, "schematic": false, "map": true, "source_url": "https://www.vejdirektoratet.dk/", "source_doc": "Anlægsstatus 1H 2026 p. 35", "geometry_source": "osm:way[\"name\"=\"Marselis Boulevard\"](56.13,10.17,56.16,10.23)", "updated": "2026-09-23", "notes": "Geometry indicative: the existing boulevard the tunnel follows."}, "geometry": {"type": "MultiLineString", "coordinates": [[[10.2089838, 56.1431736], [10.2068708, 56.1426534]], [[10.2046895, 56.1418706], [10.2038152, 56.1416727]], [[10.2075091, 56.1428699], [10.208298, 56.1430528]], [[10.2036553, 56.14164], [10.2026379, 56.1414377]], [[10.2036734, 56.1415335], [10.2038372, 56.1415677]], [[10.194719, 56.1403428], [10.1946164, 56.1403315]], [[10.1958514, 56.1403319], [10.2020521, 56.1412122]], [[10.1936097, 56.1399133], [10.1937321, 56.139221]], [[10.1997276, 56.1408801], [10.1996548, 56.1411321]], [[10.2028661, 56.1419754], [10.1996548, 56.1411321]], [[10.1996548, 56.1411321], [10.1965597, 56.1408044]], [[10.1812866, 56.1394259], [10.1815868, 56.139425]], [[10.2024506, 56.1412934], [10.2036734, 56.1415335]], [[10.2043868, 56.1416998], [10.2053688, 56.1420322]], [[10.2016673, 56.1412453], [10.1997276, 56.1408801]], [[10.1997276, 56.1408801], [10.1967149, 56.1405473]], [[10.1946164, 56.1403315], [10.1945046, 56.1403191]], [[10.2068708, 56.1426534], [10.2053688, 56.1420322]], [[10.2038372, 56.1415677], [10.2043868, 56.1416998]], [[10.1958446, 56.1404559], [10.194719, 56.1403428]], [[10.1937812, 56.1401198], [10.1944052, 56.1401847]], [[10.191271, 56.1399824], [10.1904012, 56.1398912]], [[10.1902909, 56.1398795], [10.1867883, 56.1396105]], [[10.1903848, 56.1397629], [10.1937812, 56.1401198]], [[10.1896279, 56.1396878], [10.1902745, 56.1397515]], [[10.1867883, 56.1396105], [10.1861559, 56.139586]], [[10.1861559, 56.139586], [10.1837985, 56.1395435]], [[10.1861595, 56.1394593], [10.1896279, 56.1396878]], [[10.185434, 56.1394414], [10.1861595, 56.1394593]], [[10.1817998, 56.1395429], [10.1815044, 56.1395422]], [[10.1792876, 56.1394382], [10.1812866, 56.1394259]], [[10.1815044, 56.1395422], [10.1810163, 56.1395426]], [[10.1815868, 56.139425], [10.185434, 56.1394414]], [[10.1837985, 56.1395435], [10.1817998, 56.1395429]], [[10.1783552, 56.1394488], [10.1792876, 56.1394382]], [[10.1967149, 56.1405473], [10.1958446, 56.1404559]], [[10.2038152, 56.1416727], [10.2036553, 56.14164]], [[10.1945046, 56.1403191], [10.191271, 56.1399824]], [[10.2026379, 56.1414377], [10.2016673, 56.1412453]], [[10.1810163, 56.1395426], [10.1800724, 56.1395435]], [[10.2053688, 56.1420322], [10.2046895, 56.1418706]], [[10.2068708, 56.1426534], [10.2075091, 56.1428699]], [[10.2020521, 56.1412122], [10.2024506, 56.1412934]], [[10.1950195, 56.1402453], [10.1958514, 56.1403319]], [[10.1944052, 56.1401847], [10.1946283, 56.1402068]], [[10.1946283, 56.1402068], [10.194753, 56.1402191]], [[10.1902745, 56.1397515], [10.1903848, 56.1397629]], [[10.1904012, 56.1398912], [10.1902909, 56.1398795]], [[10.1795191, 56.1395404], [10.1783613, 56.1395526]], [[10.1965597, 56.1408044], [10.1955643, 56.1416621]], [[10.194753, 56.1402191], [10.1950195, 56.1402453]], [[10.208298, 56.1430528], [10.2089838, 56.1431736]], [[10.1800724, 56.1395435], [10.1795191, 56.1395404]]]}}, {"type": "Feature", "properties": {"id": "e45-vejle-skanderborg", "name": "Udbygning af E45, Vejle (Hornstrup) – Skanderborg S", "type": "road", "status": "construction", "open_year": 2027, "open_year_original": null, "budget_mdkk": 4416.4, "agency": "Vejdirektoratet", "kommuner": ["615", "746", "766"], "parent_id": null, "schematic": false, "map": true, "source_url": "https://www.vejdirektoratet.dk/", "source_doc": "Anlægsstatus 1H 2026 p. 34", "geometry_source": "osm:way[\"ref\"~\"E ?45\"][\"highway\"=\"motorway\"](55.78,9.55,56.02,9.92)", "updated": "2026-09-23", "notes": "Geometry indicative: the E45 carriageways in the section being widened (OSM tags the route ref as \"E 45\")."}, "geometry": {"type": "MultiLineString", "coordinates": [[[9.8283271, 55.9494737], [9.8279122, 55.9492258]], [[9.8279122, 55.9492258], [9.8237366, 55.9463224], [9.8206575, 55.9428558], [9.8192306, 55.9402266], [9.8184508, 55.936076]], [[9.8280048, 55.9491401], [9.8284443, 55.9494013]], [[9.8653333, 55.9735443], [9.8672938, 55.9764651], [9.8680002, 55.9789156], [9.8680725, 55.981758], [9.8674822, 55.9894941], [9.8677909, 55.9930105], [9.8687581, 55.9963828], [9.870173, 55.9991995], [9.8727865, 56.0027582], [9.8804547, 56.010653]], [[9.8802474, 56.0106835], [9.8726441, 56.0028101], [9.8700102, 55.9992298], [9.8685878, 55.9964345], [9.8678675, 55.994223], [9.8673909, 55.9914192], [9.8673837, 55.9870544], [9.8679003, 55.980493], [9.8677388, 55.9786308], [9.8669388, 55.9761869], [9.8647494, 55.9731862]], [[9.8186562, 55.9361381], [9.8190769, 55.9390279], [9.8207667, 55.9427926], [9.8218265, 55.9442035], [9.824388, 55.9466921], [9.8280048, 55.9491401]], [[9.8184463, 55.9356827], [9.8186948, 55.9314821], [9.8202922, 55.924979], [9.8206072, 55.9204139], [9.8195016, 55.9135205], [9.8173844, 55.9073152], [9.8146265, 55.9023371], [9.8125559, 55.8996993], [9.8090105, 55.8961431], [9.8038132, 55.8921749], [9.7956717, 55.8876238]], [[9.8184508, 55.936076], [9.8184463, 55.9356827]], [[9.8186346, 55.9357118], [9.8186562, 55.9361381]], [[9.7326237, 55.8412515], [9.7398455, 55.8463683], [9.7499771, 55.8554192], [9.754348, 55.8589649], [9.7681991, 55.8683133], [9.7713267, 55.8706424], [9.7791848, 55.8774859], [9.7863227, 55.882422]], [[9.6654185, 55.7858273], [9.6611882, 55.7812023], [9.6579742, 55.7783887], [9.6527107, 55.7749597], [9.648453, 55.7728869], [9.643895, 55.7711428], [9.6384551, 55.7695683], [9.6242662, 55.7668078], [9.6163597, 55.7647359], [9.607747, 55.7615192], [9.5995667, 55.7573556]], [[9.7309627, 55.8404082], [9.7224673, 55.8358935], [9.7072181, 55.8295646], [9.6997092, 55.8261242], [9.6920548, 55.8217763], [9.6871863, 55.8183409], [9.681004, 55.8129424], [9.6776542, 55.8088498], [9.6750703, 55.8041713], [9.6713683, 55.7948845]], [[9.7956717, 55.8876238], [9.7871888, 55.8830911], [9.7807525, 55.8788363], [9.7680623, 55.868381], [9.7541989, 55.8590326], [9.7399194, 55.8465974]], [[9.7863227, 55.882422], [9.8001144, 55.8897657], [9.8057011, 55.8932902], [9.809213, 55.8960765], [9.8126911, 55.899546], [9.8160505, 55.9042591], [9.8175587, 55.9073009], [9.8193727, 55.9123911], [9.8207319, 55.9195038], [9.8207171, 55.9233722], [9.8189666, 55.9309477], [9.8186346, 55.9357118]], [[9.8815963, 56.029446], [9.8816426, 56.0257221], [9.8828829, 56.0191738], [9.8825528, 56.015491]], [[9.7399194, 55.8465974], [9.7355411, 55.8433063], [9.7309627, 55.8404082]], [[9.8824768, 56.0152283], [9.8815752, 56.0127843], [9.8802474, 56.0106835]], [[9.8825528, 56.015491], [9.8824768, 56.0152283]], [[9.8828259, 56.0152734], [9.8828883, 56.0155216]], [[9.8804547, 56.010653], [9.8818481, 56.0127579], [9.8828259, 56.0152734]], [[9.8828883, 56.0155216], [9.8831827, 56.0175654], [9.883149, 56.0202543], [9.8818649, 56.0263401], [9.8819256, 56.0294093]], [[9.6713683, 55.7948845], [9.6694529, 55.7914846], [9.6654185, 55.7858273]], [[9.6667358, 55.787166], [9.6712115, 55.7942083], [9.6728459, 55.7976983], [9.6752408, 55.8041511], [9.6772061, 55.8078895], [9.6811432, 55.8128816], [9.6846883, 55.8161837], [9.6922401, 55.8216948], [9.6999122, 55.8260488], [9.7073419, 55.829457], [9.7225688, 55.8358423], [9.7278625, 55.8384854], [9.7326237, 55.8412515]], [[9.8284443, 55.9494013], [9.8316145, 55.951278], [9.8354029, 55.9540902], [9.8413514, 55.9602172], [9.8444385, 55.9627153], [9.8501852, 55.9657197], [9.8586024, 55.968805]], [[9.8647494, 55.9731862], [9.8619692, 55.9708219], [9.8593712, 55.9693082], [9.8500548, 55.965806], [9.8442309, 55.9627689], [9.8411742, 55.9602785], [9.8352136, 55.9541111], [9.8315506, 55.9514044], [9.8283271, 55.9494737]], [[9.6580619, 55.7782818], [9.6620518, 55.7818699], [9.6667358, 55.787166]], [[9.8586024, 55.968805], [9.8621629, 55.9707867], [9.8653333, 55.9735443]]]}}, {"type": "Feature", "properties": {"id": "e45-aarhus-s-n", "name": "Udbygning af E45, Aarhus S – Aarhus N", "type": "road", "status": "construction", "open_year": 2027, "open_year_original": null, "budget_mdkk": 2655.4, "agency": "Vejdirektoratet", "kommuner": ["710", "746", "751"], "parent_id": null, "schematic": false, "map": true, "source_url": "https://www.vejdirektoratet.dk/", "source_doc": "Anlægsstatus 1H 2026 p. 34", "geometry_source": "osm:way[\"ref\"~\"E ?45\"][\"highway\"=\"motorway\"](56.06,10.02,56.24,10.24)", "updated": "2026-09-23", "notes": "Geometry indicative: the E45 carriageways in the section being widened (OSM tags the route ref as \"E 45\")."}, "geometry": {"type": "MultiLineString", "coordinates": [[[10.1202386, 56.2254342], [10.1184808, 56.2238151]], [[10.1220296, 56.2272881], [10.1231988, 56.2290124]], [[10.0234777, 56.0947807], [10.0190383, 56.0913612]], [[10.0259011, 56.0960284], [10.0302489, 56.098239]], [[10.0355662, 56.1346677], [10.0355187, 56.1345441]], [[10.0355187, 56.1345441], [10.0345677, 56.1305729], [10.0345864, 56.126902]], [[10.0358013, 56.1346509], [10.0364579, 56.136214]], [[10.0357468, 56.1345217], [10.0358013, 56.1346509]], [[10.0347647, 56.1269072], [10.0347439, 56.1305653], [10.0357468, 56.1345217]], [[10.0345864, 56.126902], [10.0352056, 56.1234074], [10.0368019, 56.1185321]], [[10.0362854, 56.1362439], [10.0355662, 56.1346677]], [[10.0364579, 56.136214], [10.038049, 56.138841], [10.0416233, 56.143256], [10.043427, 56.1464415]], [[10.0369763, 56.1185582], [10.0355811, 56.1227904], [10.0347647, 56.1269072]], [[10.0391218, 56.1132184], [10.0401178, 56.1102404], [10.0398213, 56.1070413], [10.0391187, 56.105392], [10.0380819, 56.1038816], [10.0355832, 56.1014611]], [[10.123012, 56.2290125], [10.1202386, 56.2254342]], [[10.0617627, 56.1736865], [10.0556063, 56.1703078], [10.0522293, 56.1680593], [10.0490592, 56.1651145], [10.0469641, 56.1623771]], [[10.1141611, 56.2206043], [10.1169424, 56.2224208], [10.1197132, 56.2247215]], [[10.1208566, 56.3068949], [10.1228457, 56.3038119], [10.1256542, 56.3007198], [10.1323002, 56.2955937], [10.1349813, 56.2929581], [10.1364983, 56.2907618], [10.1372605, 56.2890954], [10.137936, 56.2855977], [10.1376183, 56.2829472], [10.1364691, 56.2801406], [10.1317332, 56.2733425], [10.1290461, 56.2683893], [10.127639, 56.2647841], [10.1260339, 56.2593774], [10.1249598, 56.2541323], [10.1242578, 56.2477319], [10.1243318, 56.2425442], [10.1250708, 56.2361312], [10.1246208, 56.2327419]], [[10.0256591, 56.0961358], [10.0234777, 56.0947807]], [[10.0305808, 56.0983947], [10.0335131, 56.0999191], [10.0364858, 56.1020285], [10.0382567, 56.1038428], [10.039699, 56.1061888], [10.0401797, 56.1077482], [10.040308, 56.1102369], [10.0385801, 56.11486]], [[10.0436583, 56.1475279], [10.0423429, 56.1446455], [10.0379122, 56.1389142], [10.0362854, 56.1362439]], [[10.0439718, 56.1485829], [10.0436583, 56.1475279]], [[10.0448867, 56.1571591], [10.0447959, 56.1565663]], [[10.0438347, 56.1475115], [10.0441448, 56.1485667]], [[10.0449726, 56.1565969], [10.0450657, 56.1571941]], [[10.0492186, 56.1650711], [10.0514177, 56.1671791], [10.0542366, 56.1693038], [10.0606997, 56.1729127]], [[10.0441448, 56.1485667], [10.0445056, 56.1507268]], [[10.0463564, 56.1613213], [10.0448867, 56.1571591]], [[10.0465243, 56.1613032], [10.0492186, 56.1650711]], [[10.0444758, 56.153123], [10.0439718, 56.1485829]], [[10.123778, 56.2300755], [10.1245299, 56.2318592]], [[10.017132, 56.0891263], [10.0212501, 56.0929526]], [[10.0236036, 56.0946169], [10.0259011, 56.0960284]], [[10.0260674, 56.0963656], [10.0256591, 56.0961358]], [[10.0302489, 56.098239], [10.0305808, 56.0983947]], [[10.1246208, 56.2327419], [10.1239891, 56.2309233]], [[10.1247983, 56.2327331], [10.1252505, 56.2361371], [10.1245118, 56.2425396], [10.1244378, 56.2477153], [10.1251279, 56.2541023], [10.1262102, 56.2593492], [10.127324, 56.2633043], [10.1292261, 56.2683793], [10.1318946, 56.2733051], [10.1366251, 56.2800859], [10.1377832, 56.2829105], [10.1381104, 56.2855799], [10.1374553, 56.289072], [10.1366297, 56.2908568], [10.1351061, 56.29303], [10.1323958, 56.29568], [10.1278031, 56.2990645], [10.1250105, 56.3015527], [10.1225088, 56.3045297], [10.1208752, 56.3072219]], [[10.1245299, 56.2318592], [10.1247983, 56.2327331]], [[10.043427, 56.1464415], [10.0438347, 56.1475115]], [[10.1231988, 56.2290124], [10.123778, 56.2300755]], [[10.1032296, 56.2161014], [10.1109946, 56.2189298]], [[10.1109946, 56.2189298], [10.1141611, 56.2206043]], [[10.115931, 56.2218716], [10.1123397, 56.2197369]], [[10.1175279, 56.223032], [10.115931, 56.2218716]], [[10.1197132, 56.2247215], [10.1203712, 56.2253734]], [[10.1239891, 56.2309233], [10.123012, 56.2290125]], [[10.1203712, 56.2253734], [10.1220296, 56.2272881]], [[10.0447959, 56.1565663], [10.0444758, 56.153123]], [[10.0446578, 56.1527066], [10.0449726, 56.1565969]], [[10.0445056, 56.1507268], [10.0446578, 56.1527066]], [[10.0450657, 56.1571941], [10.0465243, 56.1613032]], [[10.0469641, 56.1623771], [10.0463564, 56.1613213]], [[10.0683454, 56.1801069], [10.0669235, 56.1780816], [10.0652192, 56.1762906]], [[10.0692417, 56.1820166], [10.0683454, 56.1801069]], [[10.0652192, 56.1762906], [10.0617627, 56.1736865]], [[10.0700989, 56.1883849], [10.0697923, 56.1842798], [10.0692417, 56.1820166]], [[10.0624516, 56.1739791], [10.0650269, 56.1759389], [10.0670784, 56.1780354]], [[10.0606997, 56.1729127], [10.0624516, 56.1739791]], [[10.0691404, 56.1813133], [10.0697787, 56.1832038], [10.0700675, 56.185531]], [[10.0670784, 56.1780354], [10.0691404, 56.1813133]], [[10.0701688, 56.1874886], [10.0711499, 56.1916697], [10.0728004, 56.194977]], [[10.0700675, 56.185531], [10.0701688, 56.1874886]], [[10.0709761, 56.1916922], [10.0700989, 56.1883849]], [[10.0726349, 56.1950078], [10.0709761, 56.1916922]], [[10.0728004, 56.194977], [10.0748707, 56.1977754]], [[10.0735162, 56.1964987], [10.0726349, 56.1950078]], [[10.0748707, 56.1977754], [10.0798735, 56.2031431], [10.0868875, 56.2086341], [10.0937078, 56.2124295], [10.1032296, 56.2161014]], [[10.1081168, 56.2179896], [10.0953775, 56.2134587], [10.0891414, 56.2103913], [10.0843025, 56.2071806], [10.0806963, 56.2042871], [10.077621, 56.2013925], [10.0735162, 56.1964987]], [[10.0368019, 56.1185321], [10.0391218, 56.1132184]], [[10.0385801, 56.11486], [10.0369763, 56.1185582]], [[10.0355832, 56.1014611], [10.0333905, 56.0999948], [10.0260674, 56.0963656]], [[10.0220892, 56.0935699], [10.0236036, 56.0946169]], [[10.0212501, 56.0929526], [10.0220892, 56.0935699]], [[10.1184808, 56.2238151], [10.1175279, 56.223032]], [[10.1123397, 56.2197369], [10.1081168, 56.2179896]]]}}, {"type": "Feature", "properties": {"id": "amagermotorvejen", "name": "Udvidelse af Amagermotorvejen", "type": "road", "status": "construction", "open_year": 2029, "open_year_original": null, "budget_mdkk": 1964.2, "agency": "Vejdirektoratet", "kommuner": ["101", "153", "167"], "parent_id": null, "schematic": false, "map": true, "source_url": "https://www.vejdirektoratet.dk/", "source_doc": "Anlægsstatus 1H 2026 p. 34", "geometry_source": "fingerplan:fp19vp_motorvejanlaeg_udv:kode=25", "updated": "2026-09-23", "notes": "Geometry is the Fingerplan \"ongoing investigation of motorway widening\" on Amager (identified by location)."}, "geometry": {"type": "LineString", "coordinates": [[12.4299153, 55.6299608], [12.4339384, 55.6281109], [12.437656, 55.6256188], [12.4405018, 55.6232246], [12.4435399, 55.6196213], [12.445801, 55.6178674], [12.4507347, 55.6159752], [12.4543442, 55.6152891], [12.4565732, 55.6151633], [12.4613275, 55.6153888], [12.470118, 55.616345], [12.473569, 55.6163821], [12.5124993, 55.6139595], [12.5169461, 55.6141196], [12.5216945, 55.6151612], [12.5252938, 55.6167992], [12.5266743, 55.6177481], [12.5283204, 55.6192673], [12.530179, 55.6217998], [12.5340135, 55.6259336]]}}, {"type": "Feature", "properties": {"id": "signalprogrammet", "name": "Signalprogrammet (new signalling, whole network)", "type": "rail", "status": "construction", "open_year": 2033, "open_year_original": 2022, "budget_mdkk": 24584.8, "agency": "Banedanmark", "kommuner": ["101", "153", "167", "183", "187", "253", "259", "265", "269", "329", "330", "340", "410", "440", "450", "461", "480", "607", "615", "710", "727", "730", "751", "766", "840", "846", "851"], "parent_id": null, "schematic": true, "map": false, "source_url": "https://www.bane.dk/signalprogrammet", "source_doc": "Anlægsstatus 1H 2026 p. 9, 10", "geometry_source": "manual:wkt:LINESTRING(12.5650 55.6730, 11.7900 55.4400, 10.3900 55.3950, 9.7500 55.5600, 10.2045 56.1499, 9.9200 57.0400)", "updated": "2026-09-23", "notes": "schematic corridor — not an official alignment. Nationwide programme with no single alignment; the line sketches the main line København – Odense – Fredericia – Aarhus – Aalborg only so the project is visible on a map. Largest project in the report by budget; report gives \"2022/2033\"."}, "geometry": {"type": "LineString", "coordinates": [[12.565, 55.673], [11.79, 55.44], [10.39, 55.395], [9.75, 55.56], [10.2045, 56.1499], [9.92, 57.04]]}}, {"type": "Feature", "properties": {"id": "kalundborgmotorvejen-3", "name": "Kalundborgmotorvejens 3. etape", "type": "road", "status": "construction", "open_year": 2028, "open_year_original": null, "budget_mdkk": 3466.1, "agency": "Vejdirektoratet", "kommuner": ["316", "326"], "parent_id": null, "schematic": false, "map": true, "source_url": "https://www.vejdirektoratet.dk/", "source_doc": "Anlægsstatus 1H 2026 p. 34", "geometry_source": "osm:way[\"highway\"=\"construction\"](55.60,11.20,55.75,11.60)", "updated": "2026-09-23", "notes": "Report: total expenditure not expected to hold."}, "geometry": {"type": "MultiLineString", "coordinates": [[[11.2859557, 55.6692421], [11.2765733, 55.6686923], [11.2550691, 55.6662795], [11.2456025, 55.6660652]], [[11.2455964, 55.665976], [11.2566436, 55.6663059], [11.2745431, 55.6684045], [11.2840796, 55.669116], [11.2957589, 55.6692888], [11.3090449, 55.6690364]], [[11.2416816, 55.6661233], [11.2273801, 55.6671266], [11.2026024, 55.6712963], [11.186634, 55.6732436], [11.1721603, 55.6741797], [11.1578426, 55.6742832], [11.151007, 55.6753474]], [[11.1509752, 55.6752541], [11.1580334, 55.6741732], [11.1721212, 55.6740863], [11.1866124, 55.6731544], [11.2025701, 55.6712132], [11.2273306, 55.6670419], [11.2416013, 55.6660419]], [[11.2456025, 55.6660652], [11.2427396, 55.6660951]], [[11.2427093, 55.6660078], [11.2455964, 55.665976]], [[11.2427396, 55.6660951], [11.2416816, 55.6661233]], [[11.2416013, 55.6660419], [11.2427093, 55.6660078]], [[11.2819482, 55.6686186], [11.292612, 55.6689638], [11.2942174, 55.6686316], [11.2966716, 55.6673121], [11.2985886, 55.6673612]], [[11.5638893, 55.6583166], [11.5639373, 55.659065]], [[11.5639373, 55.659065], [11.5640165, 55.6604695]], [[11.5640165, 55.6604695], [11.5635421, 55.6612089]], [[11.5649659, 55.6551697], [11.56418, 55.6567444]], [[11.5639548, 55.6577936], [11.563947978035385, 55.657848071564786]], [[11.563947978035385, 55.657848071564786], [11.5638893, 55.6583166]], [[11.5674335, 55.6577263], [11.564034, 55.6572437]], [[11.5644154, 55.6606338], [11.5640165, 55.6604695]], [[11.5639373, 55.659065], [11.5661095, 55.6586599], [11.5686734, 55.6586739]], [[11.564034, 55.6572437], [11.5639548, 55.6577936]], [[11.564903, 55.6580169], [11.563947978035385, 55.657848071564786]], [[11.563947978035385, 55.657848071564786], [11.5633543, 55.6577098], [11.563185, 55.6573839], [11.5640594, 55.6571485]], [[11.56418, 55.6567444], [11.5640594, 55.6571485]], [[11.5640594, 55.6571485], [11.564034, 55.6572437]], [[11.3095726, 55.6690986], [11.3032714, 55.6692841]]]}}]}