{"type": "FeatureCollection", "features": [{"type": "Feature", "id": "theme-fp19vh_letbane_line.1", "geometry": {"type": "MultiLineString", "coordinates": [[[12.3902482, 55.6624712], [12.3902054, 55.662488], [12.3901565, 55.6624987], [12.390089, 55.6625068], [12.3900091, 55.6625216], [12.3899309, 55.6625342], [12.3898748, 55.6625472], [12.3898265, 55.6625642], [12.3897833, 55.6625768], [12.3897532, 55.6625912], [12.3897198, 55.6626099], [12.3896798, 55.6626381], [12.3896474, 55.6626692], [12.3896276, 55.6626958], [12.3896137, 55.6627275], [12.3894947, 55.6631635], [12.3894596, 55.6632489], [12.3893917, 55.663402], [12.3893278, 55.6635164], [12.3892765, 55.6636054], [12.3891699, 55.6637376], [12.3890105, 55.6639423], [12.3888798, 55.6641377], [12.3887827, 55.6642947], [12.3887272, 55.6644214], [12.38867, 55.6645272], [12.3886009, 55.6646668], [12.3885528, 55.6647933], [12.3885043, 55.6649155], [12.3884505, 55.6651464], [12.3884152, 55.6653351], [12.3883997, 55.6654544], [12.3883774, 55.6655801], [12.3883811, 55.6656655], [12.3883742, 55.6657992], [12.3883762, 55.6659931], [12.3884023, 55.6662093], [12.3884452, 55.66645], [12.3885063, 55.6666443], [12.3885487, 55.6667933], [12.388622, 55.6669581], [12.3887125, 55.6671517], [12.388828, 55.6673779], [12.3889469, 55.6675581], [12.3890736, 55.6677423], [12.3891984, 55.6679057], [12.389299, 55.6680447], [12.3894628, 55.668232], [12.3896262, 55.6684152], [12.3897372, 55.6685039], [12.3899533, 55.6686981], [12.3904305, 55.6690103], [12.390854, 55.6692989], [12.3912069, 55.6695394], [12.3913586, 55.6696728], [12.391549, 55.669826], [12.3917956, 55.6700319], [12.3920507, 55.6702501], [12.3923079, 55.6704932], [12.3924432, 55.6706063], [12.3926761, 55.6708251], [12.3929616, 55.6711383], [12.3931026, 55.6713179], [12.3932436, 55.6714976], [12.3934213, 55.6717596], [12.3935906, 55.6720093], [12.3941156, 55.6727873], [12.3945102, 55.6734228], [12.3947204, 55.6738049], [12.3948866, 55.6741048], [12.3950649, 55.6744585], [12.3952648, 55.674891], [12.3955078, 55.6754807], [12.395657, 55.6758394], [12.3957453, 55.6760914], [12.3957464, 55.6761039], [12.3958488, 55.6765181], [12.3959389, 55.6769619], [12.3960286, 55.677485], [12.3960408, 55.6776264], [12.3960569, 55.6778971], [12.3960716, 55.6781511], [12.3960885, 55.6783467], [12.3961084, 55.6785755], [12.3961322, 55.6788501], [12.3961603, 55.6790037], [12.3962273, 55.6794356], [12.3962577, 55.6797017], [12.3962742, 55.6799765], [12.3963235, 55.6802046], [12.3963768, 55.6804784], [12.3964335, 55.6807062], [12.3964977, 55.6808504], [12.3966259, 55.6812222], [12.3967428, 55.6815485], [12.3968476, 55.6818209], [12.3969411, 55.6820477], [12.3970463, 55.6823242], [12.3972284, 55.6826362], [12.3973609, 55.6828869], [12.397612, 55.6833137], [12.3978087, 55.6835377], [12.3980067, 55.6837783], [12.3981501, 55.6838994], [12.3983395, 55.6840402], [12.3985208, 55.6841728], [12.3986933, 55.684289], [12.3988346, 55.6843852], [12.3989861, 55.6845144], [12.3991056, 55.6846154], [12.3992346, 55.6847411], [12.3993398, 55.6848466], [12.3994629, 55.6849892], [12.3996768, 55.6852419], [12.3999113, 55.6854773], [12.400161, 55.6857164], [12.4007048, 55.6861977], [12.4010778, 55.686496], [12.4021744, 55.6874333], [12.4030162, 55.6881565], [12.4034901, 55.6885646], [12.4040754, 55.6890551], [12.4041935, 55.6891394], [12.4043015, 55.6892345], [12.4045099, 55.6893809], [12.4050288, 55.689744], [12.4052692, 55.6899187], [12.4054347, 55.6900393], [12.4056805, 55.6902326], [12.4062613, 55.6907129], [12.4072831, 55.6915937], [12.4079129, 55.6921268], [12.4082678, 55.6924298], [12.4084547, 55.6925831], [12.4087872, 55.6928392], [12.4089616, 55.6929866], [12.4094473, 55.6933923], [12.4100607, 55.6939281], [12.4106251, 55.6944579], [12.4114368, 55.6952055], [12.4121163, 55.6957753], [12.4126811, 55.6962362], [12.4139408, 55.697117], [12.4153525, 55.6981011], [12.4159856, 55.6985005], [12.4169306, 55.6990066], [12.4181408, 55.6995861], [12.4193562, 55.7002078], [12.419763, 55.7004676], [12.4201141, 55.7007068], [12.4207036, 55.7010641], [12.4218782, 55.7017322], [12.4230401, 55.7024571], [12.4241705, 55.7032072], [12.4246579, 55.7035439], [12.4252064, 55.7039775], [12.4274437, 55.7059531], [12.4284153, 55.7068884], [12.428655, 55.7071163], [12.4287044, 55.7072039], [12.4287673, 55.7073007], [12.4288181, 55.7073656], [12.4288467, 55.7074071], [12.4289353, 55.7075245], [12.4289522, 55.7075564], [12.4291131, 55.7077489], [12.4298752, 55.7084318], [12.4308395, 55.7093183], [12.4320247, 55.7103911], [12.4339851, 55.7121882], [12.4342391, 55.712473], [12.435227, 55.7133829], [12.435705, 55.7137879], [12.4365456, 55.7145205], [12.4368961, 55.7148373], [12.4371186, 55.7150574], [12.4372602, 55.7151973], [12.4375428, 55.7154908], [12.4377613, 55.7157286], [12.4382448, 55.7162592], [12.4382451, 55.7162596], [12.4386096, 55.7166788], [12.4388009, 55.7169041], [12.4390748, 55.71726], [12.4392667, 55.7175759], [12.4394681, 55.7179123], [12.4397075, 55.7183445], [12.4399126, 55.7187731], [12.4400546, 55.7191085], [12.4401889, 55.7194618], [12.4402656, 55.7196823], [12.4402658, 55.7196827], [12.4404428, 55.720266], [12.4406711, 55.7209784], [12.4407571, 55.7214021], [12.440812, 55.7218156], [12.4408482, 55.7220169], [12.4409398, 55.7223082], [12.4410484, 55.7225658], [12.4411397, 55.7227261], [12.4411993, 55.7228162], [12.4412408, 55.7229089], [12.4413032, 55.7231281], [12.4413564, 55.7232812], [12.4414504, 55.7235804], [12.4414878, 55.7237007], [12.4415231, 55.7238499], [12.4416079, 55.7241833], [12.4416699, 55.7244672], [12.441714, 55.7245911], [12.4417676, 55.724711], [12.4418227, 55.7248175], [12.441877, 55.7249307], [12.4419162, 55.7250192], [12.4420219, 55.7253593], [12.4422167, 55.7259774], [12.4422351, 55.7260603], [12.4422777, 55.7264595], [12.442292, 55.7265384], [12.4423306, 55.726725], [12.4423645, 55.7268158], [12.4423989, 55.7269129], [12.4424447, 55.7270329], [12.4425109, 55.727135], [12.4426412, 55.7273565], [12.4427219, 55.7274752], [12.442886, 55.7277021], [12.4430966, 55.7280009], [12.4430972, 55.7280017], [12.4434894, 55.72851], [12.4436165, 55.7286524], [12.4439387, 55.7289958], [12.4441817, 55.7292372], [12.4445421, 55.7295696], [12.4447764, 55.7297575], [12.4451473, 55.7300438], [12.4454062, 55.7301944], [12.4459349, 55.7305098], [12.4463713, 55.730745], [12.4468871, 55.7310204], [12.4472485, 55.7311891], [12.4479725, 55.731507], [12.4485426, 55.7317364], [12.4488137, 55.7318351], [12.4494488, 55.7320581], [12.4505028, 55.7323799], [12.4518043, 55.7327341], [12.4520614, 55.7327999], [12.4528747, 55.7330248], [12.4538146, 55.7332628], [12.4546678, 55.7334976], [12.4552758, 55.7336661], [12.4559285, 55.7338405], [12.4574591, 55.734248], [12.4579508, 55.7343576], [12.4582496, 55.7344301], [12.4584998, 55.7345013], [12.4588741, 55.734596], [12.4597348, 55.7348372], [12.4607878, 55.7351372], [12.4619571, 55.7354955], [12.4621533, 55.7355543], [12.4624712, 55.7356461], [12.4635053, 55.7359177], [12.4640109, 55.7360338], [12.4644776, 55.736128], [12.4651227, 55.7362644], [12.4655459, 55.7363473], [12.4662744, 55.7364769], [12.4674505, 55.7366924], [12.4680462, 55.7368025], [12.4690669, 55.7369848], [12.4714692, 55.7374217], [12.4724428, 55.7375988], [12.4734502, 55.7377724], [12.4739594, 55.737852], [12.4744268, 55.7379337], [12.4751743, 55.7380607], [12.4761292, 55.7382326], [12.476605, 55.738332], [12.4772647, 55.7384551], [12.4778697, 55.7385662], [12.4783674, 55.7386543], [12.4789593, 55.7387627], [12.4796977, 55.7388977], [12.4819255, 55.739299], [12.4829231, 55.7394803], [12.484191, 55.739707], [12.4860443, 55.7400736], [12.4866729, 55.7402195], [12.4872683, 55.7403673], [12.4874096, 55.7404055], [12.48778, 55.7405058], [12.4881327, 55.7406003], [12.4883625, 55.7406642], [12.48901, 55.7408564], [12.4900031, 55.7411818], [12.4904926, 55.7413554], [12.4908641, 55.7415002], [12.4915889, 55.7417705], [12.4923469, 55.7420638], [12.4923471, 55.7420639], [12.4924639, 55.7421096], [12.492592, 55.7421779], [12.492707, 55.7422434], [12.4928175, 55.7423116], [12.4928778, 55.7423603], [12.492959, 55.7424166], [12.493101, 55.7425367], [12.4932226, 55.7426563], [12.4933714, 55.7428444], [12.493542, 55.7430851], [12.4937145, 55.7433309], [12.4937827, 55.7434203], [12.493844, 55.743527], [12.493897, 55.7436235], [12.4939452, 55.7437494], [12.4940293, 55.7440285], [12.4942783, 55.7448275], [12.4945267, 55.7456202], [12.4947131, 55.7462178], [12.494874, 55.7467334], [12.4950991, 55.7474517], [12.4951927, 55.7477535], [12.4952454, 55.7479908], [12.4953008, 55.7482176], [12.4953143, 55.7483069], [12.4953208, 55.7483788], [12.4953254, 55.7485495], [12.4953274, 55.7489406], [12.4953253, 55.7491564], [12.4952947, 55.7494044], [12.4952819, 55.7494465], [12.4952653, 55.7495095], [12.4952249, 55.7496358], [12.4952073, 55.7497698], [12.4951906, 55.7499559], [12.4951928, 55.7502255], [12.4951971, 55.7503545], [12.4952315, 55.7505366], [12.4952525, 55.7507606], [12.4952469, 55.7513172], [12.4952124, 55.7522545], [12.4951413, 55.7544338], [12.4950599, 55.7557534], [12.4950479, 55.7559933], [12.4950516, 55.7561997], [12.4950604, 55.7565039], [12.4950674, 55.7566236], [12.4950781, 55.7567026], [12.4950922, 55.7567564], [12.4951069, 55.7568175], [12.4951317, 55.7568877], [12.4951502, 55.7569498], [12.4951659, 55.7570223], [12.4951769, 55.7571242], [12.4951771, 55.7572295], [12.4951754, 55.7572931], [12.4951715, 55.7573684], [12.4951594, 55.7574657], [12.4951411, 55.7575913], [12.4951292, 55.757892], [12.4952387, 55.7591151], [12.4954152, 55.7608382], [12.495459, 55.7612861], [12.4954649, 55.7613457], [12.4954628, 55.7613953], [12.4954625, 55.7614701], [12.4954623, 55.7615196], [12.4954618, 55.7615546], [12.4954547, 55.7616199], [12.4954582, 55.7616595], [12.4954476, 55.7617026], [12.4954547, 55.7617444], [12.4954506, 55.7617806], [12.4954582, 55.7618242], [12.4954601, 55.761845], [12.4954771, 55.7619113], [12.4954702, 55.761876], [12.4954918, 55.7619576], [12.4954995, 55.7619973], [12.4955094, 55.7620268], [12.4955132, 55.7620378], [12.4955292, 55.762072], [12.495549, 55.7621157], [12.4955788, 55.7621696], [12.4956, 55.7622102], [12.4956462, 55.7622714], [12.495825, 55.7625745], [12.4959553, 55.7628732], [12.4960045, 55.7629747], [12.4960899, 55.7632461], [12.496297, 55.7636935], [12.4965434, 55.7642141], [12.4966799, 55.7645007], [12.4967738, 55.7646843], [12.4968064, 55.764737], [12.4969041, 55.7648347], [12.496969, 55.7649183], [12.4970084, 55.7649662], [12.4970326, 55.7650093], [12.4970712, 55.7650952], [12.4970952, 55.7651713], [12.4971109, 55.7652845], [12.4971455, 55.765443], [12.4971665, 55.7655331], [12.4971964, 55.7656188], [12.4972355, 55.7657048], [12.4974922, 55.766238], [12.4976035, 55.7664675], [12.4977126, 55.7666938], [12.4978242, 55.7669284], [12.4979109, 55.7671115], [12.4979901, 55.767273], [12.4980985, 55.767491], [12.498185, 55.7676303], [12.4983213, 55.7678308], [12.4985167, 55.7680296], [12.4987867, 55.7682209], [12.499192, 55.768465], [12.4997323, 55.7687811], [12.5000586, 55.7690117], [12.5002951, 55.7692174], [12.5002954, 55.7692177], [12.5004388, 55.7693315], [12.5005124, 55.7693807], [12.5006039, 55.7694195], [12.5006969, 55.769437], [12.5008028, 55.7694504], [12.5008978, 55.7694373], [12.5009763, 55.7694203], [12.5010852, 55.7693825], [12.5014213, 55.7692556], [12.5016228, 55.7691723], [12.5017678, 55.7691213], [12.5018627, 55.7690831], [12.5019696, 55.7690553], [12.5021083, 55.7690433], [12.50221, 55.7690536], [12.5022645, 55.7690705], [12.5023219, 55.769093], [12.5023786, 55.7691187], [12.5024014, 55.7691358], [12.50246, 55.7691825], [12.5024997, 55.7692211], [12.5027799, 55.7694734], [12.5028657, 55.7695475], [12.5029719, 55.7696591], [12.503043, 55.7697509], [12.5030756, 55.7698251], [12.5030898, 55.7698601], [12.5031229, 55.7698988], [12.5031565, 55.7699437], [12.5032086, 55.7699881], [12.5032675, 55.7700261], [12.5033334, 55.7700597], [12.5034179, 55.7700948], [12.5035372, 55.7701456], [12.5036992, 55.7702093], [12.503914, 55.770284], [12.5040005, 55.7703053], [12.5041318, 55.7703403], [12.5043179, 55.7703934], [12.5044927, 55.7704656], [12.5051198, 55.7707108], [12.5053367, 55.7708002], [12.5057891, 55.7709771], [12.5060311, 55.7710765], [12.5062635, 55.7711637], [12.506371, 55.771194], [12.5066062, 55.7712593], [12.5067075, 55.7712949], [12.5067075, 55.7712949], [12.5068552, 55.7713533], [12.508033, 55.7718202], [12.5083, 55.7719306], [12.5084533, 55.7720105], [12.5086953, 55.7721769], [12.508788, 55.7722482], [12.5088903, 55.7723025], [12.5089994, 55.772364], [12.509525, 55.7725721], [12.5101043, 55.7728016], [12.5109704, 55.7731335], [12.5115582, 55.7733753], [12.5125329, 55.7737624], [12.5127936, 55.7738634], [12.5129429, 55.7739196], [12.5131161, 55.7739939], [12.5132769, 55.774054], [12.5134068, 55.7741043], [12.5135542, 55.7741644], [12.5139776, 55.7743051], [12.5142484, 55.7743953], [12.5144874, 55.7744615], [12.5148803, 55.7745503], [12.515125, 55.7745972], [12.5152941, 55.7746261], [12.5154931, 55.7746579], [12.5156952, 55.7746834], [12.5159047, 55.7747095], [12.5161567, 55.7747338], [12.5164007, 55.7747529], [12.5166645, 55.7747641], [12.5168592, 55.77477], [12.5170652, 55.7747766], [12.5175601, 55.7747875], [12.5198719, 55.7748317], [12.5203007, 55.7748361], [12.520481, 55.7748456], [12.5206462, 55.7748721], [12.5207702, 55.7748925], [12.5208737, 55.7749125], [12.521037, 55.7749543], [12.5212843, 55.7750134], [12.5218258, 55.7751374], [12.5219551, 55.7751764], [12.522055, 55.7752102], [12.5221229, 55.7752448], [12.5221764, 55.7752839], [12.5222242, 55.7753222], [12.5222633, 55.7753659], [12.5223002, 55.7754253], [12.5223246, 55.7754705], [12.5223367, 55.7755223], [12.5223498, 55.7755855], [12.5223562, 55.7756364], [12.5223738, 55.7758518], [12.5224237, 55.7763218], [12.5224423, 55.7765078], [12.5224603, 55.776646], [12.5224859, 55.776786], [12.5225221, 55.7769205], [12.5225667, 55.7770676], [12.5225669, 55.7770684], [12.5225949, 55.7772136], [12.5226396, 55.7772999], [12.5226875, 55.7774194], [12.5227582, 55.7775467], [12.5228551, 55.7777191], [12.5229739, 55.7778867], [12.5230608, 55.7780302], [12.5231885, 55.7782143], [12.5233328, 55.7784187], [12.5237467, 55.7789145], [12.5238347, 55.7790591], [12.5238338, 55.7792135], [12.5237766, 55.7793054], [12.5237149, 55.7793711], [12.5236186, 55.7794532], [12.5234608, 55.7795078], [12.5233239, 55.7795493], [12.523101, 55.7795928], [12.5229309, 55.7796231], [12.5227342, 55.779658], [12.521605, 55.7798488], [12.5185049, 55.7803856], [12.5184234, 55.7804144], [12.5183761, 55.7804503], [12.518298, 55.7805144], [12.518274, 55.780569], [12.5182694, 55.7806212], [12.5183335, 55.780757], [12.5190307, 55.7820238], [12.519681, 55.7832023], [12.5204003, 55.7845791], [12.5204454, 55.784659], [12.5207849, 55.785273], [12.5210455, 55.7856669], [12.5211116, 55.7856953], [12.521193, 55.7857241], [12.5212869, 55.7857402], [12.5214019, 55.7857432], [12.5215047, 55.785734], [12.5222694, 55.7856043], [12.5244295, 55.7852211], [12.5262047, 55.7849109], [12.5263485, 55.7849047], [12.5265261, 55.7849037], [12.5267085, 55.7849152], [12.5268366, 55.7849407], [12.5269808, 55.7849804], [12.5270845, 55.7850212], [12.5271401, 55.7850634], [12.5272273, 55.785123], [12.5272997, 55.7851922], [12.5273586, 55.7852698], [12.5277937, 55.786029], [12.5279843, 55.7864176], [12.5281306, 55.7867659], [12.5286013, 55.7880413], [12.5287578, 55.788871], [12.5290138, 55.7895727], [12.5295258, 55.7909279], [12.5297249, 55.7914646], [12.529988, 55.7921558], [12.5300916, 55.7924823], [12.5301958, 55.7927338], [12.5303063, 55.7929725], [12.5304055, 55.7933326], [12.5304302, 55.7935237], [12.5304456, 55.793857], [12.5304403, 55.7942075], [12.5304486, 55.7947078], [12.5304548, 55.7948472]]]}, "geometry_name": "wkb_geometry", "properties": {"id": 2, "hovedstruk": "Reservationer til overordnede kollektive trafikanlæg", "navn_gen": "Letbane", "navn_spec": "Linieføring letbane", "kode": null, "kortbilag": "H i FP19", "dato_ret": 20190109.0}, "bbox": [713099.3643, 6173726.3492, 721306.1572, 6188888.6683]}, {"type": "Feature", "id": "theme-fp19vh_letbane_line.2", "geometry": {"type": "MultiLineString", "coordinates": [[[12.3587554, 55.6136541], [12.3588844, 55.6136086], [12.3593575, 55.613448], [12.3596278, 55.6133562], [12.3597487, 55.6133153], [12.3598197, 55.6132907], [12.3598425, 55.6132841], [12.3598786, 55.6132746], [12.3599102, 55.6132657], [12.3599376, 55.6132594], [12.359965, 55.6132543], [12.3599949, 55.6132505], [12.3600233, 55.613248], [12.3600578, 55.6132458], [12.3600878, 55.613245], [12.3601225, 55.6132449], [12.3601473, 55.6132442], [12.3601731, 55.6132456], [12.3601989, 55.6132475], [12.3602293, 55.6132505], [12.3602606, 55.6132552], [12.3602896, 55.6132604], [12.3603197, 55.6132681], [12.360363, 55.6132805], [12.36038, 55.6132852], [12.3604002, 55.6132925], [12.3604119, 55.6132973], [12.3604233, 55.6133023], [12.3604356, 55.6133101], [12.3605527, 55.6133792], [12.360646, 55.6134351], [12.3607384, 55.6134931], [12.3608347, 55.6135528], [12.3609348, 55.6136127], [12.3610667, 55.6136919], [12.3611425, 55.6137401], [12.3611885, 55.6137675], [12.3612189, 55.6137871], [12.3612378, 55.6137972], [12.3612552, 55.6138066], [12.3612731, 55.6138138], [12.3612896, 55.6138206], [12.3613075, 55.6138273], [12.3613237, 55.6138324], [12.3613424, 55.6138392], [12.3613609, 55.6138442], [12.3613917, 55.613851], [12.3614149, 55.6138581], [12.3614426, 55.6138646], [12.3614703, 55.6138719], [12.3615048, 55.6138787], [12.3615375, 55.6138816], [12.3615693, 55.6138833], [12.3616124, 55.6138855], [12.361651, 55.6138866], [12.3616938, 55.6138854], [12.361745, 55.6138844], [12.361775, 55.6138823], [12.3618056, 55.6138789], [12.3618383, 55.6138738], [12.3618627, 55.6138688], [12.3619041, 55.6138587], [12.3619602, 55.6138448], [12.3620309, 55.6138263], [12.3623142, 55.613737], [12.3626495, 55.6136301], [12.3630696, 55.6134838], [12.3633944, 55.6133682], [12.3638839, 55.6131786], [12.364297, 55.6130133], [12.3645911, 55.6128917], [12.3647475, 55.6128251], [12.3648386, 55.6127898], [12.3648943, 55.6127712], [12.3649384, 55.6127576], [12.3649747, 55.6127502], [12.3650213, 55.6127404], [12.3650682, 55.6127336], [12.3651137, 55.612728], [12.3651638, 55.6127228], [12.3652147, 55.6127193], [12.3652741, 55.6127168], [12.3653274, 55.6127153], [12.365375, 55.6127166], [12.3654098, 55.6127178], [12.3654447, 55.6127202], [12.3654721, 55.6127233], [12.3655009, 55.6127259], [12.3655339, 55.6127319], [12.3656272, 55.6127476], [12.3657502, 55.6127758], [12.3659085, 55.6128205], [12.3660644, 55.6128717], [12.366238, 55.6129275], [12.3664144, 55.6129888], [12.3666624, 55.6130775], [12.3668198, 55.6131381], [12.3670974, 55.6132546], [12.3674989, 55.6134193], [12.3679139, 55.6135824], [12.3682128, 55.6137008], [12.3685533, 55.6138314], [12.3690234, 55.614013], [12.3691003, 55.6140429], [12.369209, 55.6140853], [12.3693499, 55.6141397], [12.3697455, 55.6142942], [12.3701252, 55.6144411], [12.3707007, 55.6146602], [12.37114, 55.6148248], [12.3715496, 55.6149794], [12.3720929, 55.6151842], [12.3724262, 55.6153108], [12.3728248, 55.615462], [12.3733412, 55.6156539], [12.3736762, 55.6157813], [12.3740955, 55.6159408], [12.3743365, 55.6160358], [12.3744761, 55.6160939], [12.3747473, 55.6162072], [12.3748389, 55.6162483], [12.3751688, 55.6163998], [12.3756238, 55.6166175], [12.3757928, 55.6166928], [12.3758537, 55.6167172], [12.3759016, 55.6167399], [12.3759488, 55.6167605], [12.3760402, 55.6167954], [12.3761096, 55.6168227], [12.3763602, 55.6169101], [12.3765053, 55.6169547], [12.3766738, 55.6170063], [12.3767994, 55.6170437], [12.376964, 55.6170927], [12.377139, 55.6171458], [12.3773309, 55.6172025], [12.3775061, 55.6172585], [12.377756, 55.6173466], [12.3778291, 55.6173744], [12.37783, 55.6173748], [12.3779977, 55.6174459], [12.3780835, 55.6174805], [12.37817, 55.6175219], [12.3782668, 55.6175656], [12.3784675, 55.617673], [12.3786466, 55.6177825], [12.3787873, 55.6178756], [12.3789204, 55.6179711], [12.3791131, 55.6181288], [12.3792146, 55.6182262], [12.37928, 55.618301], [12.3793566, 55.6183885], [12.3794169, 55.6184677], [12.379485, 55.6185743], [12.3795268, 55.618643], [12.3796054, 55.6187748], [12.3796875, 55.6189143], [12.3797251, 55.6189764], [12.379787, 55.6190852], [12.3798072, 55.619117], [12.3798221, 55.6191405], [12.3798385, 55.6191594], [12.3798545, 55.6191746], [12.3798676, 55.6191873], [12.3798775, 55.6191948], [12.3799007, 55.6192082], [12.3799111, 55.6192145], [12.3799249, 55.6192211], [12.3799412, 55.619232], [12.3799626, 55.61924], [12.3799892, 55.6192497], [12.3800178, 55.6192614], [12.3800521, 55.6192746], [12.3800814, 55.6192841], [12.3801165, 55.6192956], [12.3801433, 55.6193079], [12.3801936, 55.6193293], [12.3802302, 55.6193481], [12.3802736, 55.6193763], [12.3803059, 55.6193978], [12.3803386, 55.619425], [12.3803625, 55.6194463], [12.3803878, 55.6194717], [12.380418, 55.619513], [12.380444, 55.6195572], [12.3804561, 55.6195928], [12.3804727, 55.6196773], [12.3804906, 55.6197566], [12.3805015, 55.619798], [12.3805173, 55.6198419], [12.3805296, 55.619877], [12.3805602, 55.6199439], [12.3805888, 55.6199987], [12.3806213, 55.6200538], [12.3806594, 55.6201112], [12.3806955, 55.6201675], [12.3807528, 55.6202436], [12.3808087, 55.620326], [12.3808972, 55.6204445], [12.3809763, 55.6205498], [12.3810703, 55.6206671], [12.3811728, 55.6207873], [12.3812903, 55.6209217], [12.3813123, 55.6209425], [12.3814038, 55.6210416], [12.3815391, 55.6211896], [12.3816565, 55.6213016], [12.3818125, 55.6214537], [12.3820362, 55.6216503], [12.382407, 55.6219597], [12.3825359, 55.6220546], [12.3827566, 55.6222201], [12.3829422, 55.6223531], [12.3832639, 55.6225833], [12.3838084, 55.6229591], [12.3842262, 55.6232462], [12.3846389, 55.6235336], [12.3851756, 55.6239158], [12.3852665, 55.6239839], [12.3853214, 55.6240324], [12.3854123, 55.6241139], [12.3854892, 55.6241846], [12.3854893, 55.6241847], [12.3855724, 55.6242716], [12.3856239, 55.6243304], [12.3857804, 55.6245145], [12.3859637, 55.6247383], [12.3860832, 55.6248633], [12.386251, 55.6250244], [12.3864711, 55.625204], [12.386743, 55.6253967], [12.3868979, 55.6255055], [12.3872138, 55.6257376], [12.3873952, 55.625875], [12.3876165, 55.6260367], [12.3878877, 55.6262331], [12.3881305, 55.6263979], [12.3885793, 55.6267077], [12.3890254, 55.6270186], [12.3902448, 55.6278872], [12.3904621, 55.628043], [12.3906936, 55.628206], [12.3909634, 55.628399], [12.3909637, 55.6283992], [12.3912396, 55.628595], [12.391448, 55.6287456], [12.3919517, 55.6291034], [12.3924338, 55.6294461], [12.3925882, 55.6295587], [12.3929691, 55.6298201], [12.3934995, 55.6301752], [12.3940003, 55.6305175], [12.3944873, 55.6308658], [12.3950137, 55.6312412], [12.3955382, 55.6316151], [12.3960415, 55.6319776], [12.3964773, 55.6322895], [12.3969758, 55.6326456], [12.3969758, 55.6326456], [12.3975015, 55.6330226], [12.3977942, 55.6332328], [12.3979997, 55.6333909], [12.3982301, 55.6335712], [12.3984427, 55.6337507], [12.3984429, 55.6337509], [12.398847, 55.634113], [12.3991982, 55.6344692], [12.3995012, 55.634807], [12.3997212, 55.6350799], [12.3998168, 55.6352044], [12.3999917, 55.6354566], [12.4001655, 55.6357182], [12.4002412, 55.635847], [12.4004266, 55.6361908], [12.4005282, 55.6364036], [12.4006019, 55.6365731], [12.4006847, 55.6367742], [12.4007335, 55.6369219], [12.4007978, 55.6371109], [12.4008443, 55.6372861], [12.4008825, 55.637429], [12.4008972, 55.6374932], [12.4009197, 55.6376023], [12.4009494, 55.6377538], [12.4009845, 55.6380097], [12.4009948, 55.6380965], [12.4010029, 55.6382006], [12.4010113, 55.6382974], [12.4010171, 55.6383848], [12.4010208, 55.6384389], [12.4010215, 55.6385208], [12.4010232, 55.6386047], [12.4010234, 55.6388513], [12.4010274, 55.639067], [12.4010322, 55.6392816], [12.4010376, 55.6393973], [12.4010453, 55.6395076], [12.4010562, 55.6397069], [12.4010571, 55.6398028], [12.4010573, 55.6399321], [12.4010539, 55.6401908], [12.4010496, 55.6402371], [12.4010459, 55.6402789], [12.4010427, 55.6403061], [12.4010383, 55.6403407], [12.401027, 55.6403905], [12.4010111, 55.640441], [12.4009915, 55.6404921], [12.4009314, 55.640644], [12.4009008, 55.6407428], [12.4008778, 55.6408493], [12.4008565, 55.6409541], [12.4008491, 55.6409971], [12.4008438, 55.6410635], [12.4008402, 55.641319], [12.4008378, 55.6416319], [12.4008414, 55.6420134], [12.400851, 55.642082], [12.4008554, 55.6421319], [12.4008674, 55.6421968], [12.4008969, 55.6423242], [12.4009186, 55.6424248], [12.4009378, 55.6424983], [12.4009516, 55.6425511], [12.4009681, 55.642634], [12.4009853, 55.6427472], [12.4010035, 55.6429146], [12.4010143, 55.6432146], [12.4010517, 55.6441082], [12.4010594, 55.6442602], [12.4010648, 55.6443654], [12.401073, 55.6444601], [12.4010793, 55.644512], [12.4010924, 55.6446837], [12.4011009, 55.6448242], [12.4011169, 55.6449656], [12.4011202, 55.6451313], [12.4011211, 55.6452053], [12.4011101, 55.6454185], [12.4010963, 55.6455138], [12.401082, 55.6456226], [12.4010612, 55.6457268], [12.4010382, 55.6458651], [12.4010053, 55.6460172], [12.4009388, 55.6462714], [12.4009136, 55.6463598], [12.4008817, 55.6464627], [12.4008578, 55.646528], [12.4008365, 55.6466006], [12.4007828, 55.646747], [12.4007296, 55.6468778], [12.400692, 55.6469694], [12.400653, 55.6470582], [12.4006222, 55.6471279], [12.4005664, 55.6472493], [12.4005223, 55.6473361], [12.4003594, 55.6476369], [12.4002402, 55.6478262], [12.4001565, 55.6479661], [12.4000731, 55.6480894], [12.3999948, 55.6482068], [12.3997709, 55.6485055], [12.3996902, 55.6486068], [12.3994729, 55.6488646], [12.3993806, 55.6489704], [12.3991643, 55.6492079], [12.398811, 55.6495947], [12.3984384, 55.6500017], [12.398175, 55.6502946], [12.3980191, 55.6504652], [12.3979146, 55.6505782], [12.3976578, 55.6508595], [12.3975592, 55.6509665], [12.3973354, 55.6512146], [12.3970524, 55.6515232], [12.3968214, 55.6517835], [12.3967218, 55.65189], [12.3962948, 55.6523587], [12.3961316, 55.6525394], [12.3958656, 55.6528325], [12.3957326, 55.652978], [12.3954627, 55.6532691], [12.3952278, 55.6535165], [12.3951871, 55.6535572], [12.3951736, 55.6535722], [12.3951545, 55.6535863], [12.3951281, 55.6536157], [12.3951034, 55.6536346], [12.3950537, 55.6536777], [12.3949192, 55.6537953], [12.3948188, 55.6538834], [12.3946976, 55.6539962], [12.3945402, 55.654159], [12.3944693, 55.654234], [12.3942137, 55.6545138], [12.3939181, 55.6548436], [12.3937399, 55.6550435], [12.3935968, 55.6552227], [12.3934076, 55.6554876], [12.39326, 55.6556783], [12.3931432, 55.6558202], [12.3930054, 55.6559752], [12.3927276, 55.6562811], [12.3925269, 55.6564984], [12.3923049, 55.6567464], [12.3920365, 55.6570541], [12.3918402, 55.6572796], [12.3916928, 55.6574526], [12.3915931, 55.6575784], [12.391437, 55.6577787], [12.3911997, 55.6580846], [12.3909832, 55.658395], [12.3909804, 55.6583951], [12.3908727, 55.6585472], [12.3906599, 55.6588712], [12.3904464, 55.6591922], [12.3903853, 55.6592979], [12.3903121, 55.6594573], [12.3902611, 55.6595787], [12.3902361, 55.6596633], [12.3902054, 55.6597872], [12.3901871, 55.6598852], [12.3901807, 55.6599281], [12.3901773, 55.6599856], [12.3901738, 55.6600832], [12.3901721, 55.6601494], [12.3901783, 55.6602311], [12.390189, 55.6603867], [12.3901887, 55.6605436], [12.3901824, 55.6606194], [12.3901671, 55.6607622], [12.3901376, 55.6608699], [12.3901044, 55.6609865], [12.3900661, 55.6610981], [12.389947, 55.6614591], [12.389844, 55.6618467], [12.3897601, 55.6621775], [12.3897639, 55.6622211], [12.3897877, 55.6622749], [12.3897979, 55.6622866], [12.3898184, 55.6623095], [12.3898517, 55.6623331], [12.3899093, 55.6623662], [12.3899545, 55.6623874], [12.3900048, 55.6624048], [12.3900542, 55.6624211], [12.390104, 55.6624427], [12.3901687, 55.6624649], [12.3902078, 55.6624695], [12.3902512, 55.6624694], [12.3903606, 55.6624664], [12.390787, 55.6624587], [12.3910074, 55.6624579], [12.3911428, 55.6624581], [12.3912852, 55.6624606], [12.391423, 55.6624641], [12.3915855, 55.6624768], [12.3918937, 55.6625015], [12.3922992, 55.6625499], [12.3929451, 55.6626279], [12.3941983, 55.6627783], [12.3950391, 55.6628869], [12.3959152, 55.6630134], [12.3960411, 55.6630297], [12.3961958, 55.6630478]]]}, "geometry_name": "wkb_geometry", "properties": {"id": 1, "hovedstruk": "Reservationer til overordnede kollektive trafikanlæg", "navn_gen": "Letbane", "navn_spec": "Linieføring letbane", "kode": null, "kortbilag": "H i FP19", "dato_ret": 20190109.0}, "bbox": [711519.2779, 6168116.099, 714044.8619, 6173808.7923]}], "totalFeatures": 2, "numberMatched": 2, "numberReturned": 2, "timeStamp": "2026-09-22T18:10:54.952Z", "crs": {"type": "name", "properties": {"name": "urn:ogc:def:crs:OGC:1.3:CRS84"}}, "bbox": [711519.2779, 6168116.099, 721306.1572, 6188888.6683]}