{"type": "FeatureCollection", "features": [{"type": "Feature", "id": "theme-fp19vk_kbh_til_bz.1", "geometry": {"type": "MultiPolygon", "coordinates": [[[[12.632876, 55.690538], [12.634411, 55.691081], [12.6344949, 55.6911291], [12.634654, 55.6911091], [12.634814, 55.691088], [12.6348771, 55.690936], [12.6362431, 55.6878629], [12.635946, 55.687758], [12.632876, 55.690538]]], [[[12.6257601, 55.688982], [12.6256131, 55.6887561], [12.626043, 55.688299], [12.626137, 55.688197], [12.626096, 55.6881239], [12.6259231, 55.688063], [12.625841, 55.688044], [12.625796, 55.6880379], [12.625733, 55.688064], [12.6256651, 55.688127], [12.625278, 55.68856], [12.6251939, 55.688637], [12.625106, 55.688654], [12.625, 55.688752], [12.6257601, 55.688982]]], [[[12.622721, 55.686826], [12.621077, 55.686226], [12.616622, 55.683222], [12.6165241, 55.68339], [12.6176469, 55.6864931], [12.621815, 55.687655], [12.622721, 55.686826]]]]}, "geometry_name": "wkb_geometry", "properties": {"id": 3, "hovedstruk": "Arealer til byzone", "navn_gen": null, "navn_spec": "Arealer ved Magretheholm", "kode": "3", "kortbilag": "M.1 i FP19", "dato_ret": 20190108.0}, "bbox": [727340.17, 6176753.5199, 728553.02, 6177691.6299]}, {"type": "Feature", "id": "theme-fp19vk_kbh_til_bz.2", "geometry": {"type": "MultiPolygon", "coordinates": [[[[12.62098, 55.714616], [12.6304991, 55.719069], [12.630614, 55.718964], [12.62132, 55.71455], [12.62098, 55.714616]]]]}, "geometry_name": "wkb_geometry", "properties": {"id": 1, "hovedstruk": "Arealer til byzone", "navn_gen": null, "navn_spec": "Krydstogtterminal", "kode": "1", "kortbilag": "M.1 i FP19", "dato_ret": 20190108.0}, "bbox": [727438.6, 6180252.9499, 728018.08, 6180785.6799]}, {"type": "Feature", "id": "theme-fp19vk_kbh_til_bz.3", "geometry": {"type": "MultiPolygon", "coordinates": [[[[12.541876, 55.643557], [12.542331, 55.643536], [12.543065, 55.643477], [12.5437, 55.643389], [12.545016, 55.643124], [12.5460271, 55.642773], [12.546112, 55.642844], [12.545855, 55.6430681], [12.5460101, 55.643137], [12.5458731, 55.643187], [12.5461049, 55.6431189], [12.546624, 55.642883], [12.546567, 55.642828], [12.5486051, 55.641969], [12.548647, 55.641947], [12.5487079, 55.64193], [12.5487601, 55.641929], [12.5488241, 55.641958], [12.548767, 55.641903], [12.5486931, 55.641842], [12.5486381, 55.6416979], [12.5486639, 55.6415671], [12.5487781, 55.64145], [12.5490089, 55.6412319], [12.549421, 55.640853], [12.549784, 55.640528], [12.549087, 55.640129], [12.5486831, 55.640138], [12.5484819, 55.640273], [12.548567, 55.6404679], [12.547089, 55.641532], [12.5469119, 55.641516], [12.546719, 55.64164], [12.5467601, 55.6417321], [12.5464141, 55.641927], [12.54605, 55.6421071], [12.545666, 55.642267], [12.5452549, 55.642422], [12.544842, 55.642547], [12.5446631, 55.642499], [12.544439, 55.642551], [12.5444121, 55.6426661], [12.5443079, 55.642694], [12.54385, 55.642794], [12.543338, 55.642884], [12.5427731, 55.642965], [12.54225, 55.643019], [12.541794, 55.64304], [12.541312, 55.6430511], [12.541876, 55.643557]]]]}, "geometry_name": "wkb_geometry", "properties": {"id": 2, "hovedstruk": "Arealer til byzone", "navn_gen": null, "navn_spec": "Opfyldt areal til Øresundsbanen", "kode": "2", "kortbilag": "M.1 i FP19", "dato_ret": 20190108.0}, "bbox": [722843.7, 6171741.2499, 723390.94, 6172099.5899]}], "totalFeatures": 3, "numberMatched": 3, "numberReturned": 3, "timeStamp": "2026-09-22T18:10:56.108Z", "crs": {"type": "name", "properties": {"name": "urn:ogc:def:crs:OGC:1.3:CRS84"}}, "bbox": [722843.7, 6171741.2499, 728553.02, 6180785.6799]}