{"type": "FeatureCollection", "features": [{"type": "Feature", "id": "theme-fp19vh_letbane_station.1", "geometry": {"type": "MultiPoint", "coordinates": [[12.401042, 55.6438766]]}, "geometry_name": "wkb_geometry", "properties": {"id": 6, "hovedstruk": "Reservationer til overordnede kollektive trafikanlæg", "navn_gen": "Letbane stationer", "navn_spec": null, "st_navn": "Brøndbyvester", "kode": "2", "kortbilag": "H i FP19", "dato_ret": 20190122.0}, "bbox": [714016.2907, 6171691.5144, 714016.2907, 6171691.5144]}, {"type": "Feature", "id": "theme-fp19vh_letbane_station.2", "geometry": {"type": "MultiPoint", "coordinates": [[12.3590598, 55.6135491]]}, "geometry_name": "wkb_geometry", "properties": {"id": 1, "hovedstruk": "Reservationer til overordnede kollektive trafikanlæg", "navn_gen": "Letbane stationer", "navn_spec": null, "st_navn": "Ishøj", "kode": "1", "kortbilag": "H i FP19", "dato_ret": 20190122.0}, "bbox": [711539.0114, 6168189.6968, 711539.0114, 6168189.6968]}, {"type": "Feature", "id": "theme-fp19vh_letbane_station.3", "geometry": {"type": "MultiPoint", "coordinates": [[12.3696017, 55.6142381]]}, "geometry_name": "wkb_geometry", "properties": {"id": 2, "hovedstruk": "Reservationer til overordnede kollektive trafikanlæg", "navn_gen": "Letbane stationer", "navn_spec": null, "st_navn": "Ishøj Strand Arken", "kode": "2", "kortbilag": "H i FP19", "dato_ret": 20190122.0}, "bbox": [712198.8941, 6168298.5225, 712198.8941, 6168298.5225]}, {"type": "Feature", "id": "theme-fp19vh_letbane_station.4", "geometry": {"type": "MultiPoint", "coordinates": [[12.3796633, 55.6188732]]}, "geometry_name": "wkb_geometry", "properties": {"id": 3, "hovedstruk": "Reservationer til overordnede kollektive trafikanlæg", "navn_gen": "Letbane stationer", "navn_spec": null, "st_navn": "Strandhaven", "kode": "2", "kortbilag": "H i FP19", "dato_ret": 20190122.0}, "bbox": [712807.1236, 6168844.8607, 712807.1236, 6168844.8607]}, {"type": "Feature", "id": "theme-fp19vh_letbane_station.5", "geometry": {"type": "MultiPoint", "coordinates": [[12.3899938, 55.6277085]]}, "geometry_name": "wkb_geometry", "properties": {"id": 5, "hovedstruk": "Reservationer til overordnede kollektive trafikanlæg", "navn_gen": "Letbane stationer", "navn_spec": null, "st_navn": "Delta Park", "kode": "2", "kortbilag": "H i FP19", "dato_ret": 20190122.0}, "bbox": [713409.2901, 6169859.2578, 713409.2901, 6169859.2578]}, {"type": "Feature", "id": "theme-fp19vh_letbane_station.6", "geometry": {"type": "MultiPoint", "coordinates": [[12.3943575, 55.6543564]]}, "geometry_name": "wkb_geometry", "properties": {"id": 7, "hovedstruk": "Reservationer til overordnede kollektive trafikanlæg", "navn_gen": "Letbane stationer", "navn_spec": null, "st_navn": "Kirkebjerg", "kode": "2", "kortbilag": "H i FP19", "dato_ret": 20190122.0}, "bbox": [713538.7611, 6172836.4664, 713538.7611, 6172836.4664]}, {"type": "Feature", "id": "theme-fp19vh_letbane_station.7", "geometry": {"type": "MultiPoint", "coordinates": [[12.3958329, 55.6630015]]}, "geometry_name": "wkb_geometry", "properties": {"id": 8, "hovedstruk": "Reservationer til overordnede kollektive trafikanlæg", "navn_gen": "Letbane stationer", "navn_spec": null, "st_navn": "Glostrup", "kode": "1", "kortbilag": "H i FP19", "dato_ret": 20190122.0}, "bbox": [713584.4299, 6173802.5209, 713584.4299, 6173802.5209]}, {"type": "Feature", "id": "theme-fp19vh_letbane_station.8", "geometry": {"type": "MultiPoint", "coordinates": [[12.3917032, 55.6699547]]}, "geometry_name": "wkb_geometry", "properties": {"id": 9, "hovedstruk": "Reservationer til overordnede kollektive trafikanlæg", "navn_gen": "Letbane stationer", "navn_spec": null, "st_navn": "Glostrup Hospital Rigshospitalet", "kode": "2", "kortbilag": "H i FP19", "dato_ret": 20190122.0}, "bbox": [713286.9505, 6174563.1489, 713286.9505, 6174563.1489]}, {"type": "Feature", "id": "theme-fp19vh_letbane_station.9", "geometry": {"type": "MultiPoint", "coordinates": [[12.3962798, 55.6800025]]}, "geometry_name": "wkb_geometry", "properties": {"id": 10, "hovedstruk": "Reservationer til overordnede kollektive trafikanlæg", "navn_gen": "Letbane stationer", "navn_spec": null, "st_navn": "Glostrup Nord", "kode": "2", "kortbilag": "H i FP19", "dato_ret": 20190122.0}, "bbox": [713519.8591, 6175694.7533, 713519.8591, 6175694.7533]}, {"type": "Feature", "id": "theme-fp19vh_letbane_station.10", "geometry": {"type": "MultiPoint", "coordinates": [[12.4145103, 55.697514]]}, "geometry_name": "wkb_geometry", "properties": {"id": 11, "hovedstruk": "Reservationer til overordnede kollektive trafikanlæg", "navn_gen": "Letbane stationer", "navn_spec": null, "st_navn": "Glostrup Ejby", "kode": "2", "kortbilag": "H i FP19", "dato_ret": 20190122.0}, "bbox": [714569.5086, 6177698.6788, 714569.5086, 6177698.6788]}, {"type": "Feature", "id": "theme-fp19vh_letbane_station.11", "geometry": {"type": "MultiPoint", "coordinates": [[12.4276404, 55.7061425]]}, "geometry_name": "wkb_geometry", "properties": {"id": 12, "hovedstruk": "Reservationer til overordnede kollektive trafikanlæg", "navn_gen": "Letbane stationer", "navn_spec": null, "st_navn": "Rødovre Nord", "kode": "2", "kortbilag": "H i FP19", "dato_ret": 20190122.0}, "bbox": [715346.771, 6178699.0547, 715346.771, 6178699.0547]}, {"type": "Feature", "id": "theme-fp19vh_letbane_station.12", "geometry": {"type": "MultiPoint", "coordinates": [[12.3847183, 55.6235901]]}, "geometry_name": "wkb_geometry", "properties": {"id": 4, "hovedstruk": "Reservationer til overordnede kollektive trafikanlæg", "navn_gen": "Letbane stationer", "navn_spec": null, "st_navn": "Vallensbæk", "kode": "1", "kortbilag": "H i FP19", "dato_ret": 20190122.0}, "bbox": [713099.6804, 6169384.9954, 713099.6804, 6169384.9954]}, {"type": "Feature", "id": "theme-fp19vh_letbane_station.13", "geometry": {"type": "MultiPoint", "coordinates": [[12.441337, 55.7232254]]}, "geometry_name": "wkb_geometry", "properties": {"id": 15, "hovedstruk": "Reservationer til overordnede kollektive trafikanlæg", "navn_gen": "Letbane stationer", "navn_spec": null, "st_navn": "Herlev Bymidte", "kode": "2", "kortbilag": "H i FP19", "dato_ret": 20190122.0}, "bbox": [716112.4986, 6180641.6426, 716112.4986, 6180641.6426]}, {"type": "Feature", "id": "theme-fp19vh_letbane_station.14", "geometry": {"type": "MultiPoint", "coordinates": [[12.4354397, 55.7135631]]}, "geometry_name": "wkb_geometry", "properties": {"id": 13, "hovedstruk": "Reservationer til overordnede kollektive trafikanlæg", "navn_gen": "Letbane stationer", "navn_spec": null, "st_navn": "Herlev Syd", "kode": "2", "kortbilag": "H i FP19", "dato_ret": 20190122.0}, "bbox": [715795.6222, 6179548.6392, 715795.6222, 6179548.6392]}, {"type": "Feature", "id": "theme-fp19vh_letbane_station.15", "geometry": {"type": "MultiPoint", "coordinates": [[12.4404196, 55.7201896]]}, "geometry_name": "wkb_geometry", "properties": {"id": 14, "hovedstruk": "Reservationer til overordnede kollektive trafikanlæg", "navn_gen": "Letbane stationer", "navn_spec": null, "st_navn": "Herlev", "kode": "1", "kortbilag": "H i FP19", "dato_ret": 20190122.0}, "bbox": [716071.6853, 6180301.1412, 716071.6853, 6180301.1412]}, {"type": "Feature", "id": "theme-fp19vh_letbane_station.16", "geometry": {"type": "MultiPoint", "coordinates": [[12.4458107, 55.7304357]]}, "geometry_name": "wkb_geometry", "properties": {"id": 16, "hovedstruk": "Reservationer til overordnede kollektive trafikanlæg", "navn_gen": "Letbane stationer", "navn_spec": null, "st_navn": "Herlev Hospital", "kode": "2", "kortbilag": "H i FP19", "dato_ret": 20190122.0}, "bbox": [716353.4158, 6181457.5246, 716353.4158, 6181457.5246]}, {"type": "Feature", "id": "theme-fp19vh_letbane_station.17", "geometry": {"type": "MultiPoint", "coordinates": [[12.4589997, 55.7346312]]}, "geometry_name": "wkb_geometry", "properties": {"id": 17, "hovedstruk": "Reservationer til overordnede kollektive trafikanlæg", "navn_gen": "Letbane stationer", "navn_spec": null, "st_navn": "Dynamovej", "kode": "2", "kortbilag": "H i FP19", "dato_ret": 20190122.0}, "bbox": [717157.8405, 6181965.4104, 717157.8405, 6181965.4104]}, {"type": "Feature", "id": "theme-fp19vh_letbane_station.18", "geometry": {"type": "MultiPoint", "coordinates": [[12.4738623, 55.7378368]]}, "geometry_name": "wkb_geometry", "properties": {"id": 18, "hovedstruk": "Reservationer til overordnede kollektive trafikanlæg", "navn_gen": "Letbane stationer", "navn_spec": null, "st_navn": "Gladsaxe Trafikplads", "kode": "2", "kortbilag": "H i FP19", "dato_ret": 20190122.0}, "bbox": [718072.619, 6182368.6246, 718072.619, 6182368.6246]}, {"type": "Feature", "id": "theme-fp19vh_letbane_station.19", "geometry": {"type": "MultiPoint", "coordinates": [[12.4854279, 55.7399517]]}, "geometry_name": "wkb_geometry", "properties": {"id": 19, "hovedstruk": "Reservationer til overordnede kollektive trafikanlæg", "navn_gen": "Letbane stationer", "navn_spec": null, "st_navn": "Gladsaxevej", "kode": "2", "kortbilag": "H i FP19", "dato_ret": 20190122.0}, "bbox": [718786.4854, 6182640.3022, 718786.4854, 6182640.3022]}, {"type": "Feature", "id": "theme-fp19vh_letbane_station.20", "geometry": {"type": "MultiPoint", "coordinates": [[12.4935153, 55.7430476]]}, "geometry_name": "wkb_geometry", "properties": {"id": 20, "hovedstruk": "Reservationer til overordnede kollektive trafikanlæg", "navn_gen": "Letbane stationer", "navn_spec": null, "st_navn": "Gladsaxe Rådhus", "kode": "2", "kortbilag": "H i FP19", "dato_ret": 20190122.0}, "bbox": [719276.546, 6183010.1895, 719276.546, 6183010.1895]}, {"type": "Feature", "id": "theme-fp19vh_letbane_station.21", "geometry": {"type": "MultiPoint", "coordinates": [[12.495083, 55.7474002]]}, "geometry_name": "wkb_geometry", "properties": {"id": 21, "hovedstruk": "Reservationer til overordnede kollektive trafikanlæg", "navn_gen": "Letbane stationer", "navn_spec": null, "st_navn": "Buddinge", "kode": "1", "kortbilag": "H i FP19", "dato_ret": 20190122.0}, "bbox": [719350.4606, 6183499.2414, 719350.4606, 6183499.2414]}, {"type": "Feature", "id": "theme-fp19vh_letbane_station.22", "geometry": {"type": "MultiPoint", "coordinates": [[12.4950553, 55.7563265]]}, "geometry_name": "wkb_geometry", "properties": {"id": 22, "hovedstruk": "Reservationer til overordnede kollektive trafikanlæg", "navn_gen": "Letbane stationer", "navn_spec": null, "st_navn": "Gammelmosevej", "kode": "2", "kortbilag": "H i FP19", "dato_ret": 20190122.0}, "bbox": [719298.5996, 6184491.9057, 719298.5996, 6184491.9057]}, {"type": "Feature", "id": "theme-fp19vh_letbane_station.23", "geometry": {"type": "MultiPoint", "coordinates": [[12.5015208, 55.7692144]]}, "geometry_name": "wkb_geometry", "properties": {"id": 23, "hovedstruk": "Reservationer til overordnede kollektive trafikanlæg", "navn_gen": "Letbane stationer", "navn_spec": null, "st_navn": "Lyngby", "kode": "1", "kortbilag": "H i FP19", "dato_ret": 20190122.0}, "bbox": [719631.5921, 6185945.7521, 719631.5921, 6185945.7521]}, {"type": "Feature", "id": "theme-fp19vh_letbane_station.24", "geometry": {"type": "MultiPoint", "coordinates": [[12.5055785, 55.7708947]]}, "geometry_name": "wkb_geometry", "properties": {"id": 24, "hovedstruk": "Reservationer til overordnede kollektive trafikanlæg", "navn_gen": "Letbane stationer", "navn_spec": null, "st_navn": "Lyngby Centrum", "kode": "2", "kortbilag": "H i FP19", "dato_ret": 20190122.0}, "bbox": [719876.5247, 6186145.5047, 719876.5247, 6186145.5047]}, {"type": "Feature", "id": "theme-fp19vh_letbane_station.25", "geometry": {"type": "MultiPoint", "coordinates": [[12.5214701, 55.7750559]]}, "geometry_name": "wkb_geometry", "properties": {"id": 25, "hovedstruk": "Reservationer til overordnede kollektive trafikanlæg", "navn_gen": "Letbane stationer", "navn_spec": null, "st_navn": "Fortunbyen", "kode": "2", "kortbilag": "H i FP19", "dato_ret": 20190122.0}, "bbox": [720849.2669, 6186658.8728, 720849.2669, 6186658.8728]}, {"type": "Feature", "id": "theme-fp19vh_letbane_station.26", "geometry": {"type": "MultiPoint", "coordinates": [[12.5194724, 55.7802181]]}, "geometry_name": "wkb_geometry", "properties": {"id": 26, "hovedstruk": "Reservationer til overordnede kollektive trafikanlæg", "navn_gen": "Letbane stationer", "navn_spec": null, "st_navn": "Akademivej DTU", "kode": "2", "kortbilag": "H i FP19", "dato_ret": 20190122.0}, "bbox": [720694.8458, 6187226.6228, 720694.8458, 6187226.6228]}, {"type": "Feature", "id": "theme-fp19vh_letbane_station.27", "geometry": {"type": "MultiPoint", "coordinates": [[12.5225763, 55.7855498]]}, "geometry_name": "wkb_geometry", "properties": {"id": 27, "hovedstruk": "Reservationer til overordnede kollektive trafikanlæg", "navn_gen": "Letbane stationer", "navn_spec": null, "st_navn": "Anker Engelunds Vej DTU", "kode": "2", "kortbilag": "H i FP19", "dato_ret": 20190122.0}, "bbox": [720859.2052, 6187829.4904, 720859.2052, 6187829.4904]}, {"type": "Feature", "id": "theme-fp19vh_letbane_station.28", "geometry": {"type": "MultiPoint", "coordinates": [[12.5282799, 55.7871705]]}, "geometry_name": "wkb_geometry", "properties": {"id": 28, "hovedstruk": "Reservationer til overordnede kollektive trafikanlæg", "navn_gen": "Letbane stationer", "navn_spec": null, "st_navn": "Rævehøjvej", "kode": "2", "kortbilag": "H i FP19", "dato_ret": 20190122.0}, "bbox": [721207.4549, 6188027.9509, 721207.4549, 6188027.9509]}, {"type": "Feature", "id": "theme-fp19vh_letbane_station.29", "geometry": {"type": "MultiPoint", "coordinates": [[12.530447, 55.7946079]]}, "geometry_name": "wkb_geometry", "properties": {"id": 29, "hovedstruk": "Reservationer til overordnede kollektive trafikanlæg", "navn_gen": "Letbane stationer", "navn_spec": null, "st_navn": "Lundtofte", "kode": "2", "kortbilag": "H i FP19", "dato_ret": 20190122.0}, "bbox": [721301.0535, 6188862.0297, 721301.0535, 6188862.0297]}], "totalFeatures": 29, "numberMatched": 29, "numberReturned": 29, "timeStamp": "2026-09-22T18:10:55.058Z", "crs": {"type": "name", "properties": {"name": "urn:ogc:def:crs:OGC:1.3:CRS84"}}, "bbox": [711539.0114, 6168189.6968, 721301.0535, 6188862.0297]}