{"type": "FeatureCollection", "features": [{"type": "Feature", "id": "theme-fp19vp_motorvejanlaeg_udv.1", "geometry": {"type": "MultiLineString", "coordinates": [[[12.4937901, 55.8595885], [12.493126, 55.860015], [12.4916454, 55.8609742], [12.4892431, 55.8621753], [12.4881385, 55.862872], [12.4865471, 55.8642029], [12.485009, 55.865775], [12.4839343, 55.8671632], [12.4832309, 55.8682351], [12.4828631, 55.8693064], [12.4825162, 55.871681], [12.4826772, 55.8732302], [12.4823238, 55.8750671]]]}, "geometry_name": "wkb_geometry", "properties": {"id": 1, "hovedstruk": "Overordnede vejanlæg", "navn_gen": "Reservation. Ny motorvej - motorvejsudvidelse", "navn_spec": "Overordnede vejanlæg", "kode": "3", "kortbilag": "P i FP19", "dato_ret": 20190122.0}, "bbox": [717835.33, 6195972.4499, 718639.27, 6197657.7699]}, {"type": "Feature", "id": "theme-fp19vp_motorvejanlaeg_udv.2", "geometry": {"type": "MultiLineString", "coordinates": [[[12.2476599, 55.9356645], [12.2460694, 55.9390508], [12.2444777, 55.9445319], [12.2442109, 55.9474698], [12.2447939, 55.9502235], [12.2460388, 55.9550877]], [[12.3256005, 55.852523], [12.3222246, 55.8572596], [12.3206051, 55.8594518], [12.3177928, 55.863298], [12.3145087, 55.8679089], [12.3128107, 55.8704991], [12.3114209, 55.8723321], [12.3097195, 55.8744816], [12.3080223, 55.8767192], [12.3052554, 55.8795927], [12.3030816, 55.8817494], [12.3014181, 55.8831021], [12.2993007, 55.8848155], [12.2977942, 55.8861658], [12.2961263, 55.8874299], [12.2928534, 55.8897356], [12.2917066, 55.8903289], [12.2878106, 55.892689], [12.2854547, 55.8939972], [12.2812906, 55.8961067], [12.2794133, 55.8971072], [12.2768811, 55.8985773], [12.2753899, 55.8994891], [12.274062, 55.9004415], [12.2728465, 55.9013999], [12.2718508, 55.9023074], [12.2709418, 55.9032936], [12.2699449, 55.9045698], [12.2690766, 55.9058514], [12.2684326, 55.9069475], [12.2669196, 55.9102691], [12.2649645, 55.9134767], [12.2636275, 55.9154722], [12.2608195, 55.9193944], [12.2569699, 55.9242703], [12.2520901, 55.9298566], [12.250475, 55.9317961], [12.2485618, 55.9341931], [12.2480892, 55.934862], [12.2476434, 55.9356559]], [[12.336891, 55.8440265], [12.3347757, 55.845073], [12.3325865, 55.846382], [12.3303512, 55.8478991], [12.3284043, 55.8494263], [12.3272194, 55.8505193], [12.3261315, 55.8518164], [12.3256485, 55.8525218], [12.3255924, 55.8526132]]]}, "geometry_name": "wkb_geometry", "properties": {"id": 2, "hovedstruk": "Overordnede vejanlæg", "navn_gen": "Reservation. Ny motorvej - motorvejsudvidelse", "navn_spec": "Overordnede vejanlæg", "kode": "12", "kortbilag": "P i FP19", "dato_ret": 20190122.0}, "bbox": [702568.35, 6193756.7799, 708908.35, 6205839.4399]}, {"type": "Feature", "id": "theme-fp19vp_motorvejanlaeg_udv.3", "geometry": {"type": "MultiLineString", "coordinates": [[[12.4565999, 55.7408465], [12.4552243, 55.7421231], [12.4523641, 55.7452876], [12.449684, 55.7485099], [12.4482983, 55.7503291], [12.4446439, 55.7558894], [12.4432108, 55.7578986], [12.4421572, 55.759151], [12.4407743, 55.7604666], [12.4396254, 55.7613619], [12.4354165, 55.7639073], [12.4266874, 55.7687458], [12.4242869, 55.7701075], [12.4226459, 55.7708544], [12.4189575, 55.7724498], [12.4149544, 55.77373], [12.4127123, 55.7743588], [12.409559, 55.7751477], [12.4076223, 55.7758038], [12.4054881, 55.7765733], [12.4015038, 55.7778976], [12.3995444, 55.7786621], [12.3993292, 55.7787718]]]}, "geometry_name": "wkb_geometry", "properties": {"id": 4, "hovedstruk": "Overordnede vejanlæg", "navn_gen": "Reservation. Ny motorvej - motorvejsudvidelse", "navn_spec": "Overordnede vejanlæg", "kode": "5", "kortbilag": "P i FP19", "dato_ret": 20190122.0}, "bbox": [713172.26, 6182649.1499, 716972.74, 6186689.3399]}, {"type": "Feature", "id": "theme-fp19vp_motorvejanlaeg_udv.4", "geometry": {"type": "MultiLineString", "coordinates": [[[12.1066003, 55.7952448], [12.1054849, 55.7967214], [12.1045702, 55.798139], [12.1037567, 55.7996731], [12.1030706, 55.8013719], [12.1026376, 55.8028265], [12.1024488, 55.8038408], [12.102366, 55.8043595], [12.102259, 55.8050761], [12.1021901, 55.805586], [12.1021681, 55.8059193], [12.1021535, 55.8063337], [12.1021494, 55.8067436], [12.1021596, 55.8069092], [12.1021696, 55.8072767], [12.1022257, 55.8080609], [12.1022854, 55.8085987], [12.102352, 55.8090435], [12.1025176, 55.8098905], [12.102718, 55.8107498], [12.1028638, 55.811323], [12.1029253, 55.81154], [12.10346, 55.8134394], [12.1035899, 55.8139216], [12.1037527, 55.8144942], [12.1040334, 55.8155218], [12.1042218, 55.8161815], [12.1050119, 55.8189846], [12.1050805, 55.8192646], [12.1052007, 55.819927], [12.1052564, 55.8202912], [12.1052966, 55.8207298], [12.1053226, 55.8214942], [12.1053098, 55.8219308], [12.1052819, 55.8223462], [12.1052019, 55.8230706], [12.1051555, 55.8233731], [12.1050464, 55.8239376], [12.1049321, 55.8244104], [12.1048629, 55.8248091], [12.1048132, 55.8250565], [12.1047416, 55.8253185], [12.1046487, 55.8257277], [12.1045763, 55.8261115], [12.1044412, 55.8266968], [12.1043906, 55.8269415], [12.1042774, 55.8274084], [12.1042129, 55.8276216], [12.1040816, 55.8281067], [12.1036858, 55.829366], [12.1030733, 55.8310851], [12.1028444, 55.8316798], [12.1026844, 55.832072], [12.1025035, 55.8324897], [12.10237, 55.8328121], [12.1020534, 55.833524], [12.1017909, 55.8340813], [12.1014605, 55.834811], [12.1012993, 55.8351228], [12.1011463, 55.8353742], [12.1011197, 55.8354432], [12.1007214, 55.8362024], [12.1004265, 55.8367504], [12.100261, 55.8370297], [12.1000965, 55.8373368], [12.0997072, 55.8380076], [12.0992513, 55.838756], [12.0990667, 55.8390405], [12.098957, 55.8392202], [12.0987991, 55.8394577], [12.0983724, 55.8401331], [12.0981852, 55.8403936], [12.0977071, 55.8411044], [12.0971735, 55.8418409], [12.0968274, 55.842325], [12.0959473, 55.8434767], [12.095489, 55.8440329], [12.0952802, 55.8442688], [12.0950543, 55.8445415], [12.0947051, 55.844949]], [[12.2906396, 55.718548], [12.2892072, 55.7185608], [12.2877754, 55.7185622], [12.2865027, 55.7185541], [12.284912, 55.7185318], [12.2836399, 55.7185037], [12.2822099, 55.718462], [12.2807809, 55.7184086], [12.2790366, 55.7183283], [12.2776111, 55.7182504], [12.2761872, 55.7181614], [12.2746077, 55.7180522], [12.2730303, 55.7179366], [12.2714527, 55.7178198], [12.2698746, 55.7177057], [12.2684522, 55.7176117], [12.266869, 55.7175214], [12.2652824, 55.7174519], [12.2640112, 55.7174157], [12.2625796, 55.7173973], [12.2611473, 55.7174036], [12.2595575, 55.7174386], [12.258288, 55.7174883], [12.2570208, 55.7175568], [12.255757, 55.7176446], [12.2544983, 55.7177513], [12.2529326, 55.717911], [12.2515321, 55.7180801], [12.2499883, 55.7182956], [12.2484565, 55.7185401], [12.2473939, 55.7187279], [12.2461892, 55.7189603], [12.2452937, 55.7191461], [12.2436679, 55.7195129], [12.2423566, 55.7198382], [12.2409214, 55.720225], [12.2393686, 55.7206817], [12.2377107, 55.721216], [12.2363589, 55.7216895], [12.235035, 55.7221884], [12.2339984, 55.7226052], [12.2329785, 55.7230357], [12.2319755, 55.7234776], [12.2308602, 55.7239853], [12.229635, 55.7245581], [12.228538, 55.725078], [12.227564, 55.7255407], [12.2264639, 55.7260585], [12.2253558, 55.7265703], [12.2242335, 55.7270731], [12.223094, 55.727563], [12.2223225, 55.7278806], [12.2212776, 55.7282908], [12.2202125, 55.7286848], [12.2187194, 55.7292005], [12.2174731, 55.7295991], [12.2160646, 55.7300171], [12.2146318, 55.7304084], [12.2128838, 55.7308423], [12.2114076, 55.7311775], [12.2097681, 55.7315254], [12.2078196, 55.7319175], [12.2063162, 55.7322129], [12.2042131, 55.7326288], [12.2019721, 55.7330945], [12.1997604, 55.7336007], [12.1971655, 55.7342864], [12.1957592, 55.7347073], [12.1945172, 55.7351102], [12.1931654, 55.735584], [12.1917136, 55.7361363], [12.1904277, 55.7366659], [12.1891769, 55.737221], [12.1878416, 55.7378606], [12.1867831, 55.7384053], [12.1859812, 55.7388423], [12.18509, 55.7393551], [12.1842238, 55.739882], [12.1832825, 55.7404915], [12.1822771, 55.741188], [12.181411, 55.741832], [12.1805822, 55.7424909], [12.179791, 55.7431652], [12.1792018, 55.7436988], [12.178403, 55.7444759], [12.1778728, 55.7450286], [12.1771579, 55.7458313], [12.1765549, 55.7465643], [12.175857, 55.7474705], [12.1753095, 55.7482178], [12.1748353, 55.7488844], [12.1744835, 55.7493857], [12.1740146, 55.7500538], [12.1733631, 55.750971], [12.1728148, 55.7517178], [12.1723108, 55.7523776], [12.1717853, 55.7530322], [12.1713047, 55.7535996], [12.1707276, 55.75424], [12.1701973, 55.7547932], [12.1695644, 55.7554166], [12.1689017, 55.7560304], [12.1682989, 55.7565592], [12.1674909, 55.757227], [12.1666483, 55.7578807], [12.1656718, 55.7585901], [12.1649633, 55.7590757], [12.1642345, 55.7595518], [12.1635949, 55.7599521], [12.1627195, 55.7604744], [12.161934, 55.7609206], [12.1611303, 55.7613564], [12.1604302, 55.7617231], [12.1594812, 55.7622029], [12.1585204, 55.7626747], [12.1575504, 55.7631409], [12.156453, 55.763661], [12.1553532, 55.7641799], [12.1543782, 55.7646424], [12.1534069, 55.7651077], [12.1525629, 55.7655187], [12.1517261, 55.7659343], [12.1508961, 55.7663543], [12.1501911, 55.7667179], [12.1493755, 55.7671466], [12.1479943, 55.7678923], [12.1469738, 55.7684599], [12.145855, 55.7690992], [12.1447531, 55.7697477], [12.1436662, 55.7704049], [12.1428097, 55.7709369], [12.1419635, 55.7714743], [12.1411235, 55.7720152], [12.1403935, 55.7724903], [12.1394569, 55.7731021], [12.1387275, 55.7735779], [12.137889, 55.7741191], [12.1369368, 55.7747236], [12.136078, 55.7752547], [12.1350982, 55.7758447], [12.1339896, 55.7764904], [12.1333158, 55.7768726], [12.1325209, 55.7773138], [12.1316021, 55.7778115], [12.1306722, 55.7783033], [12.1296167, 55.7788511], [12.1289105, 55.7792141], [12.1276138, 55.7798793], [12.1265567, 55.7804253], [12.1256228, 55.7809145], [12.1246983, 55.7814093], [12.1237854, 55.781911], [12.1227723, 55.7824833], [12.1217749, 55.783064], [12.1209006, 55.7835874], [12.1198262, 55.7842507], [12.1190862, 55.7847209], [12.118252, 55.7852642], [12.1175321, 55.7857448], [12.1168226, 55.78623], [12.1160237, 55.7867905], [12.115336, 55.7872852], [12.1144669, 55.7879284], [12.1138027, 55.7884336], [12.1130567, 55.7890163], [12.1124151, 55.7895306], [12.1117837, 55.7900493], [12.111164, 55.790572], [12.1105551, 55.7910987], [12.1098716, 55.7917057], [12.1092034, 55.7923174], [12.1085494, 55.7929347], [12.1079991, 55.7934814], [12.1074717, 55.7940352], [12.1070374, 55.7945158], [12.1066, 55.7952449]]]}, "geometry_name": "wkb_geometry", "properties": {"id": 3, "hovedstruk": "Overordnede vejanlæg", "navn_gen": "Reservation. Ny motorvej - motorvejsudvidelse", "navn_spec": "Overordnede vejanlæg", "kode": "2", "kortbilag": "P i FP19", "dato_ret": 20190122.0}, "bbox": [693747.21, 6179445.9899, 706677.47, 6193154.7099]}, {"type": "Feature", "id": "theme-fp19vp_motorvejanlaeg_udv.5", "geometry": {"type": "MultiLineString", "coordinates": [[[12.4299153, 55.6299608], [12.4317147, 55.6291541], [12.4339384, 55.6281109], [12.4353339, 55.6272547], [12.4366188, 55.6263791], [12.437656, 55.6256188], [12.4389729, 55.6246035], [12.4405018, 55.6232246], [12.4415163, 55.6219378], [12.442601, 55.6206907], [12.4435399, 55.6196213], [12.4446777, 55.6186453], [12.445801, 55.6178674], [12.4471247, 55.6172008], [12.4489682, 55.6164835], [12.4507347, 55.6159752], [12.4528236, 55.6155208], [12.4543442, 55.6152891], [12.4565732, 55.6151633], [12.4583694, 55.6151755], [12.4613275, 55.6153888], [12.4650825, 55.615813], [12.4682313, 55.6162095], [12.470118, 55.616345], [12.473569, 55.6163821], [12.4771784, 55.6162347], [12.4881714, 55.6155087], [12.4982268, 55.6147815], [12.5044686, 55.6144053], [12.5124993, 55.6139595], [12.5148675, 55.6139725], [12.5169461, 55.6141196], [12.5185555, 55.6143522], [12.5204522, 55.6147742], [12.5216945, 55.6151612], [12.5224183, 55.6154372], [12.5225022, 55.6154887], [12.5238937, 55.616123], [12.5252938, 55.6167992], [12.5266743, 55.6177481], [12.5283204, 55.6192673], [12.5291571, 55.6202698], [12.530179, 55.6217998], [12.5316816, 55.6235426], [12.5340135, 55.6259336]]]}, "geometry_name": "wkb_geometry", "properties": {"id": 5, "hovedstruk": "Overordnede vejanlæg", "navn_gen": "Igangsat undersøgelse af motorvejsudvidelse", "navn_spec": "Overordnede vejanlæg", "kode": "25", "kortbilag": "P i FP19", "dato_ret": 20190122.0}, "bbox": [715908.98, 6168670.8699, 722481.69, 6170233.2999]}], "totalFeatures": 5, "numberMatched": 5, "numberReturned": 5, "timeStamp": "2026-09-22T18:10:55.876Z", "crs": {"type": "name", "properties": {"name": "urn:ogc:def:crs:OGC:1.3:CRS84"}}, "bbox": [693747.21, 6168670.8699, 722481.69, 6205839.4399]}