{"type": "FeatureCollection", "features": [{"type": "Feature", "id": "theme-fp19vo_regionaltog_dobbeltspor.1", "geometry": {"type": "MultiLineString", "coordinates": [[[11.9715752, 55.604471], [11.9696418, 55.6041331], [11.9644226, 55.6033605], [11.9612837, 55.6027981], [11.958779, 55.6022203], [11.9570734, 55.6017131], [11.955878, 55.6012295], [11.9534853, 55.6000286], [11.9516563, 55.5993535], [11.9503412, 55.5987559], [11.9482627, 55.5981407], [11.9450442, 55.597355], [11.9345282, 55.5951532], [11.9301014, 55.5941263], [11.9279464, 55.5935396], [11.9268077, 55.5931712], [11.9254258, 55.592521], [11.9236709, 55.5919786], [11.9170928, 55.5904003], [11.9151937, 55.59005], [11.9127777, 55.5897928], [11.8999471, 55.5890813], [11.8948201, 55.5886541], [11.8932278, 55.5885839], [11.8913283, 55.5886557], [11.8887435, 55.5889054], [11.8867659, 55.5892128], [11.883112, 55.590036], [11.8759785, 55.5919026], [11.8699855, 55.5935266], [11.8660877, 55.5944986], [11.8644723, 55.5947701], [11.8530271, 55.5956575], [11.8510996, 55.5955674], [11.8484105, 55.5952614], [11.8463849, 55.5949129], [11.8454151, 55.5946747], [11.8413296, 55.5930616], [11.8403528, 55.5927246], [11.8390991, 55.5925109], [11.8373588, 55.5923715], [11.8356986, 55.5920233], [11.8341649, 55.591888], [11.83186, 55.5918424], [11.8296907, 55.5919195], [11.8276416, 55.5921196], [11.8258396, 55.5924489], [11.8210286, 55.5935395]]]}, "geometry_name": "wkb_geometry", "properties": {"id": 1, "hovedstruk": "Kollektive trafikanlæg", "navn_gen": "Eksisterende regionaltog (dobbeltspor)", "navn_spec": "Kollektive trafikanlæg", "kode": "REG-T", "kortbilag": "O i FP19", "dato_ret": 20190122.0}, "bbox": [677757.51, 6164090.8199, 687188.61, 6166066.6199]}], "totalFeatures": 1, "numberMatched": 1, "numberReturned": 1, "timeStamp": "2026-09-22T18:10:55.171Z", "crs": {"type": "name", "properties": {"name": "urn:ogc:def:crs:OGC:1.3:CRS84"}}, "bbox": [677757.51, 6164090.8199, 687188.61, 6166066.6199]}