{"type": "FeatureCollection", "features": [{"type": "Feature", "id": "theme-fp19vp_igangvaerende_undersoeg.1", "geometry": {"type": "MultiLineString", "coordinates": [[[12.5385218, 56.0086922], [12.5428064, 56.0090396], [12.5471676, 56.008995], [12.5513978, 56.008821], [12.5565599, 56.0077676], [12.5606684, 56.006012], [12.5648377, 56.0045142], [12.5704152, 56.0032008], [12.5752035, 56.0024762], [12.5808228, 56.0018585], [12.5876503, 56.0013165], [12.5950587, 56.0007838], [12.6027347, 56.0004265], [12.6101703, 55.9999817], [12.6172107, 55.9998763], [12.6260185, 55.9998279], [12.635498, 56.0002598], [12.6422318, 56.0008992], [12.6498316, 56.0015942], [12.6613979, 56.002828], [12.6694692, 56.00412], [12.6870464, 56.0071758], [12.7177905, 56.0128865], [12.7255829, 56.0132919]]]}, "geometry_name": "wkb_geometry", "properties": {"id": 1, "hovedstruk": "Overordnede vejanlæg", "navn_gen": "Igangværende undersøgelse", "navn_spec": "Helsingør og Helsingborg (HH-forbindelse)", "kode": "IU", "kortbilag": "P i FP19", "dato_ret": 20190122.0}, "bbox": [720587.7692, 6211960.0839, 732215.3289, 6213822.538]}, {"type": "Feature", "id": "theme-fp19vp_igangvaerende_undersoeg.2", "geometry": {"type": "MultiLineString", "coordinates": [[[12.5996101, 55.7168377], [12.6080923, 55.7148913], [12.6144636, 55.713452], [12.6176475, 55.7123688], [12.6215947, 55.7090324], [12.624979, 55.7055554], [12.6276996, 55.7021931], [12.6282287, 55.6951857], [12.6277225, 55.6906346], [12.6253917, 55.6854716], [12.6203084, 55.6810319], [12.6125998, 55.6741248], [12.6049501, 55.6682857], [12.5561313, 55.6385107], [12.5536626, 55.6372505]]]}, "geometry_name": "wkb_geometry", "properties": {"id": 2, "hovedstruk": "Overordnede vejanlæg", "navn_gen": "Igangværende undersøgelse", "navn_spec": "Østlig Ringvej", "kode": "IU", "kortbilag": "P i FP19", "dato_ret": 20190322.0}, "bbox": [723653.5981, 6171436.1743, 728006.8777, 6180436.302]}, {"type": "Feature", "id": "theme-fp19vp_igangvaerende_undersoeg.3", "geometry": {"type": "MultiLineString", "coordinates": [[[12.617556, 55.678566], [12.6552771, 55.6326921]]]}, "geometry_name": "wkb_geometry", "properties": {"id": 3, "hovedstruk": "Overordnede vejanlæg", "navn_gen": "Igangværende undersøgelse", "navn_spec": "Østlig Ringvej", "kode": "IU", "kortbilag": "P i FP19", "dato_ret": 20190322.0}, "bbox": [727433.0181, 6171261.62, 730072.4374, 6176238.782]}], "totalFeatures": 3, "numberMatched": 3, "numberReturned": 3, "timeStamp": "2026-09-22T18:10:55.994Z", "crs": {"type": "name", "properties": {"name": "urn:ogc:def:crs:OGC:1.3:CRS84"}}, "bbox": [720587.7692, 6171261.62, 732215.3289, 6213822.538]}