{"type": "FeatureCollection", "features": [{"type": "Feature", "id": "theme-fp19vo_kbh_ringsted_centerl.1", "geometry": {"type": "MultiLineString", "coordinates": [[[12.5069526, 55.6566658], [12.5066831, 55.6567687], [12.5063771, 55.656883], [12.5060939, 55.6569878], [12.5058104, 55.6570925], [12.5055014, 55.6572012], [12.5054581, 55.657217], [12.505288, 55.6572759], [12.5046947, 55.6574775], [12.5040616, 55.6576712], [12.5036064, 55.6577955], [12.5028051, 55.6579883], [12.5022323, 55.6581014], [12.5018749, 55.6581599], [12.5011595, 55.6582565], [12.5006654, 55.6583087], [12.5002718, 55.658339], [12.4998488, 55.6583613], [12.4994435, 55.6583773], [12.4990396, 55.65838], [12.4987339, 55.6583799], [12.4982299, 55.6583636], [12.4976594, 55.6583286], [12.4973104, 55.6583078], [12.4966329, 55.6582348], [12.4959763, 55.6581335], [12.4953495, 55.658021], [12.4949398, 55.6579287], [12.4941472, 55.6577258], [12.4935743, 55.6575487], [12.4931516, 55.6573983], [12.4928195, 55.6572744], [12.4925533, 55.6571663], [12.492307, 55.6570565], [12.4920972, 55.6569611], [12.4917825, 55.6568031], [12.4907763, 55.6562679], [12.4900439, 55.6558342], [12.4895349, 55.6555293], [12.4893494, 55.6554211], [12.4890101, 55.6552291], [12.4885302, 55.6549661], [12.4879103, 55.6546564], [12.4875971, 55.6545007], [12.4871119, 55.6542879], [12.4865308, 55.6540445], [12.4859535, 55.6538259], [12.4853512, 55.653622], [12.4849524, 55.6534973], [12.4846098, 55.6533979], [12.4843641, 55.6533298], [12.4839831, 55.6532308], [12.4836637, 55.6531529], [12.4832982, 55.6531005], [12.4826249, 55.6529569], [12.4822165, 55.65288], [12.4814797, 55.6527449], [12.4809054, 55.652666], [12.480369, 55.6526065], [12.479728, 55.6525353], [12.4792287, 55.6524855], [12.4791496, 55.6524774], [12.4767807, 55.652247], [12.4762415, 55.6521946], [12.4758504, 55.6521565], [12.4754601, 55.6521161], [12.4732216, 55.6518439], [12.4724245, 55.651726], [12.4719412, 55.6516504], [12.4713908, 55.6515593], [12.4707079, 55.651441], [12.4697991, 55.6512793], [12.4681325, 55.6509802], [12.4666204, 55.6507083], [12.4663176, 55.650654], [12.4657122, 55.6505452], [12.4654091, 55.6504914], [12.4639359, 55.6502372], [12.4631749, 55.6501088], [12.4624133, 55.6499821], [12.4618047, 55.6498793], [12.4610793, 55.6497553], [12.4605476, 55.6496614], [12.4599353, 55.649554], [12.45933, 55.6494451], [12.4588764, 55.6493628], [12.4579311, 55.6491916], [12.457136, 55.6490495], [12.4566054, 55.6489565], [12.4548285, 55.6486646], [12.4530811, 55.6484045], [12.4513462, 55.6481737], [12.4510504, 55.6481367], [12.450773, 55.6481048], [12.4503307, 55.6480514], [12.4497445, 55.647983], [12.4489963, 55.6478971], [12.4487657, 55.6478685], [12.4483995, 55.647826], [12.4479072, 55.6477666], [12.4471402, 55.6476709], [12.4459331, 55.647512], [12.4457306, 55.6474841], [12.4453924, 55.6474348], [12.4448481, 55.6473508], [12.4444085, 55.6472794], [12.443923, 55.6471947], [12.4435121, 55.6471169], [12.4430721, 55.6470311], [12.4426289, 55.6469381], [12.4421353, 55.6468319], [12.441805, 55.6467531], [12.4415209, 55.6466852], [12.4410899, 55.6465771], [12.4407108, 55.646478], [12.4403984, 55.6463916], [12.4398465, 55.6462339], [12.4393023, 55.6460693], [12.4387647, 55.6458968], [12.43803, 55.6456466], [12.4377118, 55.6455302], [12.4374547, 55.645434], [12.4369471, 55.6452382], [12.436446, 55.6450343], [12.4361962, 55.6449283], [12.4357074, 55.6447141], [12.435202, 55.6444817], [12.4349962, 55.644383], [12.4348405, 55.6443083], [12.4346436, 55.6442096], [12.4343291, 55.6440487], [12.4338331, 55.6437959], [12.4334236, 55.6435848], [12.433063, 55.6434015], [12.4328221, 55.6432809], [12.4325627, 55.6431515], [12.4322578, 55.6429976], [12.432208, 55.6429727], [12.4312097, 55.6424908], [12.4311705, 55.642472], [12.4309031, 55.6423607], [12.4292536, 55.6416697], [12.4272136, 55.6409694], [12.4250657, 55.6403775], [12.4228335, 55.6399007], [12.4205332, 55.6395418], [12.4181843, 55.6393042], [12.41581, 55.6391898], [12.4134226, 55.6391992], [12.4130143, 55.6392132], [12.4126067, 55.63923], [12.4119963, 55.6392607], [12.4111836, 55.6393072], [12.4105746, 55.6393444], [12.4068368, 55.6395737], [12.4059991, 55.6396259], [12.4051614, 55.6396793], [12.4046035, 55.6397173], [12.4037671, 55.6397784], [12.4032103, 55.6398227], [12.4022896, 55.6399035], [12.4013358, 55.6399994], [12.4001819, 55.6401282], [12.3993582, 55.6402298], [12.3988103, 55.6403006], [12.3982633, 55.6403734], [12.3971707, 55.6405226], [12.3963077, 55.6406415], [12.3957172, 55.6407214], [12.3951265, 55.6408008], [12.394831, 55.6408398], [12.3945336, 55.6408783], [12.3880714, 55.6415519], [12.3815326, 55.6419204], [12.3779051, 55.6419552], [12.37501, 55.6419822], [12.3744083, 55.6419723], [12.3740038, 55.6419659], [12.3732975, 55.6419506], [12.3727422, 55.6419384], [12.3661278, 55.6417915], [12.365847, 55.6417852], [12.364939, 55.641764], [12.3636025, 55.6417267], [12.3630421, 55.6417075], [12.3624808, 55.6416841], [12.3585061, 55.6414137], [12.3545806, 55.6409546], [12.3507425, 55.6403111], [12.3478384, 55.639671], [12.3469939, 55.6394831], [12.3439971, 55.6386495], [12.3433977, 55.6384843], [12.3399797, 55.6373204], [12.3393355, 55.6370574], [12.3367317, 55.6359946], [12.3357049, 55.6354969], [12.3339684, 55.6346523], [12.3336821, 55.6345136], [12.3311263, 55.633044], [12.3308703, 55.6328942], [12.3283269, 55.6311617], [12.3260363, 55.6293033], [12.3256147, 55.6289223], [12.3254775, 55.6287944], [12.3253406, 55.6286664], [12.325069, 55.6284096], [12.3248018, 55.6281514], [12.3245103, 55.627862], [12.3242196, 55.627577], [12.3237613, 55.6271092], [12.3236332, 55.6269783], [12.3226658, 55.6259789], [12.3215763, 55.6248515], [12.3201862, 55.6234115], [12.3190998, 55.6222859], [12.3188525, 55.6220288], [12.3187281, 55.6219002], [12.3183543, 55.6215153], [12.3179776, 55.6211311], [12.3178331, 55.6209871], [12.3176913, 55.6208415], [12.3174682, 55.6206209], [12.3173392, 55.6204939], [12.3170783, 55.6202408], [12.3168156, 55.6199884], [12.3166817, 55.619863], [12.3164122, 55.6196128], [12.3161384, 55.619364], [12.3140385, 55.6176409], [12.3139133, 55.6175374], [12.3133968, 55.6171809], [12.311602, 55.6159377], [12.3114482, 55.615832], [12.3101468, 55.6150661], [12.3087856, 55.6142681], [12.3085554, 55.6141429], [12.3081497, 55.6139281], [12.3079462, 55.6138211], [12.3077408, 55.6137151], [12.3075358, 55.6136089], [12.3073295, 55.6135039], [12.3069162, 55.6132936], [12.3067096, 55.6131886], [12.3062751, 55.6129695], [12.3046562, 55.612152], [12.30357, 55.6116043], [12.3023732, 55.6110011], [12.3005063, 55.6100584], [12.2971451, 55.6083622], [12.2951161, 55.6073359], [12.2921015, 55.6058164], [12.2902017, 55.6048572], [12.2899944, 55.6047525], [12.289581, 55.6045429], [12.2891677, 55.604333], [12.2885866, 55.6040333], [12.2880156, 55.6037337], [12.2877428, 55.6035862], [12.2859869, 55.6025844], [12.2843262, 55.6015306], [12.2839578, 55.601271], [12.2827369, 55.6004076], [12.2825413, 55.6002619], [12.2820748, 55.5999033], [12.2817503, 55.5996487], [12.2811493, 55.5991731], [12.2809468, 55.599008], [12.280786, 55.5988797], [12.2790282, 55.597468], [12.2778112, 55.5964901], [12.2763417, 55.5953081], [12.2749811, 55.5942182], [12.272956, 55.5925886], [12.2726355, 55.592332], [12.2723153, 55.592075], [12.2721536, 55.5919474], [12.2718304, 55.5916917], [12.2715035, 55.5914374], [12.2713379, 55.5913112], [12.2711718, 55.5911851], [12.2703409, 55.5905754], [12.2696409, 55.590089], [12.2689569, 55.5896341], [12.2685901, 55.5893978], [12.2682303, 55.5891718], [12.2680313, 55.5890478], [12.2678437, 55.5889319], [12.2676557, 55.5888164], [12.267278, 55.5885858], [12.2668994, 55.5883561], [12.2666156, 55.5881835], [12.266446, 55.5880815], [12.2663313, 55.5880113], [12.2657516, 55.5876608], [12.2650988, 55.5872595], [12.2644598, 55.5868648], [12.2642707, 55.5867499], [12.2641357, 55.5866669], [12.2638438, 55.5864843], [12.2634185, 55.5862179], [12.2629953, 55.5859504], [12.2625767, 55.5856809], [12.2623691, 55.5855448], [12.2616251, 55.5850496], [12.2610326, 55.5846378], [12.2607691, 55.5844544], [12.2600231, 55.5839128], [12.2598358, 55.5837736], [12.2594642, 55.5834937], [12.2590973, 55.583212], [12.2589226, 55.5830787], [12.2587597, 55.5829512], [12.258371, 55.5826453], [12.2580123, 55.5823602], [12.2578333, 55.5822175], [12.2574758, 55.5819316], [12.2571194, 55.5816466], [12.2567032, 55.5813121], [12.2564952, 55.5811455], [12.2562986, 55.5809913], [12.2560767, 55.5808131], [12.2558669, 55.580647], [12.2554452, 55.5803158], [12.2552336, 55.5801506], [12.2550351, 55.5799998], [12.2547922, 55.5798129], [12.2534837, 55.5788437], [12.2521148, 55.5778865], [12.2508568, 55.5770545], [12.2504613, 55.5767979], [12.2499806, 55.5764936], [12.2497389, 55.5763421], [12.2492525, 55.5760407], [12.2490244, 55.5759021], [12.2487651, 55.57574], [12.2485201, 55.5755903], [12.2482756, 55.5754404], [12.2480313, 55.5752903], [12.2457326, 55.573885], [12.244641, 55.5732169], [12.2445296, 55.573151], [12.2441398, 55.5729079], [12.2438511, 55.5727322], [12.243607, 55.572582], [12.2433642, 55.5724314], [12.2431204, 55.5722811], [12.2428786, 55.5721298], [12.2426365, 55.5719788], [12.2423963, 55.5718267], [12.2421567, 55.5716744], [12.2419052, 55.5715115], [12.2412007, 55.5710533], [12.2404939, 55.5705795], [12.2397994, 55.5701], [12.2395517, 55.5699249], [12.2393039, 55.5697499], [12.2390586, 55.5695736], [12.2388137, 55.5693972], [12.2385689, 55.5692207], [12.2383252, 55.5690437], [12.2380818, 55.5688665], [12.2378389, 55.5686892], [12.23526, 55.5668068], [12.2350974, 55.5666888], [12.2348133, 55.5664802], [12.234613, 55.5663335], [12.2344512, 55.5662153], [12.2341301, 55.5659777], [12.2339703, 55.5658585], [12.2338111, 55.5657392], [12.2334959, 55.5654992], [12.2330284, 55.5651369], [12.2328978, 55.5650364], [12.2309182, 55.5633266], [12.2291922, 55.5615614], [12.2279302, 55.5600025], [12.2276888, 55.5597056], [12.2275036, 55.5594492], [12.2273383, 55.5592159], [12.2272117, 55.5590319], [12.2271167, 55.5588923], [12.227023, 55.5587523], [12.2268359, 55.5584726], [12.2267444, 55.5583322], [12.2266525, 55.5581919], [12.2264696, 55.557911], [12.2262868, 55.5576302], [12.22619, 55.5574795], [12.2260917, 55.5573292], [12.2257979, 55.5568777], [12.2256988, 55.5567274], [12.2255993, 55.5565772], [12.2253975, 55.5562774], [12.2250879, 55.5558292], [12.2249825, 55.5556802], [12.2248539, 55.5555019], [12.2234366, 55.5537212], [12.2218036, 55.5519845], [12.2217409, 55.5519275], [12.2204406, 55.5507421], [12.2197764, 55.550149], [12.2194564, 55.5498841], [12.2191334, 55.5496208], [12.2188065, 55.5493587], [12.217979, 55.5487083], [12.2176473, 55.5484482], [12.2155395, 55.5468045], [12.2146037, 55.5460796], [12.2139699, 55.5456003], [12.2133764, 55.5451663], [12.2119788, 55.5442074], [12.2105647, 55.5433227], [12.2090821, 55.5424746], [12.2087002, 55.5422678], [12.2081209, 55.5419612], [12.2073404, 55.5415575], [12.2069474, 55.5413576], [12.206158, 55.5409599], [12.2055668, 55.5406611], [12.2051734, 55.5404616], [12.2047806, 55.5402617], [12.2043909, 55.5400599], [12.2041967, 55.5399586], [12.2036175, 55.5396527], [12.2032359, 55.5394453], [12.2023088, 55.5389239], [12.2014084, 55.5383873], [12.2005704, 55.5378573], [12.2004585, 55.5377844], [12.2000109, 55.5374915], [12.1995977, 55.5372135], [12.1991352, 55.536891], [12.1988349, 55.53667], [12.1984357, 55.5363817], [12.1979546, 55.5360153], [12.1976071, 55.5357426], [12.197062, 55.5353007], [12.1964582, 55.5347888], [12.1961757, 55.5345389], [12.1958302, 55.5342275], [12.1954398, 55.5338588], [12.1951032, 55.5335344], [12.1947219, 55.5331554], [12.1943421, 55.5327621], [12.1941952, 55.5325987], [12.1939185, 55.5322954], [12.1936407, 55.5319797], [12.1928837, 55.5310699], [12.1926311, 55.530752], [12.1923123, 55.5303327], [12.1915811, 55.5293379], [12.1911639, 55.5287625], [12.1904626, 55.5277612], [12.1897375, 55.5267449], [12.1895608, 55.5264921], [12.1889206, 55.5255921], [12.1883829, 55.5248354], [12.1876747, 55.5238386], [12.187023, 55.522919], [12.186372, 55.5220064], [12.1858372, 55.5212525], [12.1850688, 55.5201672], [12.1843609, 55.5191732], [12.18353, 55.5179979], [12.1831232, 55.5174252], [12.1825258, 55.5165812], [12.1820029, 55.515847], [12.1816391, 55.5153373], [12.1812865, 55.5148404], [12.1810305, 55.5144737], [12.1804646, 55.5136835], [12.1800439, 55.5130909], [12.1795664, 55.5124176], [12.1790102, 55.5116264], [12.1788098, 55.51135], [12.1782723, 55.5105888], [12.1779171, 55.5100904], [12.1774337, 55.509408], [12.1772089, 55.5090893], [12.1767674, 55.5084257], [12.1764475, 55.5079264], [12.1760413, 55.507232], [12.1757611, 55.5067245], [12.1755338, 55.5062814], [12.1752857, 55.5057659], [12.1749794, 55.5050904], [12.1748122, 55.5047058], [12.1744475, 55.5038674], [12.1739611, 55.5027702], [12.1734393, 55.501577], [12.1729791, 55.5005236], [12.1725653, 55.4995763], [12.1720775, 55.4984607], [12.1719234, 55.4981101], [12.1716027, 55.4973792], [12.1714295, 55.4969804], [12.1712625, 55.4965957], [12.1710435, 55.4960967], [12.1707351, 55.4953925], [12.1704585, 55.4947734], [12.1703134, 55.494441], [12.1700707, 55.4939284], [12.169849, 55.4934894], [12.1696692, 55.493163], [12.16941, 55.4927286], [12.1691463, 55.4923143], [12.1688303, 55.49186], [12.1686495, 55.4916159], [12.1684455, 55.4913501], [12.1679321, 55.490728], [12.1675975, 55.4903556], [12.1674282, 55.4901755], [12.1671314, 55.4898672], [12.1668222, 55.4895606], [12.1665702, 55.4893233], [12.1662374, 55.4890195], [12.1658824, 55.4887084], [12.1655209, 55.488406], [12.1649562, 55.4879603], [12.1645183, 55.4876328], [12.1642484, 55.4874389], [12.163767, 55.4871038], [12.1635767, 55.486978], [12.1631901, 55.4867248], [12.162713, 55.4864276], [12.1622118, 55.4861288], [12.1617353, 55.4858552], [12.1612192, 55.4855725], [12.1606713, 55.4852879], [12.1601585, 55.4850316], [12.159801, 55.4848586], [12.1592844, 55.4846188], [12.1589295, 55.4844607], [12.1586097, 55.4843209], [12.158237, 55.4841625], [12.1577191, 55.4839521], [12.1569851, 55.4836674], [12.1565712, 55.4835149], [12.1561665, 55.4833681], [12.1558261, 55.4832503], [12.1552428, 55.4830566], [12.1546951, 55.4828827], [12.1545479, 55.4828366], [12.1543957, 55.4827904], [12.1541145, 55.4827061], [12.1536596, 55.4825748], [12.1532758, 55.482466], [12.1526995, 55.482313], [12.1523846, 55.4822317], [12.1516654, 55.4820557], [12.1512192, 55.4819514], [12.1504927, 55.4817928], [12.1495319, 55.4816002], [12.1490452, 55.4815113], [12.1484706, 55.4814103], [12.1477183, 55.4812902], [12.147266, 55.4812225], [12.1467377, 55.4811489], [12.1459517, 55.4810496], [12.1448926, 55.4809338], [12.144403, 55.4808879], [12.1436947, 55.4808296], [12.1429906, 55.4807791], [12.1424267, 55.4807464], [12.1419577, 55.4807233], [12.1414969, 55.4807044], [12.1410109, 55.4806883], [12.1402176, 55.4806686], [12.1398368, 55.4806619], [12.1384241, 55.4806418], [12.1368299, 55.4806206], [12.1361961, 55.4806125], [12.1350078, 55.4805971], [12.1342114, 55.4805868], [12.1327861, 55.4805683], [12.1316054, 55.4805527], [12.1297303, 55.4805285], [12.1286956, 55.4805149], [12.1283064, 55.4805099], [12.1269504, 55.4804923], [12.1247186, 55.4804629], [12.1228397, 55.480438], [12.1207757, 55.4804113], [12.1191287, 55.4803897], [12.1173808, 55.4803662], [12.1167582, 55.4803586], [12.116195, 55.4803507], [12.1148457, 55.4803364], [12.1138928, 55.4803208], [12.1130258, 55.4803092], [12.1120831, 55.4802961], [12.1111328, 55.4802794], [12.1102738, 55.4802591], [12.109629, 55.4802391], [12.1092427, 55.4802245], [12.108682, 55.4802008], [12.1079061, 55.4801634], [12.1069511, 55.4801068], [12.1063247, 55.4800642], [12.1056131, 55.4800115], [12.1049111, 55.4799528], [12.1044521, 55.4799116], [12.1037405, 55.4798431], [12.1028711, 55.4797515], [12.1022791, 55.4796843], [12.1013539, 55.4795704], [12.1005079, 55.4794596], [12.0993708, 55.4792941], [12.0989095, 55.4792213], [12.0982875, 55.479122], [12.0976574, 55.4790157], [12.0969272, 55.478887], [12.0962464, 55.4787605], [12.0956442, 55.4786441], [12.095428, 55.4785996], [12.0951403, 55.4785419], [12.0948243, 55.478477], [12.0946284, 55.4784354], [12.0940792, 55.4783177], [12.0932103, 55.4781224], [12.092364, 55.4779215], [12.091907, 55.47781], [12.091455, 55.4776957], [12.0908101, 55.4775289], [12.0903099, 55.477395], [12.0893138, 55.477117], [12.0883707, 55.4768392], [12.0876679, 55.4766238], [12.0871076, 55.4764458], [12.0861438, 55.4761283], [12.0853508, 55.4758537], [12.0846596, 55.4756067], [12.0844081, 55.4755143], [12.08387, 55.4753142], [12.0835818, 55.4752035], [12.0832279, 55.4750694], [12.0828708, 55.4749305], [12.0824258, 55.4747586], [12.0820492, 55.4746108], [12.0817339, 55.4744888], [12.0814144, 55.4743637], [12.0811157, 55.4742462], [12.0805994, 55.4740469], [12.0799854, 55.4738071], [12.0791602, 55.4734897], [12.0784949, 55.4732391], [12.0779817, 55.4730504], [12.0774458, 55.4728588], [12.076914, 55.4726727], [12.0765907, 55.4725621], [12.0762315, 55.4724425], [12.0759432, 55.4723461], [12.0755327, 55.4722134], [12.0752888, 55.4721359], [12.0751236, 55.4720835], [12.0748979, 55.4720128], [12.0744285, 55.4718687], [12.0736967, 55.471652], [12.0730353, 55.4714626], [12.072585, 55.4713367], [12.0720064, 55.4711804], [12.0716004, 55.471074], [12.0709378, 55.470904], [12.0698754, 55.4706419], [12.0693983, 55.4705259], [12.0689762, 55.4704243], [12.0686082, 55.4703363], [12.0683799, 55.4702812], [12.0678104, 55.4701439], [12.0672399, 55.4700075], [12.0666486, 55.4698649], [12.0656446, 55.4696242], [12.0651853, 55.4695135], [12.064761, 55.4694119], [12.0642943, 55.4692991], [12.0636516, 55.4691451], [12.0626529, 55.468907], [12.0620555, 55.4687661], [12.0609473, 55.4685108], [12.0603786, 55.4683828], [12.0593454, 55.4681569], [12.0589115, 55.4680634], [12.0583142, 55.4679375], [12.0574459, 55.467759], [12.0565856, 55.4675869], [12.0563645, 55.467543], [12.0557768, 55.4674291], [12.0545778, 55.4672038], [12.0530744, 55.4669331], [12.0518336, 55.4667204], [12.0507872, 55.4665499], [12.0501874, 55.4664548], [12.0498586, 55.4664037], [12.0494129, 55.4663354], [12.0489458, 55.466264], [12.0472673, 55.4660228], [12.0463389, 55.4658965], [12.0458534, 55.4658321], [12.0449575, 55.4657179], [12.0443184, 55.4656388], [12.0427732, 55.4654584], [12.0415458, 55.4653231], [12.0390656, 55.4650609], [12.0373644, 55.4648815], [12.0358002, 55.4647159], [12.034548, 55.4645833], [12.0334597, 55.4644687], [12.032134, 55.4643285], [12.0307462, 55.4641814], [12.0303604, 55.4641409], [12.0283478, 55.4639191], [12.0277358, 55.4638464], [12.0267944, 55.4637302], [12.0262481, 55.4636586], [12.025564, 55.4635677], [12.0247093, 55.4634479], [12.0235778, 55.46328], [12.0223528, 55.463088], [12.0212786, 55.4629129], [12.0208147, 55.4628364], [12.0202975, 55.4627521], [12.0197724, 55.4626649], [12.0185555, 55.462464], [12.0165867, 55.4621394], [12.016147, 55.4620659], [12.0147099, 55.4618319], [12.0142791, 55.4617581], [12.0138433, 55.4616866], [12.0132508, 55.4615883], [12.0128646, 55.4615249], [12.0122977, 55.4614338], [12.0108577, 55.4611925], [12.0103622, 55.4611125], [12.0098396, 55.461026], [12.0086902, 55.4608363], [12.00795, 55.4607144], [12.0064171, 55.4604611], [12.0055191, 55.4603138], [12.0047265, 55.4601823], [12.0026931, 55.459847], [12.0016919, 55.4596879], [12.0003303, 55.4594861], [11.9983178, 55.459223], [11.9972389, 55.4591001], [11.9955211, 55.4589284], [11.9942548, 55.45882], [11.9934957, 55.4587635], [11.9928672, 55.4587209], [11.9922213, 55.458681], [11.99126, 55.4586288], [11.9902678, 55.4585858], [11.9893999, 55.4585549], [11.9882802, 55.4585237], [11.9865512, 55.4584829], [11.9855303, 55.4584585], [11.9849909, 55.4584452], [11.9842824, 55.4584274], [11.9833973, 55.4584005], [11.9828295, 55.45838], [11.9818009, 55.4583351], [11.980712, 55.4582766], [11.9799537, 55.4582299], [11.9789927, 55.4581675], [11.9780572, 55.4581068], [11.9775807, 55.4580755], [11.9771887, 55.4580507], [11.9760812, 55.4579782], [11.9751252, 55.457915], [11.9739749, 55.4578415], [11.9731825, 55.4577936], [11.9727101, 55.4577671], [11.9722363, 55.4577422], [11.9712028, 55.4576987], [11.9703592, 55.4576727], [11.9695691, 55.457654], [11.96869, 55.4576424], [11.9678204, 55.4576393], [11.9671025, 55.4576438], [11.9667166, 55.4576475], [11.96615, 55.4576569], [11.965139, 55.4576821], [11.9644311, 55.4577036], [11.9637761, 55.4577273], [11.9625231, 55.4577777], [11.9618262, 55.4578089], [11.9609621, 55.4578477], [11.9604055, 55.4578726], [11.9593723, 55.4579198], [11.9584208, 55.4579635], [11.9575005, 55.4580058], [11.9567709, 55.4580392], [11.9557503, 55.4580852], [11.9547963, 55.4581298], [11.9540011, 55.4581654], [11.9535473, 55.4581856], [11.9531486, 55.4582046], [11.9526835, 55.4582258], [11.9519839, 55.4582577], [11.9515049, 55.4582794], [11.951021, 55.4583017], [11.9504668, 55.4583272], [11.9500054, 55.4583477], [11.949692, 55.4583617], [11.9492769, 55.4583816], [11.9484959, 55.4584168], [11.9478576, 55.4584459], [11.9474729, 55.4584637], [11.9471656, 55.4584776], [11.9466066, 55.4585039], [11.9460573, 55.4585278], [11.9458229, 55.4585392], [11.9452787, 55.4585638], [11.9447983, 55.4585839], [11.944175, 55.4586097], [11.9438464, 55.4586218], [11.9436318, 55.4586298], [11.9432979, 55.45864], [11.9430016, 55.4586479], [11.9427556, 55.4586545], [11.9425847, 55.4586586], [11.942429, 55.4586631], [11.9422883, 55.4586658], [11.9422218, 55.4586681]]]}, "geometry_name": "wkb_geometry", "properties": {"id": 0, "hovedstruk": "Reservationer", "navn_gen": "København - Ringstedbanen, nyanlæg", "navn_spec": "Reservationer til overordnede kollektive trafikanlæg", "kode": "K-R_h", "kortbilag": "O i FP19", "dato_ret": 20190122.0}, "bbox": [686027.38, 6149721.1099, 720605.95, 6173612.2799]}, {"type": "Feature", "id": "theme-fp19vo_kbh_ringsted_centerl.2", "geometry": {"type": "MultiLineString", "coordinates": [[[12.1719898, 55.4984958], [12.1712734, 55.4971216], [12.170541, 55.4959354], [12.1699259, 55.4949167], [12.1696495, 55.4938523], [12.1696751, 55.4931344], [12.1700921, 55.4919012], [12.1706674, 55.4905943], [12.171461, 55.4887526], [12.1714709, 55.4887039]]]}, "geometry_name": "wkb_geometry", "properties": {"id": 1, "hovedstruk": "Reservationer", "navn_gen": "København - Ringstedbanen, nyanlæg", "navn_spec": "Reservationer til overordnede kollektive trafikanlæg", "kode": "K_R_al", "kortbilag": "O i FP19", "dato_ret": 20190122.0}, "bbox": [700223.31, 6153747.4699, 700364.47, 6154838.0899]}, {"type": "Feature", "id": "theme-fp19vo_kbh_ringsted_centerl.3", "geometry": {"type": "MultiLineString", "coordinates": [[[12.1839203, 55.4712506], [12.1845628, 55.4697094], [12.1852379, 55.4677678], [12.1863152, 55.4648004]]]}, "geometry_name": "wkb_geometry", "properties": {"id": 2, "hovedstruk": "Reservationer", "navn_gen": "København - Ringstedbanen, nyanlæg", "navn_spec": "Reservationer til overordnede kollektive trafikanlæg", "kode": "K_R_al", "kortbilag": "O i FP19", "dato_ret": 20190122.0}, "bbox": [701239.67, 6151131.6699, 701423.89, 6151842.1699]}], "totalFeatures": 3, "numberMatched": 3, "numberReturned": 3, "timeStamp": "2026-09-22T18:10:55.382Z", "crs": {"type": "name", "properties": {"name": "urn:ogc:def:crs:OGC:1.3:CRS84"}}, "bbox": [686027.38, 6149721.1099, 720605.95, 6173612.2799]}