{"type": "FeatureCollection", "features": [{"type": "Feature", "id": "theme-fp19vf_stationer_ovr.1", "geometry": {"type": "MultiPoint", "coordinates": [[11.9711881, 55.9914374]]}, "geometry_name": "wkb_geometry", "properties": {"id": 42, "hovedstruk": "Reservationer til overordnede kollektive trafikanlæg", "navn_gen": "Øvrige stationer", "navn_spec": null, "st_navn": "Melby", "kode": "3", "kortbilag": "G i FP19", "dato_ret": 20190122.0}, "bbox": [685316.4, 6209111.1599, 685316.4, 6209111.1599]}, {"type": "Feature", "id": "theme-fp19vf_stationer_ovr.2", "geometry": {"type": "MultiPoint", "coordinates": [[12.0339932, 55.9466987]]}, "geometry_name": "wkb_geometry", "properties": {"id": 43, "hovedstruk": "Reservationer til overordnede kollektive trafikanlæg", "navn_gen": "Øvrige stationer", "navn_spec": null, "st_navn": "Lille Kregme", "kode": "3", "kortbilag": "G i FP19", "dato_ret": 20190122.0}, "bbox": [689450.87, 6204304.7599, 689450.87, 6204304.7599]}, {"type": "Feature", "id": "theme-fp19vf_stationer_ovr.3", "geometry": {"type": "MultiPoint", "coordinates": [[11.8526883, 55.9638448]]}, "geometry_name": "wkb_geometry", "properties": {"id": 44, "hovedstruk": "Reservationer til overordnede kollektive trafikanlæg", "navn_gen": "Øvrige stationer", "navn_spec": null, "st_navn": "Hundested", "kode": "3", "kortbilag": "G i FP19", "dato_ret": 20190122.0}, "bbox": [678054.54, 6205730.0599, 678054.54, 6205730.0599]}, {"type": "Feature", "id": "theme-fp19vf_stationer_ovr.4", "geometry": {"type": "MultiPoint", "coordinates": [[11.8729702, 55.9601999]]}, "geometry_name": "wkb_geometry", "properties": {"id": 45, "hovedstruk": "Reservationer til overordnede kollektive trafikanlæg", "navn_gen": "Øvrige stationer", "navn_spec": null, "st_navn": "Vibehus", "kode": "3", "kortbilag": "G i FP19", "dato_ret": 20190122.0}, "bbox": [679336.93, 6205377.0299, 679336.93, 6205377.0299]}, {"type": "Feature", "id": "theme-fp19vf_stationer_ovr.5", "geometry": {"type": "MultiPoint", "coordinates": [[12.0468811, 55.9346145]]}, "geometry_name": "wkb_geometry", "properties": {"id": 46, "hovedstruk": "Reservationer til overordnede kollektive trafikanlæg", "navn_gen": "Øvrige stationer", "navn_spec": null, "st_navn": "Kregme", "kode": "3", "kortbilag": "G i FP19", "dato_ret": 20190122.0}, "bbox": [690314.62, 6202995.9399, 690314.62, 6202995.9399]}, {"type": "Feature", "id": "theme-fp19vf_stationer_ovr.6", "geometry": {"type": "MultiPoint", "coordinates": [[12.0737537, 55.9230427]]}, "geometry_name": "wkb_geometry", "properties": {"id": 47, "hovedstruk": "Reservationer til overordnede kollektive trafikanlæg", "navn_gen": "Øvrige stationer", "navn_spec": null, "st_navn": "Ølsted", "kode": "3", "kortbilag": "G i FP19", "dato_ret": 20190122.0}, "bbox": [692049.8, 6201783.0499, 692049.8, 6201783.0499]}, {"type": "Feature", "id": "theme-fp19vf_stationer_ovr.7", "geometry": {"type": "MultiPoint", "coordinates": [[11.9428022, 55.9854038]]}, "geometry_name": "wkb_geometry", "properties": {"id": 48, "hovedstruk": "Reservationer til overordnede kollektive trafikanlæg", "navn_gen": "Øvrige stationer", "navn_spec": null, "st_navn": "Dyssekilde", "kode": "3", "kortbilag": "G i FP19", "dato_ret": 20190122.0}, "bbox": [683575.13, 6208364.1799, 683575.13, 6208364.1799]}, {"type": "Feature", "id": "theme-fp19vf_stationer_ovr.8", "geometry": {"type": "MultiPoint", "coordinates": [[11.9135412, 55.9768641]]}, "geometry_name": "wkb_geometry", "properties": {"id": 49, "hovedstruk": "Reservationer til overordnede kollektive trafikanlæg", "navn_gen": "Øvrige stationer", "navn_spec": null, "st_navn": "Østerbjerg", "kode": "3", "kortbilag": "G i FP19", "dato_ret": 20190122.0}, "bbox": [681790.46, 6207336.8299, 681790.46, 6207336.8299]}, {"type": "Feature", "id": "theme-fp19vf_stationer_ovr.9", "geometry": {"type": "MultiPoint", "coordinates": [[12.0191969, 55.9685838]]}, "geometry_name": "wkb_geometry", "properties": {"id": 50, "hovedstruk": "Reservationer til overordnede kollektive trafikanlæg", "navn_gen": "Øvrige stationer", "navn_spec": null, "st_navn": "Frederiksværk", "kode": "3", "kortbilag": "G i FP19", "dato_ret": 20190122.0}, "bbox": [688420.87, 6206698.7699, 688420.87, 6206698.7699]}, {"type": "Feature", "id": "theme-fp19vf_stationer_ovr.10", "geometry": {"type": "MultiPoint", "coordinates": [[12.528062, 55.8140934]]}, "geometry_name": "wkb_geometry", "properties": {"id": 51, "hovedstruk": "Reservationer til overordnede kollektive trafikanlæg", "navn_gen": "Øvrige stationer", "navn_spec": null, "st_navn": "Nærum", "kode": "3", "kortbilag": "G i FP19", "dato_ret": 20190122.0}, "bbox": [721041.11, 6191021.4999, 721041.11, 6191021.4999]}, {"type": "Feature", "id": "theme-fp19vf_stationer_ovr.11", "geometry": {"type": "MultiPoint", "coordinates": [[12.5059933, 55.7739009]]}, "geometry_name": "wkb_geometry", "properties": {"id": 75, "hovedstruk": "Reservationer til overordnede kollektive trafikanlæg", "navn_gen": "Øvrige stationer", "navn_spec": null, "st_navn": "Lyngby Lokal", "kode": "3", "kortbilag": "G i FP19", "dato_ret": 20190122.0}, "bbox": [719885.593, 6186481.1595, 719885.593, 6186481.1595]}, {"type": "Feature", "id": "theme-fp19vf_stationer_ovr.12", "geometry": {"type": "MultiPoint", "coordinates": [[12.5134485, 55.7703961]]}, "geometry_name": "wkb_geometry", "properties": {"id": 76, "hovedstruk": "Reservationer til overordnede kollektive trafikanlæg", "navn_gen": "Øvrige stationer", "navn_spec": null, "st_navn": "Nørgaardsvej", "kode": "3", "kortbilag": "G i FP19", "dato_ret": 20190122.0}, "bbox": [720372.7371, 6186115.0646, 720372.7371, 6186115.0646]}, {"type": "Feature", "id": "theme-fp19vf_stationer_ovr.13", "geometry": {"type": "MultiPoint", "coordinates": [[12.2633076, 56.0094998]]}, "geometry_name": "wkb_geometry", "properties": {"id": 55, "hovedstruk": "Reservationer til overordnede kollektive trafikanlæg", "navn_gen": "Øvrige stationer", "navn_spec": null, "st_navn": "Duemose", "kode": "3", "kortbilag": "G i FP19", "dato_ret": 20190122.0}, "bbox": [703434.2139, 6211942.4437, 703434.2139, 6211942.4437]}, {"type": "Feature", "id": "theme-fp19vf_stationer_ovr.14", "geometry": {"type": "MultiPoint", "coordinates": [[12.3025887, 55.9870565]]}, "geometry_name": "wkb_geometry", "properties": {"id": 56, "hovedstruk": "Reservationer til overordnede kollektive trafikanlæg", "navn_gen": "Øvrige stationer", "navn_spec": null, "st_navn": "Gribsø", "kode": "3", "kortbilag": "G i FP19", "dato_ret": 20190122.0}, "bbox": [706001.3981, 6209562.5318, 706001.3981, 6209562.5318]}, {"type": "Feature", "id": "theme-fp19vf_stationer_ovr.15", "geometry": {"type": "MultiPoint", "coordinates": [[11.8461399, 55.9657961]]}, "geometry_name": "wkb_geometry", "properties": {"id": 57, "hovedstruk": "Reservationer til overordnede kollektive trafikanlæg", "navn_gen": "Øvrige stationer", "navn_spec": null, "st_navn": "Hundested havn", "kode": "3", "kortbilag": "G i FP19", "dato_ret": 20190122.0}, "bbox": [677636.9988, 6205930.2726, 677636.9988, 6205930.2726]}, {"type": "Feature", "id": "theme-fp19vf_stationer_ovr.16", "geometry": {"type": "MultiPoint", "coordinates": [[12.1025052, 55.9156975]]}, "geometry_name": "wkb_geometry", "properties": {"id": 58, "hovedstruk": "Reservationer til overordnede kollektive trafikanlæg", "navn_gen": "Øvrige stationer", "navn_spec": null, "st_navn": "Grimstrup", "kode": "3", "kortbilag": "G i FP19", "dato_ret": 20190122.0}, "bbox": [693882.2407, 6201046.2556, 693882.2407, 6201046.2556]}, {"type": "Feature", "id": "theme-fp19vf_stationer_ovr.17", "geometry": {"type": "MultiPoint", "coordinates": [[12.3857636, 55.3100334]]}, "geometry_name": "wkb_geometry", "properties": {"id": 1, "hovedstruk": "Reservationer til overordnede kollektive trafikanlæg", "navn_gen": "Øvrige stationer", "navn_spec": null, "st_navn": "Store Heddinge", "kode": "3", "kortbilag": "G i FP19", "dato_ret": 20190122.0}, "bbox": [714865.09, 6134515.0199, 714865.09, 6134515.0199]}, {"type": "Feature", "id": "theme-fp19vf_stationer_ovr.18", "geometry": {"type": "MultiPoint", "coordinates": [[12.1922109, 55.3999547]]}, "geometry_name": "wkb_geometry", "properties": {"id": 2, "hovedstruk": "Reservationer til overordnede kollektive trafikanlæg", "navn_gen": "Øvrige stationer", "navn_spec": null, "st_navn": "Vallø", "kode": "3", "kortbilag": "G i FP19", "dato_ret": 20190122.0}, "bbox": [702127.69, 6143936.2899, 702127.69, 6143936.2899]}, {"type": "Feature", "id": "theme-fp19vf_stationer_ovr.19", "geometry": {"type": "MultiPoint", "coordinates": [[12.2273409, 55.3515399]]}, "geometry_name": "wkb_geometry", "properties": {"id": 3, "hovedstruk": "Reservationer til overordnede kollektive trafikanlæg", "navn_gen": "Øvrige stationer", "navn_spec": null, "st_navn": "Hårlev", "kode": "3", "kortbilag": "G i FP19", "dato_ret": 20190122.0}, "bbox": [704601.12, 6138654.0699, 704601.12, 6138654.0699]}, {"type": "Feature", "id": "theme-fp19vf_stationer_ovr.20", "geometry": {"type": "MultiPoint", "coordinates": [[12.215526, 55.3724401]]}, "geometry_name": "wkb_geometry", "properties": {"id": 4, "hovedstruk": "Reservationer til overordnede kollektive trafikanlæg", "navn_gen": "Øvrige stationer", "navn_spec": null, "st_navn": "Himlingøje", "kode": "3", "kortbilag": "G i FP19", "dato_ret": 20190122.0}, "bbox": [703744.93, 6140943.9999, 703744.93, 6140943.9999]}, {"type": "Feature", "id": "theme-fp19vf_stationer_ovr.21", "geometry": {"type": "MultiPoint", "coordinates": [[12.2192978, 55.3366266]]}, "geometry_name": "wkb_geometry", "properties": {"id": 5, "hovedstruk": "Reservationer til overordnede kollektive trafikanlæg", "navn_gen": "Øvrige stationer", "navn_spec": null, "st_navn": "Lille Linde", "kode": "3", "kortbilag": "G i FP19", "dato_ret": 20190122.0}, "bbox": [704168.15, 6136971.7499, 704168.15, 6136971.7499]}, {"type": "Feature", "id": "theme-fp19vf_stationer_ovr.22", "geometry": {"type": "MultiPoint", "coordinates": [[12.2792812, 55.3525359]]}, "geometry_name": "wkb_geometry", "properties": {"id": 6, "hovedstruk": "Reservationer til overordnede kollektive trafikanlæg", "navn_gen": "Øvrige stationer", "navn_spec": null, "st_navn": "Varpelev", "kode": "3", "kortbilag": "G i FP19", "dato_ret": 20190122.0}, "bbox": [707887.45, 6138918.7699, 707887.45, 6138918.7699]}, {"type": "Feature", "id": "theme-fp19vf_stationer_ovr.23", "geometry": {"type": "MultiPoint", "coordinates": [[12.2016351, 55.3800662]]}, "geometry_name": "wkb_geometry", "properties": {"id": 7, "hovedstruk": "Reservationer til overordnede kollektive trafikanlæg", "navn_gen": "Øvrige stationer", "navn_spec": null, "st_navn": "Grubberholm", "kode": "3", "kortbilag": "G i FP19", "dato_ret": 20190122.0}, "bbox": [702826.04, 6141751.6199, 702826.04, 6141751.6199]}, {"type": "Feature", "id": "theme-fp19vf_stationer_ovr.24", "geometry": {"type": "MultiPoint", "coordinates": [[12.3785773, 55.2547905]]}, "geometry_name": "wkb_geometry", "properties": {"id": 8, "hovedstruk": "Reservationer til overordnede kollektive trafikanlæg", "navn_gen": "Øvrige stationer", "navn_spec": null, "st_navn": "Rødvig", "kode": "3", "kortbilag": "G i FP19", "dato_ret": 20190122.0}, "bbox": [714707.36, 6128348.9699, 714707.36, 6128348.9699]}, {"type": "Feature", "id": "theme-fp19vf_stationer_ovr.25", "geometry": {"type": "MultiPoint", "coordinates": [[11.9714788, 55.6046331]]}, "geometry_name": "wkb_geometry", "properties": {"id": 9, "hovedstruk": "Reservationer til overordnede kollektive trafikanlæg", "navn_gen": "Øvrige stationer", "navn_spec": null, "st_navn": "Lejre", "kode": "3", "kortbilag": "G i FP19", "dato_ret": 20190122.0}, "bbox": [687181.77, 6166084.3899, 687181.77, 6166084.3899]}, {"type": "Feature", "id": "theme-fp19vf_stationer_ovr.26", "geometry": {"type": "MultiPoint", "coordinates": [[12.3261026, 55.3457647]]}, "geometry_name": "wkb_geometry", "properties": {"id": 10, "hovedstruk": "Reservationer til overordnede kollektive trafikanlæg", "navn_gen": "Øvrige stationer", "navn_spec": null, "st_navn": "Klippinge", "kode": "3", "kortbilag": "G i FP19", "dato_ret": 20190122.0}, "bbox": [710890.49, 6138306.5399, 710890.49, 6138306.5399]}, {"type": "Feature", "id": "theme-fp19vf_stationer_ovr.27", "geometry": {"type": "MultiPoint", "coordinates": [[11.8598136, 55.5954383]]}, "geometry_name": "wkb_geometry", "properties": {"id": 11, "hovedstruk": "Reservationer til overordnede kollektive trafikanlæg", "navn_gen": "Øvrige stationer", "navn_spec": null, "st_navn": "Hvalsø", "kode": "3", "kortbilag": "G i FP19", "dato_ret": 20190122.0}, "bbox": [680191.98, 6164766.0399, 680191.98, 6164766.0399]}, {"type": "Feature", "id": "theme-fp19vf_stationer_ovr.28", "geometry": {"type": "MultiPoint", "coordinates": [[12.0996159, 55.5728295]]}, "geometry_name": "wkb_geometry", "properties": {"id": 12, "hovedstruk": "Reservationer til overordnede kollektive trafikanlæg", "navn_gen": "Øvrige stationer", "navn_spec": null, "st_navn": "Gadstrup", "kode": "3", "kortbilag": "G i FP19", "dato_ret": 20190122.0}, "bbox": [695408.73, 6162899.9299, 695408.73, 6162899.9299]}, {"type": "Feature", "id": "theme-fp19vf_stationer_ovr.29", "geometry": {"type": "MultiPoint", "coordinates": [[12.0245537, 55.5498085]]}, "geometry_name": "wkb_geometry", "properties": {"id": 13, "hovedstruk": "Reservationer til overordnede kollektive trafikanlæg", "navn_gen": "Øvrige stationer", "navn_spec": null, "st_navn": "Viby Sj.", "kode": "3", "kortbilag": "G i FP19", "dato_ret": 20190122.0}, "bbox": [690789.79, 6160130.4899, 690789.79, 6160130.4899]}, {"type": "Feature", "id": "theme-fp19vf_stationer_ovr.30", "geometry": {"type": "MultiPoint", "coordinates": [[12.1900446, 55.424264]]}, "geometry_name": "wkb_geometry", "properties": {"id": 14, "hovedstruk": "Reservationer til overordnede kollektive trafikanlæg", "navn_gen": "Øvrige stationer", "navn_spec": null, "st_navn": "Egøje", "kode": "3", "kortbilag": "G i FP19", "dato_ret": 20190122.0}, "bbox": [701866.51, 6146633.7999, 701866.51, 6146633.7999]}, {"type": "Feature", "id": "theme-fp19vf_stationer_ovr.31", "geometry": {"type": "MultiPoint", "coordinates": [[12.1404232, 55.5114353]]}, "geometry_name": "wkb_geometry", "properties": {"id": 15, "hovedstruk": "Reservationer til overordnede kollektive trafikanlæg", "navn_gen": "Øvrige stationer", "navn_spec": null, "st_navn": "Lille Skensved", "kode": "3", "kortbilag": "G i FP19", "dato_ret": 20190122.0}, "bbox": [698289.35, 6156186.7499, 698289.35, 6156186.7499]}, {"type": "Feature", "id": "theme-fp19vf_stationer_ovr.32", "geometry": {"type": "MultiPoint", "coordinates": [[12.1370527, 55.4176913]]}, "geometry_name": "wkb_geometry", "properties": {"id": 16, "hovedstruk": "Reservationer til overordnede kollektive trafikanlæg", "navn_gen": "Øvrige stationer", "navn_spec": null, "st_navn": "Herfølge", "kode": "3", "kortbilag": "G i FP19", "dato_ret": 20190122.0}, "bbox": [698547.37, 6145750.1899, 698547.37, 6145750.1899]}, {"type": "Feature", "id": "theme-fp19vf_stationer_ovr.33", "geometry": {"type": "MultiPoint", "coordinates": [[11.9720621, 55.4945154]]}, "geometry_name": "wkb_geometry", "properties": {"id": 17, "hovedstruk": "Reservationer til overordnede kollektive trafikanlæg", "navn_gen": "Øvrige stationer", "navn_spec": null, "st_navn": "Borup", "kode": "3", "kortbilag": "G i FP19", "dato_ret": 20190122.0}, "bbox": [687742.92, 6153836.9999, 687742.92, 6153836.9999]}, {"type": "Feature", "id": "theme-fp19vf_stationer_ovr.34", "geometry": {"type": "MultiPoint", "coordinates": [[12.0759524, 55.3732789]]}, "geometry_name": "wkb_geometry", "properties": {"id": 18, "hovedstruk": "Reservationer til overordnede kollektive trafikanlæg", "navn_gen": "Øvrige stationer", "navn_spec": null, "st_navn": "Tureby", "kode": "3", "kortbilag": "G i FP19", "dato_ret": 20190122.0}, "bbox": [694900.1, 6140637.4899, 694900.1, 6140637.4899]}, {"type": "Feature", "id": "theme-fp19vf_stationer_ovr.35", "geometry": {"type": "MultiPoint", "coordinates": [[12.1171684, 55.5437834]]}, "geometry_name": "wkb_geometry", "properties": {"id": 19, "hovedstruk": "Reservationer til overordnede kollektive trafikanlæg", "navn_gen": "Øvrige stationer", "navn_spec": null, "st_navn": "Havdrup", "kode": "3", "kortbilag": "G i FP19", "dato_ret": 20190122.0}, "bbox": [696660, 6159718.6799, 696660, 6159718.6799]}, {"type": "Feature", "id": "theme-fp19vf_stationer_ovr.36", "geometry": {"type": "MultiPoint", "coordinates": [[12.2958299, 56.0630988]]}, "geometry_name": "wkb_geometry", "properties": {"id": 20, "hovedstruk": "Reservationer til overordnede kollektive trafikanlæg", "navn_gen": "Øvrige stationer", "navn_spec": null, "st_navn": "Græsted Syd", "kode": "3", "kortbilag": "G i FP19", "dato_ret": 20190122.0}, "bbox": [705176.07, 6218000.4799, 705176.07, 6218000.4799]}, {"type": "Feature", "id": "theme-fp19vf_stationer_ovr.37", "geometry": {"type": "MultiPoint", "coordinates": [[12.2869592, 56.072632]]}, "geometry_name": "wkb_geometry", "properties": {"id": 21, "hovedstruk": "Reservationer til overordnede kollektive trafikanlæg", "navn_gen": "Øvrige stationer", "navn_spec": null, "st_navn": "Græsted", "kode": "3", "kortbilag": "G i FP19", "dato_ret": 20190122.0}, "bbox": [704573.54, 6219034.5099, 704573.54, 6219034.5099]}, {"type": "Feature", "id": "theme-fp19vf_stationer_ovr.38", "geometry": {"type": "MultiPoint", "coordinates": [[12.0778442, 56.0594148]]}, "geometry_name": "wkb_geometry", "properties": {"id": 22, "hovedstruk": "Reservationer til overordnede kollektive trafikanlæg", "navn_gen": "Øvrige stationer", "navn_spec": null, "st_navn": "Tisvildeleje", "kode": "3", "kortbilag": "G i FP19", "dato_ret": 20190122.0}, "bbox": [691629.13, 6216964.0499, 691629.13, 6216964.0499]}, {"type": "Feature", "id": "theme-fp19vf_stationer_ovr.39", "geometry": {"type": "MultiPoint", "coordinates": [[12.2982331, 56.1165753]]}, "geometry_name": "wkb_geometry", "properties": {"id": 23, "hovedstruk": "Reservationer til overordnede kollektive trafikanlæg", "navn_gen": "Øvrige stationer", "navn_spec": null, "st_navn": "Fjellenstrup", "kode": "3", "kortbilag": "G i FP19", "dato_ret": 20190122.0}, "bbox": [705041.13, 6223955.7799, 705041.13, 6223955.7799]}, {"type": "Feature", "id": "theme-fp19vf_stationer_ovr.40", "geometry": {"type": "MultiPoint", "coordinates": [[12.387594, 56.0976654]]}, "geometry_name": "wkb_geometry", "properties": {"id": 24, "hovedstruk": "Reservationer til overordnede kollektive trafikanlæg", "navn_gen": "Øvrige stationer", "navn_spec": null, "st_navn": "Dronningmølle", "kode": "3", "kortbilag": "G i FP19", "dato_ret": 20190122.0}, "bbox": [710697.35, 6222121.7799, 710697.35, 6222121.7799]}, {"type": "Feature", "id": "theme-fp19vf_stationer_ovr.41", "geometry": {"type": "MultiPoint", "coordinates": [[12.0969859, 56.0599676]]}, "geometry_name": "wkb_geometry", "properties": {"id": 25, "hovedstruk": "Reservationer til overordnede kollektive trafikanlæg", "navn_gen": "Øvrige stationer", "navn_spec": null, "st_navn": "Godhavn", "kode": "3", "kortbilag": "G i FP19", "dato_ret": 20190122.0}, "bbox": [692817.71, 6217078.8499, 692817.71, 6217078.8499]}, {"type": "Feature", "id": "theme-fp19vf_stationer_ovr.42", "geometry": {"type": "MultiPoint", "coordinates": [[12.2060855, 56.0229351]]}, "geometry_name": "wkb_geometry", "properties": {"id": 26, "hovedstruk": "Reservationer til overordnede kollektive trafikanlæg", "navn_gen": "Øvrige stationer", "navn_spec": null, "st_navn": "Helsinge", "kode": "3", "kortbilag": "G i FP19", "dato_ret": 20190122.0}, "bbox": [699798.99, 6213269.7899, 699798.99, 6213269.7899]}, {"type": "Feature", "id": "theme-fp19vf_stationer_ovr.43", "geometry": {"type": "MultiPoint", "coordinates": [[12.1358978, 56.0624998]]}, "geometry_name": "wkb_geometry", "properties": {"id": 27, "hovedstruk": "Reservationer til overordnede kollektive trafikanlæg", "navn_gen": "Øvrige stationer", "navn_spec": null, "st_navn": "Vejby", "kode": "3", "kortbilag": "G i FP19", "dato_ret": 20190122.0}, "bbox": [695226.65, 6217469.9099, 695226.65, 6217469.9099]}, {"type": "Feature", "id": "theme-fp19vf_stationer_ovr.44", "geometry": {"type": "MultiPoint", "coordinates": [[12.356066, 56.0982717]]}, "geometry_name": "wkb_geometry", "properties": {"id": 28, "hovedstruk": "Reservationer til overordnede kollektive trafikanlæg", "navn_gen": "Øvrige stationer", "navn_spec": null, "st_navn": "Firhøj", "kode": "3", "kortbilag": "G i FP19", "dato_ret": 20190122.0}, "bbox": [708733.98, 6222093.3699, 708733.98, 6222093.3699]}, {"type": "Feature", "id": "theme-fp19vf_stationer_ovr.45", "geometry": {"type": "MultiPoint", "coordinates": [[12.2865111, 55.9969839]]}, "geometry_name": "wkb_geometry", "properties": {"id": 29, "hovedstruk": "Reservationer til overordnede kollektive trafikanlæg", "navn_gen": "Øvrige stationer", "navn_spec": null, "st_navn": "Kagerup", "kode": "3", "kortbilag": "G i FP19", "dato_ret": 20190122.0}, "bbox": [704946.4, 6210618.9199, 704946.4, 6210618.9199]}, {"type": "Feature", "id": "theme-fp19vf_stationer_ovr.46", "geometry": {"type": "MultiPoint", "coordinates": [[12.3018496, 56.1235831]]}, "geometry_name": "wkb_geometry", "properties": {"id": 30, "hovedstruk": "Reservationer til overordnede kollektive trafikanlæg", "navn_gen": "Øvrige stationer", "navn_spec": null, "st_navn": "Gilleleje", "kode": "3", "kortbilag": "G i FP19", "dato_ret": 20190122.0}, "bbox": [705228.53, 6224746.0099, 705228.53, 6224746.0099]}, {"type": "Feature", "id": "theme-fp19vf_stationer_ovr.47", "geometry": {"type": "MultiPoint", "coordinates": [[12.5027753, 55.9905445]]}, "geometry_name": "wkb_geometry", "properties": {"id": 31, "hovedstruk": "Reservationer til overordnede kollektive trafikanlæg", "navn_gen": "Øvrige stationer", "navn_spec": null, "st_navn": "Kvistgård", "kode": "3", "kortbilag": "G i FP19", "dato_ret": 20190122.0}, "bbox": [718462.84, 6210565.6099, 718462.84, 6210565.6099]}, {"type": "Feature", "id": "theme-fp19vf_stationer_ovr.48", "geometry": {"type": "MultiPoint", "coordinates": [[12.4598295, 56.089112]]}, "geometry_name": "wkb_geometry", "properties": {"id": 32, "hovedstruk": "Reservationer til overordnede kollektive trafikanlæg", "navn_gen": "Øvrige stationer", "navn_spec": null, "st_navn": "Hornbæk", "kode": "3", "kortbilag": "G i FP19", "dato_ret": 20190122.0}, "bbox": [715235.86, 6221393.4399, 715235.86, 6221393.4399]}, {"type": "Feature", "id": "theme-fp19vf_stationer_ovr.49", "geometry": {"type": "MultiPoint", "coordinates": [[12.6110356, 56.0402557]]}, "geometry_name": "wkb_geometry", "properties": {"id": 33, "hovedstruk": "Reservationer til overordnede kollektive trafikanlæg", "navn_gen": "Øvrige stationer", "navn_spec": null, "st_navn": "Grønnehave", "kode": "3", "kortbilag": "G i FP19", "dato_ret": 20190122.0}, "bbox": [724922.27, 6216441.9599, 724922.27, 6216441.9599]}, {"type": "Feature", "id": "theme-fp19vf_stationer_ovr.50", "geometry": {"type": "MultiPoint", "coordinates": [[12.5204365, 55.8024297]]}, "geometry_name": "wkb_geometry", "properties": {"id": 34, "hovedstruk": "Reservationer til overordnede kollektive trafikanlæg", "navn_gen": "Øvrige stationer", "navn_spec": null, "st_navn": "Ravnholm", "kode": "3", "kortbilag": "G i FP19", "dato_ret": 20190122.0}, "bbox": [720629.59, 6189699.9799, 720629.59, 6189699.9799]}, {"type": "Feature", "id": "theme-fp19vf_stationer_ovr.51", "geometry": {"type": "MultiPoint", "coordinates": [[12.5008771, 55.7937086]]}, "geometry_name": "wkb_geometry", "properties": {"id": 35, "hovedstruk": "Reservationer til overordnede kollektive trafikanlæg", "navn_gen": "Øvrige stationer", "navn_spec": null, "st_navn": "Brede", "kode": "3", "kortbilag": "G i FP19", "dato_ret": 20190122.0}, "bbox": [719453.42, 6188667.8699, 719453.42, 6188667.8699]}, {"type": "Feature", "id": "theme-fp19vf_stationer_ovr.52", "geometry": {"type": "MultiPoint", "coordinates": [[12.5093315, 55.7996927]]}, "geometry_name": "wkb_geometry", "properties": {"id": 36, "hovedstruk": "Reservationer til overordnede kollektive trafikanlæg", "navn_gen": "Øvrige stationer", "navn_spec": null, "st_navn": "Ørholm", "kode": "3", "kortbilag": "G i FP19", "dato_ret": 20190122.0}, "bbox": [719949.39, 6189360.2399, 719949.39, 6189360.2399]}, {"type": "Feature", "id": "theme-fp19vf_stationer_ovr.53", "geometry": {"type": "MultiPoint", "coordinates": [[12.4972413, 55.7849347]]}, "geometry_name": "wkb_geometry", "properties": {"id": 37, "hovedstruk": "Reservationer til overordnede kollektive trafikanlæg", "navn_gen": "Øvrige stationer", "navn_spec": null, "st_navn": "Fuglevad", "kode": "3", "kortbilag": "G i FP19", "dato_ret": 20190122.0}, "bbox": [719274.93, 6187680.5499, 719274.93, 6187680.5499]}, {"type": "Feature", "id": "theme-fp19vf_stationer_ovr.54", "geometry": {"type": "MultiPoint", "coordinates": [[12.2018113, 55.8867295]]}, "geometry_name": "wkb_geometry", "properties": {"id": 38, "hovedstruk": "Reservationer til overordnede kollektive trafikanlæg", "navn_gen": "Øvrige stationer", "navn_spec": null, "st_navn": "Gørløse", "kode": "3", "kortbilag": "G i FP19", "dato_ret": 20190122.0}, "bbox": [700234.98, 6198107.0599, 700234.98, 6198107.0599]}, {"type": "Feature", "id": "theme-fp19vf_stationer_ovr.55", "geometry": {"type": "MultiPoint", "coordinates": [[12.3112344, 55.9426192]]}, "geometry_name": "wkb_geometry", "properties": {"id": 39, "hovedstruk": "Reservationer til overordnede kollektive trafikanlæg", "navn_gen": "Øvrige stationer", "navn_spec": null, "st_navn": "Slotspavillonen", "kode": "3", "kortbilag": "G i FP19", "dato_ret": 20190122.0}, "bbox": [706777.43, 6204645.7199, 706777.43, 6204645.7199]}, {"type": "Feature", "id": "theme-fp19vf_stationer_ovr.56", "geometry": {"type": "MultiPoint", "coordinates": [[12.1493869, 55.9073945]]}, "geometry_name": "wkb_geometry", "properties": {"id": 40, "hovedstruk": "Reservationer til overordnede kollektive trafikanlæg", "navn_gen": "Øvrige stationer", "navn_spec": null, "st_navn": "Skævinge", "kode": "3", "kortbilag": "G i FP19", "dato_ret": 20190122.0}, "bbox": [696852.97, 6200255.1499, 696852.97, 6200255.1499]}, {"type": "Feature", "id": "theme-fp19vf_stationer_ovr.57", "geometry": {"type": "MultiPoint", "coordinates": [[12.0008115, 55.9753718]]}, "geometry_name": "wkb_geometry", "properties": {"id": 41, "hovedstruk": "Reservationer til overordnede kollektive trafikanlæg", "navn_gen": "Øvrige stationer", "navn_spec": null, "st_navn": "Hanehoved", "kode": "3", "kortbilag": "G i FP19", "dato_ret": 20190122.0}, "bbox": [687241.07, 6207403.8899, 687241.07, 6207403.8899]}, {"type": "Feature", "id": "theme-fp19vf_stationer_ovr.58", "geometry": {"type": "MultiPoint", "coordinates": [[12.2795678, 55.8935411]]}, "geometry_name": "wkb_geometry", "properties": {"id": 59, "hovedstruk": "Reservationer til overordnede kollektive trafikanlæg", "navn_gen": "Øvrige stationer", "navn_spec": null, "st_navn": "Brødeskov", "kode": "3", "kortbilag": "G i FP19", "dato_ret": 20190122.0}, "bbox": [705059.8287, 6199092.5702, 705059.8287, 6199092.5702]}, {"type": "Feature", "id": "theme-fp19vf_stationer_ovr.59", "geometry": {"type": "MultiPoint", "coordinates": [[12.3694551, 55.9531352]]}, "geometry_name": "wkb_geometry", "properties": {"id": 77, "hovedstruk": "Reservationer til overordnede kollektive trafikanlæg", "navn_gen": "Øvrige stationer", "navn_spec": null, "st_navn": "Grønholt", "kode": "3", "kortbilag": "G i FP19", "dato_ret": 20190122.0}, "bbox": [710354.548, 6205991.0919, 710354.548, 6205991.0919]}, {"type": "Feature", "id": "theme-fp19vf_stationer_ovr.60", "geometry": {"type": "MultiPoint", "coordinates": [[12.3922153, 55.9665049]]}, "geometry_name": "wkb_geometry", "properties": {"id": 78, "hovedstruk": "Reservationer til overordnede kollektive trafikanlæg", "navn_gen": "Øvrige stationer", "navn_spec": null, "st_navn": "Kratbjerg", "kode": "3", "kortbilag": "G i FP19", "dato_ret": 20190122.0}, "bbox": [711701.8088, 6207547.6341, 711701.8088, 6207547.6341]}, {"type": "Feature", "id": "theme-fp19vf_stationer_ovr.61", "geometry": {"type": "MultiPoint", "coordinates": [[12.4069616, 55.977073]]}, "geometry_name": "wkb_geometry", "properties": {"id": 79, "hovedstruk": "Reservationer til overordnede kollektive trafikanlæg", "navn_gen": "Øvrige stationer", "navn_spec": null, "st_navn": "Fredensborg", "kode": "3", "kortbilag": "G i FP19", "dato_ret": 20190122.0}, "bbox": [712563.6942, 6208768.3436, 712563.6942, 6208768.3436]}, {"type": "Feature", "id": "theme-fp19vf_stationer_ovr.62", "geometry": {"type": "MultiPoint", "coordinates": [[12.452732, 55.9813655]]}, "geometry_name": "wkb_geometry", "properties": {"id": 80, "hovedstruk": "Reservationer til overordnede kollektive trafikanlæg", "navn_gen": "Øvrige stationer", "navn_spec": null, "st_navn": "Langerød", "kode": "3", "kortbilag": "G i FP19", "dato_ret": 20190122.0}, "bbox": [715394.1996, 6209387.5412, 715394.1996, 6209387.5412]}, {"type": "Feature", "id": "theme-fp19vf_stationer_ovr.63", "geometry": {"type": "MultiPoint", "coordinates": [[12.5326372, 56.0021799]]}, "geometry_name": "wkb_geometry", "properties": {"id": 81, "hovedstruk": "Reservationer til overordnede kollektive trafikanlæg", "navn_gen": "Øvrige stationer", "navn_spec": null, "st_navn": "Mørdrup", "kode": "3", "kortbilag": "G i FP19", "dato_ret": 20190122.0}, "bbox": [720258.1727, 6211954.529, 720258.1727, 6211954.529]}, {"type": "Feature", "id": "theme-fp19vf_stationer_ovr.64", "geometry": {"type": "MultiPoint", "coordinates": [[12.1176293, 56.0595104]]}, "geometry_name": "wkb_geometry", "properties": {"id": 52, "hovedstruk": "Reservationer til overordnede kollektive trafikanlæg", "navn_gen": "Øvrige stationer", "navn_spec": null, "st_navn": "Holløse", "kode": "3", "kortbilag": "G i FP19", "dato_ret": 20190122.0}, "bbox": [694104.7864, 6217085.8516, 694104.7864, 6217085.8516]}, {"type": "Feature", "id": "theme-fp19vf_stationer_ovr.65", "geometry": {"type": "MultiPoint", "coordinates": [[12.1628702, 56.0555175]]}, "geometry_name": "wkb_geometry", "properties": {"id": 53, "hovedstruk": "Reservationer til overordnede kollektive trafikanlæg", "navn_gen": "Øvrige stationer", "navn_spec": null, "st_navn": "Ørby", "kode": "3", "kortbilag": "G i FP19", "dato_ret": 20190122.0}, "bbox": [696940.794, 6216769.8663, 696940.794, 6216769.8663]}, {"type": "Feature", "id": "theme-fp19vf_stationer_ovr.66", "geometry": {"type": "MultiPoint", "coordinates": [[12.1831799, 56.0389327]]}, "geometry_name": "wkb_geometry", "properties": {"id": 54, "hovedstruk": "Reservationer til overordnede kollektive trafikanlæg", "navn_gen": "Øvrige stationer", "navn_spec": null, "st_navn": "Laugø", "kode": "3", "kortbilag": "G i FP19", "dato_ret": 20190122.0}, "bbox": [698290.0199, 6214983.213, 698290.0199, 6214983.213]}, {"type": "Feature", "id": "theme-fp19vf_stationer_ovr.67", "geometry": {"type": "MultiPoint", "coordinates": [[12.3012592, 56.1005535]]}, "geometry_name": "wkb_geometry", "properties": {"id": 60, "hovedstruk": "Reservationer til overordnede kollektive trafikanlæg", "navn_gen": "Øvrige stationer", "navn_spec": null, "st_navn": "Pårup", "kode": "3", "kortbilag": "G i FP19", "dato_ret": 20190122.0}, "bbox": [705314.5034, 6222182.6871, 705314.5034, 6222182.6871]}, {"type": "Feature", "id": "theme-fp19vf_stationer_ovr.68", "geometry": {"type": "MultiPoint", "coordinates": [[12.3219019, 56.0543511]]}, "geometry_name": "wkb_geometry", "properties": {"id": 61, "hovedstruk": "Reservationer til overordnede kollektive trafikanlæg", "navn_gen": "Øvrige stationer", "navn_spec": null, "st_navn": "Saltrup", "kode": "3", "kortbilag": "G i FP19", "dato_ret": 20190122.0}, "bbox": [706845.303, 6217105.306, 706845.303, 6217105.306]}, {"type": "Feature", "id": "theme-fp19vf_stationer_ovr.69", "geometry": {"type": "MultiPoint", "coordinates": [[12.3174326, 56.0303716]]}, "geometry_name": "wkb_geometry", "properties": {"id": 62, "hovedstruk": "Reservationer til overordnede kollektive trafikanlæg", "navn_gen": "Øvrige stationer", "navn_spec": null, "st_navn": "Mårum", "kode": "3", "kortbilag": "G i FP19", "dato_ret": 20190122.0}, "bbox": [706695.3672, 6214424.7364, 706695.3672, 6214424.7364]}, {"type": "Feature", "id": "theme-fp19vf_stationer_ovr.70", "geometry": {"type": "MultiPoint", "coordinates": [[12.309507, 56.1224428]]}, "geometry_name": "wkb_geometry", "properties": {"id": 63, "hovedstruk": "Reservationer til overordnede kollektive trafikanlæg", "navn_gen": "Øvrige stationer", "navn_spec": null, "st_navn": "Gilleleje Øst", "kode": "3", "kortbilag": "G i FP19", "dato_ret": 20190122.0}, "bbox": [705710.3694, 6224641.9883, 705710.3694, 6224641.9883]}, {"type": "Feature", "id": "theme-fp19vf_stationer_ovr.71", "geometry": {"type": "MultiPoint", "coordinates": [[12.3188783, 56.1120564]]}, "geometry_name": "wkb_geometry", "properties": {"id": 64, "hovedstruk": "Reservationer til overordnede kollektive trafikanlæg", "navn_gen": "Øvrige stationer", "navn_spec": null, "st_navn": "Stæremosen", "kode": "3", "kortbilag": "G i FP19", "dato_ret": 20190122.0}, "bbox": [706348.2353, 6223514.7185, 706348.2353, 6223514.7185]}, {"type": "Feature", "id": "theme-fp19vf_stationer_ovr.72", "geometry": {"type": "MultiPoint", "coordinates": [[12.3343482, 56.100403]]}, "geometry_name": "wkb_geometry", "properties": {"id": 65, "hovedstruk": "Reservationer til overordnede kollektive trafikanlæg", "navn_gen": "Øvrige stationer", "navn_spec": null, "st_navn": "Søborg", "kode": "3", "kortbilag": "G i FP19", "dato_ret": 20190122.0}, "bbox": [707372.3382, 6222264.9258, 707372.3382, 6222264.9258]}, {"type": "Feature", "id": "theme-fp19vf_stationer_ovr.73", "geometry": {"type": "MultiPoint", "coordinates": [[12.423596, 56.0926078]]}, "geometry_name": "wkb_geometry", "properties": {"id": 66, "hovedstruk": "Reservationer til overordnede kollektive trafikanlæg", "navn_gen": "Øvrige stationer", "navn_spec": null, "st_navn": "Kildekrog", "kode": "3", "kortbilag": "G i FP19", "dato_ret": 20190122.0}, "bbox": [712963.4903, 6221669.8005, 712963.4903, 6221669.8005]}, {"type": "Feature", "id": "theme-fp19vf_stationer_ovr.74", "geometry": {"type": "MultiPoint", "coordinates": [[12.4353976, 56.089951]]}, "geometry_name": "wkb_geometry", "properties": {"id": 67, "hovedstruk": "Reservationer til overordnede kollektive trafikanlæg", "navn_gen": "Øvrige stationer", "navn_spec": null, "st_navn": "Horneby Sand", "kode": "3", "kortbilag": "G i FP19", "dato_ret": 20190122.0}, "bbox": [713711.9904, 6221410.8026, 713711.9904, 6221410.8026]}, {"type": "Feature", "id": "theme-fp19vf_stationer_ovr.75", "geometry": {"type": "MultiPoint", "coordinates": [[12.4687367, 56.0829736]]}, "geometry_name": "wkb_geometry", "properties": {"id": 68, "hovedstruk": "Reservationer til overordnede kollektive trafikanlæg", "navn_gen": "Øvrige stationer", "navn_spec": null, "st_navn": "Karinebæk", "kode": "3", "kortbilag": "G i FP19", "dato_ret": 20190122.0}, "bbox": [715824.0614, 6220738.5477, 715824.0614, 6220738.5477]}, {"type": "Feature", "id": "theme-fp19vf_stationer_ovr.76", "geometry": {"type": "MultiPoint", "coordinates": [[12.4850246, 56.0770231]]}, "geometry_name": "wkb_geometry", "properties": {"id": 69, "hovedstruk": "Reservationer til overordnede kollektive trafikanlæg", "navn_gen": "Øvrige stationer", "navn_spec": null, "st_navn": "Saunte", "kode": "3", "kortbilag": "G i FP19", "dato_ret": 20190122.0}, "bbox": [716870.4681, 6220127.7999, 716870.4681, 6220127.7999]}, {"type": "Feature", "id": "theme-fp19vf_stationer_ovr.77", "geometry": {"type": "MultiPoint", "coordinates": [[12.5131384, 56.0783315]]}, "geometry_name": "wkb_geometry", "properties": {"id": 70, "hovedstruk": "Reservationer til overordnede kollektive trafikanlæg", "navn_gen": "Øvrige stationer", "navn_spec": null, "st_navn": "Skibstrup", "kode": "3", "kortbilag": "G i FP19", "dato_ret": 20190122.0}, "bbox": [718611.728, 6220362.0378, 718611.728, 6220362.0378]}, {"type": "Feature", "id": "theme-fp19vf_stationer_ovr.78", "geometry": {"type": "MultiPoint", "coordinates": [[12.5380586, 56.0750438]]}, "geometry_name": "wkb_geometry", "properties": {"id": 71, "hovedstruk": "Reservationer til overordnede kollektive trafikanlæg", "navn_gen": "Øvrige stationer", "navn_spec": null, "st_navn": "Ålsgårde", "kode": "3", "kortbilag": "G i FP19", "dato_ret": 20190122.0}, "bbox": [720180.4537, 6220075.627, 720180.4537, 6220075.627]}, {"type": "Feature", "id": "theme-fp19vf_stationer_ovr.79", "geometry": {"type": "MultiPoint", "coordinates": [[12.5542642, 56.0664094]]}, "geometry_name": "wkb_geometry", "properties": {"id": 72, "hovedstruk": "Reservationer til overordnede kollektive trafikanlæg", "navn_gen": "Øvrige stationer", "navn_spec": null, "st_navn": "Hellebæk", "kode": "3", "kortbilag": "G i FP19", "dato_ret": 20190122.0}, "bbox": [721237.963, 6219167.1692, 721237.963, 6219167.1692]}, {"type": "Feature", "id": "theme-fp19vf_stationer_ovr.80", "geometry": {"type": "MultiPoint", "coordinates": [[12.5933204, 56.0480552]]}, "geometry_name": "wkb_geometry", "properties": {"id": 73, "hovedstruk": "Reservationer til overordnede kollektive trafikanlæg", "navn_gen": "Øvrige stationer", "navn_spec": null, "st_navn": "Højstrup", "kode": "3", "kortbilag": "G i FP19", "dato_ret": 20190122.0}, "bbox": [723774.1973, 6217251.8029, 723774.1973, 6217251.8029]}, {"type": "Feature", "id": "theme-fp19vf_stationer_ovr.81", "geometry": {"type": "MultiPoint", "coordinates": [[12.6033477, 56.0432904]]}, "geometry_name": "wkb_geometry", "properties": {"id": 74, "hovedstruk": "Reservationer til overordnede kollektive trafikanlæg", "navn_gen": "Øvrige stationer", "navn_spec": null, "st_navn": "Marienlyst", "kode": "3", "kortbilag": "G i FP19", "dato_ret": 20190122.0}, "bbox": [724426.0153, 6216754.4404, 724426.0153, 6216754.4404]}], "totalFeatures": 81, "numberMatched": 81, "numberReturned": 81, "timeStamp": "2026-09-22T18:10:55.710Z", "crs": {"type": "name", "properties": {"name": "urn:ogc:def:crs:OGC:1.3:CRS84"}}, "bbox": [677636.9988, 6128348.9699, 724922.27, 6224746.0099]}