{"type": "FeatureCollection", "features": [{"type": "Feature", "id": "theme-fp19vf_stationer.1", "geometry": {"type": "MultiPoint", "coordinates": [[12.5918535, 55.7076311]]}, "geometry_name": "wkb_geometry", "properties": {"id": 139, "hovedstruk": "Reservationer til overordnede kollektive trafikanlæg", "navn_gen": "Stationer", "navn_spec": "Stationsnære byggemuligheder", "st_navn": "Nordhavn", "kode": "1", "kortbilag": "G i FP19", "dato_ret": 20190303.0}, "bbox": [725650.2934, 6179387.141, 725650.2934, 6179387.141]}, {"type": "Feature", "id": "theme-fp19vf_stationer.2", "geometry": {"type": "MultiPoint", "coordinates": [[12.5876475, 55.6927533]]}, "geometry_name": "wkb_geometry", "properties": {"id": 60, "hovedstruk": "Reservationer til overordnede kollektive trafikanlæg", "navn_gen": "Stationer", "navn_spec": "Stationsnære byggemuligheder", "st_navn": "Østerport", "kode": "1", "kortbilag": "G i FP19", "dato_ret": 20190122.0}, "bbox": [725471.8851, 6177718.8544, 725471.8851, 6177718.8544]}, {"type": "Feature", "id": "theme-fp19vf_stationer.3", "geometry": {"type": "MultiPoint", "coordinates": [[12.5667776, 55.6719322]]}, "geometry_name": "wkb_geometry", "properties": {"id": 62, "hovedstruk": "Reservationer til overordnede kollektive trafikanlæg", "navn_gen": "Stationer", "navn_spec": "Stationsnære byggemuligheder", "st_navn": "København H", "kode": "1", "kortbilag": "G i FP19", "dato_ret": 20190122.0}, "bbox": [724280.1161, 6175335.5877, 724280.1161, 6175335.5877]}, {"type": "Feature", "id": "theme-fp19vf_stationer.4", "geometry": {"type": "MultiPoint", "coordinates": [[12.5563542, 55.6540774]]}, "geometry_name": "wkb_geometry", "properties": {"id": 121, "hovedstruk": "Reservationer til overordnede kollektive trafikanlæg", "navn_gen": "Stationer", "navn_spec": "Stationsnære byggemuligheder", "st_navn": "Enghave Brygge", "kode": "1", "kortbilag": "G i FP19", "dato_ret": 20190122.0}, "bbox": [723726.9012, 6173316.2229, 723726.9012, 6173316.2229]}, {"type": "Feature", "id": "theme-fp19vf_stationer.5", "geometry": {"type": "MultiPoint", "coordinates": [[12.3333581, 55.5974829]]}, "geometry_name": "wkb_geometry", "properties": {"id": 1, "hovedstruk": "Reservationer til overordnede kollektive trafikanlæg", "navn_gen": "Stationer", "navn_spec": "Stationsnære byggemuligheder", "st_navn": "Hundige", "kode": "1", "kortbilag": "G i FP19", "dato_ret": 20190122.0}, "bbox": [710006.974, 6166324.721, 710006.974, 6166324.721]}, {"type": "Feature", "id": "theme-fp19vf_stationer.6", "geometry": {"type": "MultiPoint", "coordinates": [[12.2689512, 55.5660473]]}, "geometry_name": "wkb_geometry", "properties": {"id": 2, "hovedstruk": "Reservationer til overordnede kollektive trafikanlæg", "navn_gen": "Stationer", "navn_spec": "Stationsnære byggemuligheder", "st_navn": "Karlslunde", "kode": "1", "kortbilag": "G i FP19", "dato_ret": 20190122.0}, "bbox": [706115.581, 6162635.287, 706115.581, 6162635.287]}, {"type": "Feature", "id": "theme-fp19vf_stationer.7", "geometry": {"type": "MultiPoint", "coordinates": [[12.2961773, 55.5814683]]}, "geometry_name": "wkb_geometry", "properties": {"id": 3, "hovedstruk": "Reservationer til overordnede kollektive trafikanlæg", "navn_gen": "Stationer", "navn_spec": "Stationsnære byggemuligheder", "st_navn": "Greve", "kode": "1", "kortbilag": "G i FP19", "dato_ret": 20190122.0}, "bbox": [707750.097, 6164431.626, 707750.097, 6164431.626]}, {"type": "Feature", "id": "theme-fp19vf_stationer.8", "geometry": {"type": "MultiPoint", "coordinates": [[12.18568, 55.7796073]]}, "geometry_name": "wkb_geometry", "properties": {"id": 39, "hovedstruk": "Reservationer til overordnede kollektive trafikanlæg", "navn_gen": "Stationer", "navn_spec": "Stationsnære byggemuligheder", "st_navn": "Egedal", "kode": "1", "kortbilag": "G i FP19", "dato_ret": 20190122.0}, "bbox": [699775.267, 6186145.19, 699775.267, 6186145.19]}, {"type": "Feature", "id": "theme-fp19vf_stationer.9", "geometry": {"type": "MultiPoint", "coordinates": [[12.2401541, 55.7498908]]}, "geometry_name": "wkb_geometry", "properties": {"id": 41, "hovedstruk": "Reservationer til overordnede kollektive trafikanlæg", "navn_gen": "Stationer", "navn_spec": "Stationsnære byggemuligheder", "st_navn": "Veksø", "kode": "1", "kortbilag": "G i FP19", "dato_ret": 20190122.0}, "bbox": [703344.73, 6182998.4, 703344.73, 6182998.4]}, {"type": "Feature", "id": "theme-fp19vf_stationer.10", "geometry": {"type": "MultiPoint", "coordinates": [[12.5066239, 55.9337529]]}, "geometry_name": "wkb_geometry", "properties": {"id": 78, "hovedstruk": "Reservationer til overordnede kollektive trafikanlæg", "navn_gen": "Stationer", "navn_spec": "Stationsnære byggemuligheder", "st_navn": "Nivå", "kode": "1", "kortbilag": "G i FP19", "dato_ret": 20190122.0}, "bbox": [719023.5, 6204261.5, 719023.5, 6204261.5]}, {"type": "Feature", "id": "theme-fp19vf_stationer.11", "geometry": {"type": "MultiPoint", "coordinates": [[12.132283, 55.6479729]]}, "geometry_name": "wkb_geometry", "properties": {"id": 4, "hovedstruk": "Reservationer til overordnede kollektive trafikanlæg", "navn_gen": "Stationer", "navn_spec": "Stationsnære byggemuligheder", "st_navn": "Trekroner", "kode": "1", "kortbilag": "G i FP19", "dato_ret": 20190122.0}, "bbox": [697089.977, 6171350.571, 697089.977, 6171350.571]}, {"type": "Feature", "id": "theme-fp19vf_stationer.12", "geometry": {"type": "MultiPoint", "coordinates": [[12.1757301, 55.479771]]}, "geometry_name": "wkb_geometry", "properties": {"id": 7, "hovedstruk": "Reservationer til overordnede kollektive trafikanlæg", "navn_gen": "Stationer", "navn_spec": "Stationsnære byggemuligheder", "st_navn": "Ølby", "kode": "1", "kortbilag": "G i FP19", "dato_ret": 20190122.0}, "bbox": [700678.88, 6152766.175, 700678.88, 6152766.175]}, {"type": "Feature", "id": "theme-fp19vf_stationer.13", "geometry": {"type": "MultiPoint", "coordinates": [[12.2084257, 55.5206258]]}, "geometry_name": "wkb_geometry", "properties": {"id": 8, "hovedstruk": "Reservationer til overordnede kollektive trafikanlæg", "navn_gen": "Stationer", "navn_spec": "Stationsnære byggemuligheder", "st_navn": "Jersie", "kode": "1", "kortbilag": "G i FP19", "dato_ret": 20190122.0}, "bbox": [702534.262, 6157405.18, 702534.262, 6157405.18]}, {"type": "Feature", "id": "theme-fp19vf_stationer.14", "geometry": {"type": "MultiPoint", "coordinates": [[12.2180431, 55.5332609]]}, "geometry_name": "wkb_geometry", "properties": {"id": 9, "hovedstruk": "Reservationer til overordnede kollektive trafikanlæg", "navn_gen": "Stationer", "navn_spec": "Stationsnære byggemuligheder", "st_navn": "Solrød Strand", "kode": "1", "kortbilag": "G i FP19", "dato_ret": 20190122.0}, "bbox": [703076.001, 6158838.618, 703076.001, 6158838.618]}, {"type": "Feature", "id": "theme-fp19vf_stationer.15", "geometry": {"type": "MultiPoint", "coordinates": [[12.4724102, 55.7571793]]}, "geometry_name": "wkb_geometry", "properties": {"id": 10, "hovedstruk": "Reservationer til overordnede kollektive trafikanlæg", "navn_gen": "Stationer", "navn_spec": "Stationsnære byggemuligheder", "st_navn": "Stengården", "kode": "1", "kortbilag": "G i FP19", "dato_ret": 20190122.0}, "bbox": [717873.607, 6184515.277, 717873.607, 6184515.277]}, {"type": "Feature", "id": "theme-fp19vf_stationer.16", "geometry": {"type": "MultiPoint", "coordinates": [[12.4340296, 55.7652302]]}, "geometry_name": "wkb_geometry", "properties": {"id": 11, "hovedstruk": "Reservationer til overordnede kollektive trafikanlæg", "navn_gen": "Stationer", "navn_spec": "Stationsnære byggemuligheder", "st_navn": "Skovbrynet", "kode": "1", "kortbilag": "G i FP19", "dato_ret": 20190122.0}, "bbox": [715422.093, 6185290.619, 715422.093, 6185290.619]}, {"type": "Feature", "id": "theme-fp19vf_stationer.17", "geometry": {"type": "MultiPoint", "coordinates": [[12.4929777, 55.747358]]}, "geometry_name": "wkb_geometry", "properties": {"id": 12, "hovedstruk": "Reservationer til overordnede kollektive trafikanlæg", "navn_gen": "Stationer", "navn_spec": "Stationsnære byggemuligheder", "st_navn": "Buddinge", "kode": "1", "kortbilag": "G i FP19", "dato_ret": 20190122.0}, "bbox": [719218.63, 6183487.88, 719218.63, 6183487.88]}, {"type": "Feature", "id": "theme-fp19vf_stationer.18", "geometry": {"type": "MultiPoint", "coordinates": [[12.5078412, 55.7446959]]}, "geometry_name": "wkb_geometry", "properties": {"id": 13, "hovedstruk": "Reservationer til overordnede kollektive trafikanlæg", "navn_gen": "Stationer", "navn_spec": "Stationsnære byggemuligheder", "st_navn": "Kildebakke", "kode": "1", "kortbilag": "G i FP19", "dato_ret": 20190122.0}, "bbox": [720166.036, 6183238.958, 720166.036, 6183238.958]}, {"type": "Feature", "id": "theme-fp19vf_stationer.19", "geometry": {"type": "MultiPoint", "coordinates": [[12.4557015, 55.7615255]]}, "geometry_name": "wkb_geometry", "properties": {"id": 14, "hovedstruk": "Reservationer til overordnede kollektive trafikanlæg", "navn_gen": "Stationer", "navn_spec": "Stationsnære byggemuligheder", "st_navn": "Bagsværd", "kode": "1", "kortbilag": "G i FP19", "dato_ret": 20190122.0}, "bbox": [716801.57, 6184946.22, 716801.57, 6184946.22]}, {"type": "Feature", "id": "theme-fp19vf_stationer.20", "geometry": {"type": "MultiPoint", "coordinates": [[12.35675, 55.8712974]]}, "geometry_name": "wkb_geometry", "properties": {"id": 15, "hovedstruk": "Reservationer til overordnede kollektive trafikanlæg", "navn_gen": "Stationer", "navn_spec": "Stationsnære byggemuligheder", "st_navn": "Allerød", "kode": "1", "kortbilag": "G i FP19", "dato_ret": 20190122.0}, "bbox": [710003.868, 6196850.106, 710003.868, 6196850.106]}, {"type": "Feature", "id": "theme-fp19vf_stationer.21", "geometry": {"type": "MultiPoint", "coordinates": [[12.1972028, 55.6488447]]}, "geometry_name": "wkb_geometry", "properties": {"id": 16, "hovedstruk": "Reservationer til overordnede kollektive trafikanlæg", "navn_gen": "Stationer", "navn_spec": "Stationsnære byggemuligheder", "st_navn": "Hedehusene", "kode": "1", "kortbilag": "G i FP19", "dato_ret": 20190122.0}, "bbox": [701168.874, 6171633.935, 701168.874, 6171633.935]}, {"type": "Feature", "id": "theme-fp19vf_stationer.22", "geometry": {"type": "MultiPoint", "coordinates": [[12.5412714, 55.7536001]]}, "geometry_name": "wkb_geometry", "properties": {"id": 19, "hovedstruk": "Reservationer til overordnede kollektive trafikanlæg", "navn_gen": "Stationer", "navn_spec": "Stationsnære byggemuligheder", "st_navn": "Gentofte", "kode": "1", "kortbilag": "G i FP19", "dato_ret": 20190122.0}, "bbox": [722212.614, 6184336.002, 722212.614, 6184336.002]}, {"type": "Feature", "id": "theme-fp19vf_stationer.23", "geometry": {"type": "MultiPoint", "coordinates": [[12.5885893, 55.776368]]}, "geometry_name": "wkb_geometry", "properties": {"id": 20, "hovedstruk": "Reservationer til overordnede kollektive trafikanlæg", "navn_gen": "Stationer", "navn_spec": "Stationsnære byggemuligheder", "st_navn": "Klampenborg", "kode": "1", "kortbilag": "G i FP19", "dato_ret": 20190122.0}, "bbox": [725049.082, 6187020.923, 725049.082, 6187020.923]}, {"type": "Feature", "id": "theme-fp19vf_stationer.24", "geometry": {"type": "MultiPoint", "coordinates": [[12.5720833, 55.7513807]]}, "geometry_name": "wkb_geometry", "properties": {"id": 21, "hovedstruk": "Reservationer til overordnede kollektive trafikanlæg", "navn_gen": "Stationer", "navn_spec": "Stationsnære byggemuligheder", "st_navn": "Charlottenlund", "kode": "1", "kortbilag": "G i FP19", "dato_ret": 20190122.0}, "bbox": [724157.862, 6184188.465, 724157.862, 6184188.465]}, {"type": "Feature", "id": "theme-fp19vf_stationer.25", "geometry": {"type": "MultiPoint", "coordinates": [[12.5577108, 55.7430127]]}, "geometry_name": "wkb_geometry", "properties": {"id": 22, "hovedstruk": "Reservationer til overordnede kollektive trafikanlæg", "navn_gen": "Stationer", "navn_spec": "Stationsnære byggemuligheder", "st_navn": "Bernstorffsvej", "kode": "1", "kortbilag": "G i FP19", "dato_ret": 20190122.0}, "bbox": [723304.2, 6183211.4, 723304.2, 6183211.4]}, {"type": "Feature", "id": "theme-fp19vf_stationer.26", "geometry": {"type": "MultiPoint", "coordinates": [[12.5216646, 55.7616088]]}, "geometry_name": "wkb_geometry", "properties": {"id": 23, "hovedstruk": "Reservationer til overordnede kollektive trafikanlæg", "navn_gen": "Stationer", "navn_spec": "Stationsnære byggemuligheder", "st_navn": "Jægersborg", "kode": "1", "kortbilag": "G i FP19", "dato_ret": 20190122.0}, "bbox": [720937.557, 6185163.962, 720937.557, 6185163.962]}, {"type": "Feature", "id": "theme-fp19vf_stationer.27", "geometry": {"type": "MultiPoint", "coordinates": [[12.5834868, 55.7628424]]}, "geometry_name": "wkb_geometry", "properties": {"id": 24, "hovedstruk": "Reservationer til overordnede kollektive trafikanlæg", "navn_gen": "Stationer", "navn_spec": "Stationsnære byggemuligheder", "st_navn": "Ordrup", "kode": "1", "kortbilag": "G i FP19", "dato_ret": 20190122.0}, "bbox": [724807.132, 6185500.127, 724807.132, 6185500.127]}, {"type": "Feature", "id": "theme-fp19vf_stationer.28", "geometry": {"type": "MultiPoint", "coordinates": [[12.5497015, 55.995734]]}, "geometry_name": "wkb_geometry", "properties": {"id": 111, "hovedstruk": "Reservationer til overordnede kollektive trafikanlæg", "navn_gen": "Stationer", "navn_spec": "Stationsnære byggemuligheder", "st_navn": "Espergærde", "kode": "1", "kortbilag": "G i FP19", "dato_ret": 20190122.0}, "bbox": [721358.48, 6211292.204, 721358.48, 6211292.204]}, {"type": "Feature", "id": "theme-fp19vf_stationer.29", "geometry": {"type": "MultiPoint", "coordinates": [[12.4211314, 55.6210688]]}, "geometry_name": "wkb_geometry", "properties": {"id": 25, "hovedstruk": "Reservationer til overordnede kollektive trafikanlæg", "navn_gen": "Stationer", "navn_spec": "Stationsnære byggemuligheder", "st_navn": "Brøndby Strand", "kode": "1", "kortbilag": "G i FP19", "dato_ret": 20190122.0}, "bbox": [715405.08, 6169217.04, 715405.08, 6169217.04]}, {"type": "Feature", "id": "theme-fp19vf_stationer.30", "geometry": {"type": "MultiPoint", "coordinates": [[12.4417451, 55.6651036]]}, "geometry_name": "wkb_geometry", "properties": {"id": 26, "hovedstruk": "Reservationer til overordnede kollektive trafikanlæg", "navn_gen": "Stationer", "navn_spec": "Stationsnære byggemuligheder", "st_navn": "Brøndbyøster", "kode": "1", "kortbilag": "G i FP19", "dato_ret": 20190122.0}, "bbox": [716459.26, 6174178.7, 716459.26, 6174178.7]}, {"type": "Feature", "id": "theme-fp19vf_stationer.31", "geometry": {"type": "MultiPoint", "coordinates": [[12.3867536, 55.6233056]]}, "geometry_name": "wkb_geometry", "properties": {"id": 27, "hovedstruk": "Reservationer til overordnede kollektive trafikanlæg", "navn_gen": "Stationer", "navn_spec": "Stationsnære byggemuligheder", "st_navn": "Vallensbæk", "kode": "1", "kortbilag": "G i FP19", "dato_ret": 20190122.0}, "bbox": [713229.31, 6169359.61, 713229.31, 6169359.61]}, {"type": "Feature", "id": "theme-fp19vf_stationer.32", "geometry": {"type": "MultiPoint", "coordinates": [[12.4727607, 55.79659]]}, "geometry_name": "wkb_geometry", "properties": {"id": 28, "hovedstruk": "Reservationer til overordnede kollektive trafikanlæg", "navn_gen": "Stationer", "navn_spec": "Stationsnære byggemuligheder", "st_navn": "Virum", "kode": "1", "kortbilag": "G i FP19", "dato_ret": 20190122.0}, "bbox": [717675.649, 6188899.56, 717675.649, 6188899.56]}, {"type": "Feature", "id": "theme-fp19vf_stationer.33", "geometry": {"type": "MultiPoint", "coordinates": [[12.4845484, 55.7808517]]}, "geometry_name": "wkb_geometry", "properties": {"id": 29, "hovedstruk": "Reservationer til overordnede kollektive trafikanlæg", "navn_gen": "Stationer", "navn_spec": "Stationsnære byggemuligheder", "st_navn": "Sorgenfri", "kode": "1", "kortbilag": "G i FP19", "dato_ret": 20190122.0}, "bbox": [718502.32, 6187186.32, 718502.32, 6187186.32]}, {"type": "Feature", "id": "theme-fp19vf_stationer.34", "geometry": {"type": "MultiPoint", "coordinates": [[12.5028823, 55.7681657]]}, "geometry_name": "wkb_geometry", "properties": {"id": 30, "hovedstruk": "Reservationer til overordnede kollektive trafikanlæg", "navn_gen": "Stationer", "navn_spec": "Stationsnære byggemuligheder", "st_navn": "Lyngby", "kode": "1", "kortbilag": "G i FP19", "dato_ret": 20190122.0}, "bbox": [719722.855, 6185833.438, 719722.855, 6185833.438]}, {"type": "Feature", "id": "theme-fp19vf_stationer.35", "geometry": {"type": "MultiPoint", "coordinates": [[12.5252325, 55.7390209]]}, "geometry_name": "wkb_geometry", "properties": {"id": 31, "hovedstruk": "Reservationer til overordnede kollektive trafikanlæg", "navn_gen": "Stationer", "navn_spec": "Stationsnære byggemuligheder", "st_navn": "Vangede", "kode": "1", "kortbilag": "G i FP19", "dato_ret": 20190122.0}, "bbox": [721289.21, 6182663.22, 721289.21, 6182663.22]}, {"type": "Feature", "id": "theme-fp19vf_stationer.36", "geometry": {"type": "MultiPoint", "coordinates": [[12.5356368, 55.7329322]]}, "geometry_name": "wkb_geometry", "properties": {"id": 32, "hovedstruk": "Reservationer til overordnede kollektive trafikanlæg", "navn_gen": "Stationer", "navn_spec": "Stationsnære byggemuligheder", "st_navn": "Dyssegård", "kode": "1", "kortbilag": "G i FP19", "dato_ret": 20190122.0}, "bbox": [721976.595, 6182019.359, 721976.595, 6182019.359]}, {"type": "Feature", "id": "theme-fp19vf_stationer.37", "geometry": {"type": "MultiPoint", "coordinates": [[12.3178612, 55.7474829]]}, "geometry_name": "wkb_geometry", "properties": {"id": 33, "hovedstruk": "Reservationer til overordnede kollektive trafikanlæg", "navn_gen": "Stationer", "navn_spec": "Stationsnære byggemuligheder", "st_navn": "Måløv", "kode": "1", "kortbilag": "G i FP19", "dato_ret": 20190122.0}, "bbox": [708232.31, 6182961.44, 708232.31, 6182961.44]}, {"type": "Feature", "id": "theme-fp19vf_stationer.38", "geometry": {"type": "MultiPoint", "coordinates": [[12.2870463, 55.751864]]}, "geometry_name": "wkb_geometry", "properties": {"id": 34, "hovedstruk": "Reservationer til overordnede kollektive trafikanlæg", "navn_gen": "Stationer", "navn_spec": "Stationsnære byggemuligheder", "st_navn": "Kildedal", "kode": "1", "kortbilag": "G i FP19", "dato_ret": 20190122.0}, "bbox": [706275.984, 6183356.527, 706275.984, 6183356.527]}, {"type": "Feature", "id": "theme-fp19vf_stationer.39", "geometry": {"type": "MultiPoint", "coordinates": [[12.3864893, 55.7245387]]}, "geometry_name": "wkb_geometry", "properties": {"id": 35, "hovedstruk": "Reservationer til overordnede kollektive trafikanlæg", "navn_gen": "Stationer", "navn_spec": "Stationsnære byggemuligheder", "st_navn": "Malmparken", "kode": "1", "kortbilag": "G i FP19", "dato_ret": 20190122.0}, "bbox": [712662.455, 6180617.999, 712662.455, 6180617.999]}, {"type": "Feature", "id": "theme-fp19vf_stationer.40", "geometry": {"type": "MultiPoint", "coordinates": [[12.3974842, 55.6629601]]}, "geometry_name": "wkb_geometry", "properties": {"id": 37, "hovedstruk": "Reservationer til overordnede kollektive trafikanlæg", "navn_gen": "Stationer", "navn_spec": "Stationsnære byggemuligheder", "st_navn": "Glostrup", "kode": "1", "kortbilag": "G i FP19", "dato_ret": 20190122.0}, "bbox": [713688.473, 6173803.012, 713688.473, 6173803.012]}, {"type": "Feature", "id": "theme-fp19vf_stationer.41", "geometry": {"type": "MultiPoint", "coordinates": [[12.1897998, 55.7677911]]}, "geometry_name": "wkb_geometry", "properties": {"id": 38, "hovedstruk": "Reservationer til overordnede kollektive trafikanlæg", "navn_gen": "Stationer", "navn_spec": "Stationsnære byggemuligheder", "st_navn": "Stenløse", "kode": "1", "kortbilag": "G i FP19", "dato_ret": 20190122.0}, "bbox": [700094.09, 6184842.77, 700094.09, 6184842.77]}, {"type": "Feature", "id": "theme-fp19vf_stationer.42", "geometry": {"type": "MultiPoint", "coordinates": [[12.1864466, 55.4575001]]}, "geometry_name": "wkb_geometry", "properties": {"id": 6, "hovedstruk": "Reservationer til overordnede kollektive trafikanlæg", "navn_gen": "Stationer", "navn_spec": "Udvidet stationsnært kerneområde", "st_navn": "Køge", "kode": "2", "kortbilag": "G i FP19", "dato_ret": 20190122.0}, "bbox": [701469.428, 6150320.071, 701469.428, 6150320.071]}, {"type": "Feature", "id": "theme-fp19vf_stationer.43", "geometry": {"type": "MultiPoint", "coordinates": [[12.0883927, 55.6389296]]}, "geometry_name": "wkb_geometry", "properties": {"id": 5, "hovedstruk": "Reservationer til overordnede kollektive trafikanlæg", "navn_gen": "Stationer", "navn_spec": "Udvidet stationsnært kerneområde", "st_navn": "Roskilde", "kode": "2", "kortbilag": "G i FP19", "dato_ret": 20190122.0}, "bbox": [694374.093, 6170220.813, 694374.093, 6170220.813]}, {"type": "Feature", "id": "theme-fp19vf_stationer.44", "geometry": {"type": "MultiPoint", "coordinates": [[12.5023229, 55.9034726]]}, "geometry_name": "wkb_geometry", "properties": {"id": 42, "hovedstruk": "Reservationer til overordnede kollektive trafikanlæg", "navn_gen": "Stationer", "navn_spec": "Stationsnære byggemuligheder", "st_navn": "Kokkedal", "kode": "1", "kortbilag": "G i FP19", "dato_ret": 20190122.0}, "bbox": [718925.698, 6200880.151, 718925.698, 6200880.151]}, {"type": "Feature", "id": "theme-fp19vf_stationer.45", "geometry": {"type": "MultiPoint", "coordinates": [[12.531534, 55.8822017]]}, "geometry_name": "wkb_geometry", "properties": {"id": 43, "hovedstruk": "Reservationer til overordnede kollektive trafikanlæg", "navn_gen": "Stationer", "navn_spec": "Stationsnære byggemuligheder", "st_navn": "Rungsted", "kode": "1", "kortbilag": "G i FP19", "dato_ret": 20190122.0}, "bbox": [720871.677, 6198607.357, 720871.677, 6198607.357]}, {"type": "Feature", "id": "theme-fp19vf_stationer.46", "geometry": {"type": "MultiPoint", "coordinates": [[12.444492, 55.7185608]]}, "geometry_name": "wkb_geometry", "properties": {"id": 45, "hovedstruk": "Reservationer til overordnede kollektive trafikanlæg", "navn_gen": "Stationer", "navn_spec": "Stationsnære byggemuligheder", "st_navn": "Herlev", "kode": "1", "kortbilag": "G i FP19", "dato_ret": 20190122.0}, "bbox": [716336.344, 6180132.703, 716336.344, 6180132.703]}, {"type": "Feature", "id": "theme-fp19vf_stationer.47", "geometry": {"type": "MultiPoint", "coordinates": [[12.3740413, 55.8118251]]}, "geometry_name": "wkb_geometry", "properties": {"id": 46, "hovedstruk": "Reservationer til overordnede kollektive trafikanlæg", "navn_gen": "Stationer", "navn_spec": "Stationsnære byggemuligheder", "st_navn": "Farum", "kode": "1", "kortbilag": "G i FP19", "dato_ret": 20190122.0}, "bbox": [711407.88, 6190288.04, 711407.88, 6190288.04]}, {"type": "Feature", "id": "theme-fp19vf_stationer.48", "geometry": {"type": "MultiPoint", "coordinates": [[12.4072211, 55.7655786]]}, "geometry_name": "wkb_geometry", "properties": {"id": 48, "hovedstruk": "Reservationer til overordnede kollektive trafikanlæg", "navn_gen": "Stationer", "navn_spec": "Stationsnære byggemuligheder", "st_navn": "Hareskov", "kode": "1", "kortbilag": "G i FP19", "dato_ret": 20190122.0}, "bbox": [713739.179, 6185246.302, 713739.179, 6185246.302]}, {"type": "Feature", "id": "theme-fp19vf_stationer.49", "geometry": {"type": "MultiPoint", "coordinates": [[12.3577571, 55.6134037]]}, "geometry_name": "wkb_geometry", "properties": {"id": 49, "hovedstruk": "Reservationer til overordnede kollektive trafikanlæg", "navn_gen": "Stationer", "navn_spec": "Stationsnære byggemuligheder", "st_navn": "Ishøj", "kode": "1", "kortbilag": "G i FP19", "dato_ret": 20190122.0}, "bbox": [711457.786, 6168169.56, 711457.786, 6168169.56]}, {"type": "Feature", "id": "theme-fp19vf_stationer.50", "geometry": {"type": "MultiPoint", "coordinates": [[12.4637047, 55.7097571]]}, "geometry_name": "wkb_geometry", "properties": {"id": 50, "hovedstruk": "Reservationer til overordnede kollektive trafikanlæg", "navn_gen": "Stationer", "navn_spec": "Stationsnære byggemuligheder", "st_navn": "Husum", "kode": "1", "kortbilag": "G i FP19", "dato_ret": 20190122.0}, "bbox": [717591.453, 6179213.732, 717591.453, 6179213.732]}, {"type": "Feature", "id": "theme-fp19vf_stationer.51", "geometry": {"type": "MultiPoint", "coordinates": [[12.5410807, 55.7206801]]}, "geometry_name": "wkb_geometry", "properties": {"id": 51, "hovedstruk": "Reservationer til overordnede kollektive trafikanlæg", "navn_gen": "Stationer", "navn_spec": "Stationsnære byggemuligheder", "st_navn": "Emdrup", "kode": "1", "kortbilag": "G i FP19", "dato_ret": 20190122.0}, "bbox": [722387.902, 6180674.205, 722387.902, 6180674.205]}, {"type": "Feature", "id": "theme-fp19vf_stationer.52", "geometry": {"type": "MultiPoint", "coordinates": [[12.4991084, 55.6597699]]}, "geometry_name": "wkb_geometry", "properties": {"id": 52, "hovedstruk": "Reservationer til overordnede kollektive trafikanlæg", "navn_gen": "Stationer", "navn_spec": "Stationsnære byggemuligheder", "st_navn": "Vigerslev Alle", "kode": "1", "kortbilag": "G i FP19", "dato_ret": 20190122.0}, "bbox": [720095.3, 6173766.1, 720095.3, 6173766.1]}, {"type": "Feature", "id": "theme-fp19vf_stationer.53", "geometry": {"type": "MultiPoint", "coordinates": [[12.5349858, 55.6634162]]}, "geometry_name": "wkb_geometry", "properties": {"id": 53, "hovedstruk": "Reservationer til overordnede kollektive trafikanlæg", "navn_gen": "Stationer", "navn_spec": "Stationsnære byggemuligheder", "st_navn": "Carlsberg", "kode": "1", "kortbilag": "G i FP19", "dato_ret": 20190122.0}, "bbox": [722330.277, 6174286.09, 722330.277, 6174286.09]}, {"type": "Feature", "id": "theme-fp19vf_stationer.54", "geometry": {"type": "MultiPoint", "coordinates": [[12.5415957, 55.7063435]]}, "geometry_name": "wkb_geometry", "properties": {"id": 54, "hovedstruk": "Reservationer til overordnede kollektive trafikanlæg", "navn_gen": "Stationer", "navn_spec": "Stationsnære byggemuligheder", "st_navn": "Bispebjerg", "kode": "1", "kortbilag": "G i FP19", "dato_ret": 20190122.0}, "bbox": [722501.762, 6179081.425, 722501.762, 6179081.425]}, {"type": "Feature", "id": "theme-fp19vf_stationer.55", "geometry": {"type": "MultiPoint", "coordinates": [[12.4908469, 55.6872451]]}, "geometry_name": "wkb_geometry", "properties": {"id": 55, "hovedstruk": "Reservationer til overordnede kollektive trafikanlæg", "navn_gen": "Stationer", "navn_spec": "Stationsnære byggemuligheder", "st_navn": "Vanløse", "kode": "1", "kortbilag": "G i FP19", "dato_ret": 20190122.0}, "bbox": [719421.94, 6176795.59, 719421.94, 6176795.59]}, {"type": "Feature", "id": "theme-fp19vf_stationer.56", "geometry": {"type": "MultiPoint", "coordinates": [[12.5144202, 55.6638588]]}, "geometry_name": "wkb_geometry", "properties": {"id": 56, "hovedstruk": "Reservationer til overordnede kollektive trafikanlæg", "navn_gen": "Stationer", "navn_spec": "Stationsnære byggemuligheder", "st_navn": "Valby", "kode": "1", "kortbilag": "G i FP19", "dato_ret": 20190122.0}, "bbox": [721034.92, 6174269.55, 721034.92, 6174269.55]}, {"type": "Feature", "id": "theme-fp19vf_stationer.57", "geometry": {"type": "MultiPoint", "coordinates": [[12.4937221, 55.6642172]]}, "geometry_name": "wkb_geometry", "properties": {"id": 57, "hovedstruk": "Reservationer til overordnede kollektive trafikanlæg", "navn_gen": "Stationer", "navn_spec": "Stationsnære byggemuligheder", "st_navn": "Danshøj", "kode": "1", "kortbilag": "G i FP19", "dato_ret": 20190122.0}, "bbox": [719731.716, 6174243.616, 719731.716, 6174243.616]}, {"type": "Feature", "id": "theme-fp19vf_stationer.58", "geometry": {"type": "MultiPoint", "coordinates": [[12.469366, 55.698953]]}, "geometry_name": "wkb_geometry", "properties": {"id": 58, "hovedstruk": "Reservationer til overordnede kollektive trafikanlæg", "navn_gen": "Stationer", "navn_spec": "Stationsnære byggemuligheder", "st_navn": "Islev", "kode": "1", "kortbilag": "G i FP19", "dato_ret": 20190122.0}, "bbox": [718007.123, 6178029.919, 718007.123, 6178029.919]}, {"type": "Feature", "id": "theme-fp19vf_stationer.59", "geometry": {"type": "MultiPoint", "coordinates": [[12.5790068, 55.7154575]]}, "geometry_name": "wkb_geometry", "properties": {"id": 59, "hovedstruk": "Reservationer til overordnede kollektive trafikanlæg", "navn_gen": "Stationer", "navn_spec": "Stationsnære byggemuligheder", "st_navn": "Svanemøllen", "kode": "1", "kortbilag": "G i FP19", "dato_ret": 20190122.0}, "bbox": [724798.631, 6180215.774, 724798.631, 6180215.774]}, {"type": "Feature", "id": "theme-fp19vf_stationer.60", "geometry": {"type": "MultiPoint", "coordinates": [[12.4923751, 55.6776582]]}, "geometry_name": "wkb_geometry", "properties": {"id": 61, "hovedstruk": "Reservationer til overordnede kollektive trafikanlæg", "navn_gen": "Stationer", "navn_spec": "Stationsnære byggemuligheder", "st_navn": "KB Hallen", "kode": "1", "kortbilag": "G i FP19", "dato_ret": 20190122.0}, "bbox": [719571.701, 6175734.208, 719571.701, 6175734.208]}, {"type": "Feature", "id": "theme-fp19vf_stationer.61", "geometry": {"type": "MultiPoint", "coordinates": [[12.5625434, 55.6761077]]}, "geometry_name": "wkb_geometry", "properties": {"id": 63, "hovedstruk": "Reservationer til overordnede kollektive trafikanlæg", "navn_gen": "Stationer", "navn_spec": "Stationsnære byggemuligheder", "st_navn": "Vesterport", "kode": "1", "kortbilag": "G i FP19", "dato_ret": 20190122.0}, "bbox": [723990.117, 6175786.257, 723990.117, 6175786.257]}, {"type": "Feature", "id": "theme-fp19vf_stationer.62", "geometry": {"type": "MultiPoint", "coordinates": [[12.5599536, 55.6654329]]}, "geometry_name": "wkb_geometry", "properties": {"id": 64, "hovedstruk": "Reservationer til overordnede kollektive trafikanlæg", "navn_gen": "Stationer", "navn_spec": "Stationsnære byggemuligheder", "st_navn": "Dybbølsbro", "kode": "1", "kortbilag": "G i FP19", "dato_ret": 20190122.0}, "bbox": [723888.355, 6174590.724, 723888.355, 6174590.724]}, {"type": "Feature", "id": "theme-fp19vf_stationer.63", "geometry": {"type": "MultiPoint", "coordinates": [[12.5665421, 55.7310717]]}, "geometry_name": "wkb_geometry", "properties": {"id": 65, "hovedstruk": "Reservationer til overordnede kollektive trafikanlæg", "navn_gen": "Stationer", "navn_spec": "Stationsnære byggemuligheder", "st_navn": "Hellerup", "kode": "1", "kortbilag": "G i FP19", "dato_ret": 20190122.0}, "bbox": [723926.657, 6181911.907, 723926.657, 6181911.907]}, {"type": "Feature", "id": "theme-fp19vf_stationer.64", "geometry": {"type": "MultiPoint", "coordinates": [[12.5718131, 55.6833466]]}, "geometry_name": "wkb_geometry", "properties": {"id": 66, "hovedstruk": "Reservationer til overordnede kollektive trafikanlæg", "navn_gen": "Stationer", "navn_spec": "Stationsnære byggemuligheder", "st_navn": "Nørreport", "kode": "1", "kortbilag": "G i FP19", "dato_ret": 20190122.0}, "bbox": [724531.16, 6176621.307, 724531.16, 6176621.307]}, {"type": "Feature", "id": "theme-fp19vf_stationer.65", "geometry": {"type": "MultiPoint", "coordinates": [[12.5793201, 55.6283952]]}, "geometry_name": "wkb_geometry", "properties": {"id": 67, "hovedstruk": "Reservationer til overordnede kollektive trafikanlæg", "navn_gen": "Stationer", "navn_spec": "Stationsnære byggemuligheder", "st_navn": "Ørestad", "kode": "1", "kortbilag": "G i FP19", "dato_ret": 20190122.0}, "bbox": [725318.47, 6170534.4, 725318.47, 6170534.4]}, {"type": "Feature", "id": "theme-fp19vf_stationer.66", "geometry": {"type": "MultiPoint", "coordinates": [[12.5156485, 55.6907237]]}, "geometry_name": "wkb_geometry", "properties": {"id": 68, "hovedstruk": "Reservationer til overordnede kollektive trafikanlæg", "navn_gen": "Stationer", "navn_spec": "Stationsnære byggemuligheder", "st_navn": "Grøndal", "kode": "1", "kortbilag": "G i FP19", "dato_ret": 20190122.0}, "bbox": [720960.539, 6177261.251, 720960.539, 6177261.251]}, {"type": "Feature", "id": "theme-fp19vf_stationer.67", "geometry": {"type": "MultiPoint", "coordinates": [[12.5167314, 55.6525439]]}, "geometry_name": "wkb_geometry", "properties": {"id": 69, "hovedstruk": "Reservationer til overordnede kollektive trafikanlæg", "navn_gen": "Stationer", "navn_spec": "Stationsnære byggemuligheder", "st_navn": "Ny Ellebjerg", "kode": "1", "kortbilag": "G i FP19", "dato_ret": 20190122.0}, "bbox": [721244.067, 6173018.538, 721244.067, 6173018.538]}, {"type": "Feature", "id": "theme-fp19vf_stationer.68", "geometry": {"type": "MultiPoint", "coordinates": [[12.4775979, 55.6905287]]}, "geometry_name": "wkb_geometry", "properties": {"id": 70, "hovedstruk": "Reservationer til overordnede kollektive trafikanlæg", "navn_gen": "Stationer", "navn_spec": "Stationsnære byggemuligheder", "st_navn": "Jyllingevej", "kode": "1", "kortbilag": "G i FP19", "dato_ret": 20190122.0}, "bbox": [718571.202, 6177118.92, 718571.202, 6177118.92]}, {"type": "Feature", "id": "theme-fp19vf_stationer.69", "geometry": {"type": "MultiPoint", "coordinates": [[12.354587, 55.6581997]]}, "geometry_name": "wkb_geometry", "properties": {"id": 71, "hovedstruk": "Reservationer til overordnede kollektive trafikanlæg", "navn_gen": "Stationer", "navn_spec": "Stationsnære byggemuligheder", "st_navn": "Albertslund", "kode": "1", "kortbilag": "G i FP19", "dato_ret": 20190122.0}, "bbox": [711017.158, 6173142.18, 711017.158, 6173142.18]}, {"type": "Feature", "id": "theme-fp19vf_stationer.70", "geometry": {"type": "MultiPoint", "coordinates": [[12.4541114, 55.6253888]]}, "geometry_name": "wkb_geometry", "properties": {"id": 72, "hovedstruk": "Reservationer til overordnede kollektive trafikanlæg", "navn_gen": "Stationer", "navn_spec": "Stationsnære byggemuligheder", "st_navn": "Avedøre", "kode": "1", "kortbilag": "G i FP19", "dato_ret": 20190122.0}, "bbox": [717456.76, 6169800.406, 717456.76, 6169800.406]}, {"type": "Feature", "id": "theme-fp19vf_stationer.71", "geometry": {"type": "MultiPoint", "coordinates": [[12.4680806, 55.8069677]]}, "geometry_name": "wkb_geometry", "properties": {"id": 73, "hovedstruk": "Reservationer til overordnede kollektive trafikanlæg", "navn_gen": "Stationer", "navn_spec": "Stationsnære byggemuligheder", "st_navn": "Holte", "kode": "1", "kortbilag": "G i FP19", "dato_ret": 20190122.0}, "bbox": [717324.578, 6190039.046, 717324.578, 6190039.046]}, {"type": "Feature", "id": "theme-fp19vf_stationer.72", "geometry": {"type": "MultiPoint", "coordinates": [[12.5716006, 55.8232218]]}, "geometry_name": "wkb_geometry", "properties": {"id": 74, "hovedstruk": "Reservationer til overordnede kollektive trafikanlæg", "navn_gen": "Stationer", "navn_spec": "Stationsnære byggemuligheder", "st_navn": "Skodsborg", "kode": "1", "kortbilag": "G i FP19", "dato_ret": 20190122.0}, "bbox": [723715.185, 6192176.628, 723715.185, 6192176.628]}, {"type": "Feature", "id": "theme-fp19vf_stationer.73", "geometry": {"type": "MultiPoint", "coordinates": [[12.562386, 55.8528554]]}, "geometry_name": "wkb_geometry", "properties": {"id": 75, "hovedstruk": "Reservationer til overordnede kollektive trafikanlæg", "navn_gen": "Stationer", "navn_spec": "Stationsnære byggemuligheder", "st_navn": "Vedbæk", "kode": "1", "kortbilag": "G i FP19", "dato_ret": 20190122.0}, "bbox": [722968.51, 6195442.57, 722968.51, 6195442.57]}, {"type": "Feature", "id": "theme-fp19vf_stationer.74", "geometry": {"type": "MultiPoint", "coordinates": [[12.4230986, 55.8404964]]}, "geometry_name": "wkb_geometry", "properties": {"id": 76, "hovedstruk": "Reservationer til overordnede kollektive trafikanlæg", "navn_gen": "Stationer", "navn_spec": "Stationsnære byggemuligheder", "st_navn": "Birkerød", "kode": "1", "kortbilag": "G i FP19", "dato_ret": 20190122.0}, "bbox": [714322.522, 6193627.821, 714322.522, 6193627.821]}, {"type": "Feature", "id": "theme-fp19vf_stationer.75", "geometry": {"type": "MultiPoint", "coordinates": [[12.5330842, 55.9638965]]}, "geometry_name": "wkb_geometry", "properties": {"id": 77, "hovedstruk": "Reservationer til overordnede kollektive trafikanlæg", "navn_gen": "Stationer", "navn_spec": "Stationsnære byggemuligheder", "st_navn": "Humlebæk", "kode": "1", "kortbilag": "G i FP19", "dato_ret": 20190122.0}, "bbox": [720503.93, 6207698.16, 720503.93, 6207698.16]}, {"type": "Feature", "id": "theme-fp19vf_stationer.76", "geometry": {"type": "MultiPoint", "coordinates": [[12.0663925, 55.8347446]]}, "geometry_name": "wkb_geometry", "properties": {"id": 44, "hovedstruk": "Reservationer til overordnede kollektive trafikanlæg", "navn_gen": "Stationer", "navn_spec": "Udvidet stationsnært kerneområde", "st_navn": "Frederikssund", "kode": "2", "kortbilag": "G i FP19", "dato_ret": 20190122.0}, "bbox": [692025.617, 6191940.701, 692025.617, 6191940.701]}, {"type": "Feature", "id": "theme-fp19vf_stationer.77", "geometry": {"type": "MultiPoint", "coordinates": [[12.5131758, 55.6834451]]}, "geometry_name": "wkb_geometry", "properties": {"id": 79, "hovedstruk": "Reservationer til overordnede kollektive trafikanlæg", "navn_gen": "Stationer", "navn_spec": "Stationsnære byggemuligheder", "st_navn": "Lindevang", "kode": "1", "kortbilag": "G i FP19", "dato_ret": 20190122.0}, "bbox": [720846.246, 6176443.877, 720846.246, 6176443.877]}, {"type": "Feature", "id": "theme-fp19vf_stationer.78", "geometry": {"type": "MultiPoint", "coordinates": [[12.527083, 55.6953656]]}, "geometry_name": "wkb_geometry", "properties": {"id": 80, "hovedstruk": "Reservationer til overordnede kollektive trafikanlæg", "navn_gen": "Stationer", "navn_spec": "Stationsnære byggemuligheder", "st_navn": "Fuglebakken", "kode": "1", "kortbilag": "G i FP19", "dato_ret": 20190122.0}, "bbox": [721652.588, 6177814.01, 721652.588, 6177814.01]}, {"type": "Feature", "id": "theme-fp19vf_stationer.79", "geometry": {"type": "MultiPoint", "coordinates": [[12.4990823, 55.685686]]}, "geometry_name": "wkb_geometry", "properties": {"id": 81, "hovedstruk": "Reservationer til overordnede kollektive trafikanlæg", "navn_gen": "Stationer", "navn_spec": "Stationsnære byggemuligheder", "st_navn": "Flintholm", "kode": "1", "kortbilag": "G i FP19", "dato_ret": 20190122.0}, "bbox": [719948.11, 6176648.29, 719948.11, 6176648.29]}, {"type": "Feature", "id": "theme-fp19vf_stationer.80", "geometry": {"type": "MultiPoint", "coordinates": [[12.5036819, 55.6778902]]}, "geometry_name": "wkb_geometry", "properties": {"id": 82, "hovedstruk": "Reservationer til overordnede kollektive trafikanlæg", "navn_gen": "Stationer", "navn_spec": "Stationsnære byggemuligheder", "st_navn": "Peter Bangs Vej", "kode": "1", "kortbilag": "G i FP19", "dato_ret": 20190122.0}, "bbox": [720280.951, 6175795.88, 720280.951, 6175795.88]}, {"type": "Feature", "id": "theme-fp19vf_stationer.81", "geometry": {"type": "MultiPoint", "coordinates": [[12.4823442, 55.6290843]]}, "geometry_name": "wkb_geometry", "properties": {"id": 83, "hovedstruk": "Reservationer til overordnede kollektive trafikanlæg", "navn_gen": "Stationer", "navn_spec": "Stationsnære byggemuligheder", "st_navn": "Friheden", "kode": "1", "kortbilag": "G i FP19", "dato_ret": 20190122.0}, "bbox": [719212.743, 6170300.275, 719212.743, 6170300.275]}, {"type": "Feature", "id": "theme-fp19vf_stationer.82", "geometry": {"type": "MultiPoint", "coordinates": [[12.531723, 55.6811978]]}, "geometry_name": "wkb_geometry", "properties": {"id": 84, "hovedstruk": "Reservationer til overordnede kollektive trafikanlæg", "navn_gen": "Stationer", "navn_spec": "Stationsnære byggemuligheder", "st_navn": "Frederiksberg", "kode": "1", "kortbilag": "G i FP19", "dato_ret": 20190122.0}, "bbox": [722024.365, 6176253.196, 722024.365, 6176253.196]}, {"type": "Feature", "id": "theme-fp19vf_stationer.83", "geometry": {"type": "MultiPoint", "coordinates": [[12.5526544, 55.6817806]]}, "geometry_name": "wkb_geometry", "properties": {"id": 85, "hovedstruk": "Reservationer til overordnede kollektive trafikanlæg", "navn_gen": "Stationer", "navn_spec": "Stationsnære byggemuligheder", "st_navn": "Forum", "kode": "1", "kortbilag": "G i FP19", "dato_ret": 20190122.0}, "bbox": [723336.296, 6176385.256, 723336.296, 6176385.256]}, {"type": "Feature", "id": "theme-fp19vf_stationer.84", "geometry": {"type": "MultiPoint", "coordinates": [[12.4991532, 55.6391762]]}, "geometry_name": "wkb_geometry", "properties": {"id": 86, "hovedstruk": "Reservationer til overordnede kollektive trafikanlæg", "navn_gen": "Stationer", "navn_spec": "Stationsnære byggemuligheder", "st_navn": "Åmarken", "kode": "1", "kortbilag": "G i FP19", "dato_ret": 20190122.0}, "bbox": [720213.738, 6171475.902, 720213.738, 6171475.902]}, {"type": "Feature", "id": "theme-fp19vf_stationer.85", "geometry": {"type": "MultiPoint", "coordinates": [[12.4748331, 55.6644956]]}, "geometry_name": "wkb_geometry", "properties": {"id": 87, "hovedstruk": "Reservationer til overordnede kollektive trafikanlæg", "navn_gen": "Stationer", "navn_spec": "Stationsnære byggemuligheder", "st_navn": "Hvidovre", "kode": "1", "kortbilag": "G i FP19", "dato_ret": 20190122.0}, "bbox": [718542.705, 6174214.881, 718542.705, 6174214.881]}, {"type": "Feature", "id": "theme-fp19vf_stationer.86", "geometry": {"type": "MultiPoint", "coordinates": [[12.4589789, 55.6648394]]}, "geometry_name": "wkb_geometry", "properties": {"id": 88, "hovedstruk": "Reservationer til overordnede kollektive trafikanlæg", "navn_gen": "Stationer", "navn_spec": "Stationsnære byggemuligheder", "st_navn": "Rødovre", "kode": "1", "kortbilag": "G i FP19", "dato_ret": 20190122.0}, "bbox": [717544.118, 6174203.257, 717544.118, 6174203.257]}, {"type": "Feature", "id": "theme-fp19vf_stationer.87", "geometry": {"type": "MultiPoint", "coordinates": [[12.3581881, 55.7297716]]}, "geometry_name": "wkb_geometry", "properties": {"id": 89, "hovedstruk": "Reservationer til overordnede kollektive trafikanlæg", "navn_gen": "Stationer", "navn_spec": "Stationsnære byggemuligheder", "st_navn": "Ballerup", "kode": "1", "kortbilag": "G i FP19", "dato_ret": 20190122.0}, "bbox": [710857.741, 6181113.51, 710857.741, 6181113.51]}, {"type": "Feature", "id": "theme-fp19vf_stationer.88", "geometry": {"type": "MultiPoint", "coordinates": [[12.5852297, 55.6792494]]}, "geometry_name": "wkb_geometry", "properties": {"id": 91, "hovedstruk": "Reservationer til overordnede kollektive trafikanlæg", "navn_gen": "Stationer", "navn_spec": "Stationsnære byggemuligheder", "st_navn": "Kongens Nytorv", "kode": "1", "kortbilag": "G i FP19", "dato_ret": 20190122.0}, "bbox": [725397.727, 6176209.192, 725397.727, 6176209.192]}, {"type": "Feature", "id": "theme-fp19vf_stationer.89", "geometry": {"type": "MultiPoint", "coordinates": [[12.591376, 55.6720868]]}, "geometry_name": "wkb_geometry", "properties": {"id": 92, "hovedstruk": "Reservationer til overordnede kollektive trafikanlæg", "navn_gen": "Stationer", "navn_spec": "Stationsnære byggemuligheder", "st_navn": "Christianshavn", "kode": "1", "kortbilag": "G i FP19", "dato_ret": 20190122.0}, "bbox": [725825.242, 6175432.633, 725825.242, 6175432.633]}, {"type": "Feature", "id": "theme-fp19vf_stationer.90", "geometry": {"type": "MultiPoint", "coordinates": [[12.5852036, 55.6634478]]}, "geometry_name": "wkb_geometry", "properties": {"id": 93, "hovedstruk": "Reservationer til overordnede kollektive trafikanlæg", "navn_gen": "Stationer", "navn_spec": "Stationsnære byggemuligheder", "st_navn": "Islands Brygge", "kode": "1", "kortbilag": "G i FP19", "dato_ret": 20190122.0}, "bbox": [725487.019, 6174451.786, 725487.019, 6174451.786]}, {"type": "Feature", "id": "theme-fp19vf_stationer.91", "geometry": {"type": "MultiPoint", "coordinates": [[12.6028876, 55.6633795]]}, "geometry_name": "wkb_geometry", "properties": {"id": 94, "hovedstruk": "Reservationer til overordnede kollektive trafikanlæg", "navn_gen": "Stationer", "navn_spec": "Stationsnære byggemuligheder", "st_navn": "Amagerbro", "kode": "1", "kortbilag": "G i FP19", "dato_ret": 20190122.0}, "bbox": [726599.095, 6174501.843, 726599.095, 6174501.843]}, {"type": "Feature", "id": "theme-fp19vf_stationer.92", "geometry": {"type": "MultiPoint", "coordinates": [[12.5889822, 55.6558314]]}, "geometry_name": "wkb_geometry", "properties": {"id": 95, "hovedstruk": "Reservationer til overordnede kollektive trafikanlæg", "navn_gen": "Stationer", "navn_spec": "Stationsnære byggemuligheder", "st_navn": "DR Byen", "kode": "1", "kortbilag": "G i FP19", "dato_ret": 20190122.0}, "bbox": [725768.42, 6173617.051, 725768.42, 6173617.051]}, {"type": "Feature", "id": "theme-fp19vf_stationer.93", "geometry": {"type": "MultiPoint", "coordinates": [[12.5856695, 55.6452597]]}, "geometry_name": "wkb_geometry", "properties": {"id": 96, "hovedstruk": "Reservationer til overordnede kollektive trafikanlæg", "navn_gen": "Stationer", "navn_spec": "Stationsnære byggemuligheder", "st_navn": "Sundby", "kode": "1", "kortbilag": "G i FP19", "dato_ret": 20190122.0}, "bbox": [725620.955, 6172430.565, 725620.955, 6172430.565]}, {"type": "Feature", "id": "theme-fp19vf_stationer.94", "geometry": {"type": "MultiPoint", "coordinates": [[12.5829061, 55.6380901]]}, "geometry_name": "wkb_geometry", "properties": {"id": 97, "hovedstruk": "Reservationer til overordnede kollektive trafikanlæg", "navn_gen": "Stationer", "navn_spec": "Stationsnære byggemuligheder", "st_navn": "Bella Center", "kode": "1", "kortbilag": "G i FP19", "dato_ret": 20190122.0}, "bbox": [725488.372, 6171624.241, 725488.372, 6171624.241]}, {"type": "Feature", "id": "theme-fp19vf_stationer.95", "geometry": {"type": "MultiPoint", "coordinates": [[12.5755884, 55.6193994]]}, "geometry_name": "wkb_geometry", "properties": {"id": 98, "hovedstruk": "Reservationer til overordnede kollektive trafikanlæg", "navn_gen": "Stationer", "navn_spec": "Stationsnære byggemuligheder", "st_navn": "Vestamager", "kode": "1", "kortbilag": "G i FP19", "dato_ret": 20190122.0}, "bbox": [725135.266, 6169521.847, 725135.266, 6169521.847]}, {"type": "Feature", "id": "theme-fp19vf_stationer.96", "geometry": {"type": "MultiPoint", "coordinates": [[12.617047, 55.6622448]]}, "geometry_name": "wkb_geometry", "properties": {"id": 99, "hovedstruk": "Reservationer til overordnede kollektive trafikanlæg", "navn_gen": "Stationer", "navn_spec": "Stationsnære byggemuligheder", "st_navn": "Lergravsparken", "kode": "1", "kortbilag": "G i FP19", "dato_ret": 20190122.0}, "bbox": [727495.789, 6174422.03, 727495.789, 6174422.03]}, {"type": "Feature", "id": "theme-fp19vf_stationer.97", "geometry": {"type": "MultiPoint", "coordinates": [[12.6288257, 55.6613189]]}, "geometry_name": "wkb_geometry", "properties": {"id": 100, "hovedstruk": "Reservationer til overordnede kollektive trafikanlæg", "navn_gen": "Stationer", "navn_spec": "Stationsnære byggemuligheder", "st_navn": "Øresund", "kode": "1", "kortbilag": "G i FP19", "dato_ret": 20190122.0}, "bbox": [728241.643, 6174357.769, 728241.643, 6174357.769]}, {"type": "Feature", "id": "theme-fp19vf_stationer.98", "geometry": {"type": "MultiPoint", "coordinates": [[12.6318656, 55.6561514]]}, "geometry_name": "wkb_geometry", "properties": {"id": 101, "hovedstruk": "Reservationer til overordnede kollektive trafikanlæg", "navn_gen": "Stationer", "navn_spec": "Stationsnære byggemuligheder", "st_navn": "Amager Strand", "kode": "1", "kortbilag": "G i FP19", "dato_ret": 20190122.0}, "bbox": [728462.871, 6173793.111, 728462.871, 6173793.111]}, {"type": "Feature", "id": "theme-fp19vf_stationer.99", "geometry": {"type": "MultiPoint", "coordinates": [[12.638339, 55.6452078]]}, "geometry_name": "wkb_geometry", "properties": {"id": 102, "hovedstruk": "Reservationer til overordnede kollektive trafikanlæg", "navn_gen": "Stationer", "navn_spec": "Stationsnære byggemuligheder", "st_navn": "Femøren", "kode": "1", "kortbilag": "G i FP19", "dato_ret": 20190122.0}, "bbox": [728933.77, 6172597.428, 728933.77, 6172597.428]}, {"type": "Feature", "id": "theme-fp19vf_stationer.100", "geometry": {"type": "MultiPoint", "coordinates": [[12.6470105, 55.6356099]]}, "geometry_name": "wkb_geometry", "properties": {"id": 103, "hovedstruk": "Reservationer til overordnede kollektive trafikanlæg", "navn_gen": "Stationer", "navn_spec": "Stationsnære byggemuligheder", "st_navn": "Kastrup", "kode": "1", "kortbilag": "G i FP19", "dato_ret": 20190122.0}, "bbox": [729535.299, 6171558.711, 729535.299, 6171558.711]}, {"type": "Feature", "id": "theme-fp19vf_stationer.101", "geometry": {"type": "MultiPoint", "coordinates": [[12.6005018, 55.6297315]]}, "geometry_name": "wkb_geometry", "properties": {"id": 105, "hovedstruk": "Reservationer til overordnede kollektive trafikanlæg", "navn_gen": "Stationer", "navn_spec": "Stationsnære byggemuligheder", "st_navn": "Tårnby", "kode": "1", "kortbilag": "G i FP19", "dato_ret": 20190122.0}, "bbox": [726643.5034, 6170752.0205, 726643.5034, 6170752.0205]}, {"type": "Feature", "id": "theme-fp19vf_stationer.102", "geometry": {"type": "MultiPoint", "coordinates": [[12.5909479, 55.7055526]]}, "geometry_name": "wkb_geometry", "properties": {"id": 106, "hovedstruk": "Reservationer til overordnede kollektive trafikanlæg", "navn_gen": "Stationer", "navn_spec": "Stationsnære byggemuligheder", "st_navn": "Nordhavn", "kode": "1", "kortbilag": "G i FP19", "dato_ret": 20190122.0}, "bbox": [725605.416, 6179153.04, 725605.416, 6179153.04]}, {"type": "Feature", "id": "theme-fp19vf_stationer.103", "geometry": {"type": "MultiPoint", "coordinates": [[12.5377859, 55.7006795]]}, "geometry_name": "wkb_geometry", "properties": {"id": 107, "hovedstruk": "Reservationer til overordnede kollektive trafikanlæg", "navn_gen": "Stationer", "navn_spec": "Stationsnære byggemuligheder", "st_navn": "Nørrebro", "kode": "1", "kortbilag": "G i FP19", "dato_ret": 20190122.0}, "bbox": [722294.697, 6178439.28, 722294.697, 6178439.28]}, {"type": "Feature", "id": "theme-fp19vf_stationer.104", "geometry": {"type": "MultiPoint", "coordinates": [[12.5602077, 55.7160667]]}, "geometry_name": "wkb_geometry", "properties": {"id": 108, "hovedstruk": "Reservationer til overordnede kollektive trafikanlæg", "navn_gen": "Stationer", "navn_spec": "Stationsnære byggemuligheder", "st_navn": "Ryparken", "kode": "1", "kortbilag": "G i FP19", "dato_ret": 20190122.0}, "bbox": [723614.93, 6180222.693, 723614.93, 6180222.693]}, {"type": "Feature", "id": "theme-fp19vf_stationer.105", "geometry": {"type": "MultiPoint", "coordinates": [[12.4021507, 55.7231196]]}, "geometry_name": "wkb_geometry", "properties": {"id": 109, "hovedstruk": "Reservationer til overordnede kollektive trafikanlæg", "navn_gen": "Stationer", "navn_spec": "Stationsnære byggemuligheder", "st_navn": "Skovlunde", "kode": "1", "kortbilag": "G i FP19", "dato_ret": 20190122.0}, "bbox": [713653.284, 6180508.343, 713653.284, 6180508.343]}, {"type": "Feature", "id": "theme-fp19vf_stationer.106", "geometry": {"type": "MultiPoint", "coordinates": [[12.1169542, 55.8101553]]}, "geometry_name": "wkb_geometry", "properties": {"id": 110, "hovedstruk": "Reservationer til overordnede kollektive trafikanlæg", "navn_gen": "Stationer", "navn_spec": "Stationsnære byggemuligheder", "st_navn": "Vinge", "kode": "1", "kortbilag": "G i FP19", "dato_ret": 20190122.0}, "bbox": [695314.001, 6189347.001, 695314.001, 6189347.001]}, {"type": "Feature", "id": "theme-fp19vf_stationer.107", "geometry": {"type": "MultiPoint", "coordinates": [[12.5834435, 56.0093881]]}, "geometry_name": "wkb_geometry", "properties": {"id": 112, "hovedstruk": "Reservationer til overordnede kollektive trafikanlæg", "navn_gen": "Stationer", "navn_spec": "Stationsnære byggemuligheder", "st_navn": "Snekkersten", "kode": "1", "kortbilag": "G i FP19", "dato_ret": 20190122.0}, "bbox": [723382.757, 6212919.42, 723382.757, 6212919.42]}, {"type": "Feature", "id": "theme-fp19vf_stationer.108", "geometry": {"type": "MultiPoint", "coordinates": [[12.5374032, 55.6547502]]}, "geometry_name": "wkb_geometry", "properties": {"id": 113, "hovedstruk": "Reservationer til overordnede kollektive trafikanlæg", "navn_gen": "Stationer", "navn_spec": "Stationsnære byggemuligheder", "st_navn": "Sydhavn", "kode": "1", "kortbilag": "G i FP19", "dato_ret": 20190122.0}, "bbox": [722531.442, 6173330.06, 722531.442, 6173330.06]}, {"type": "Feature", "id": "theme-fp19vf_stationer.109", "geometry": {"type": "MultiPoint", "coordinates": [[12.5272192, 55.6515358]]}, "geometry_name": "wkb_geometry", "properties": {"id": 114, "hovedstruk": "Reservationer til overordnede kollektive trafikanlæg", "navn_gen": "Stationer", "navn_spec": "Stationsnære byggemuligheder", "st_navn": "Sjælør", "kode": "1", "kortbilag": "G i FP19", "dato_ret": 20190122.0}, "bbox": [721909.276, 6172939.94, 721909.276, 6172939.94]}, {"type": "Feature", "id": "theme-fp19vf_stationer.110", "geometry": {"type": "MultiPoint", "coordinates": [[12.4931991, 55.6719017]]}, "geometry_name": "wkb_geometry", "properties": {"id": 115, "hovedstruk": "Reservationer til overordnede kollektive trafikanlæg", "navn_gen": "Stationer", "navn_spec": "Stationsnære byggemuligheder", "st_navn": "Ålholm", "kode": "1", "kortbilag": "G i FP19", "dato_ret": 20190122.0}, "bbox": [719655.754, 6175096.603, 719655.754, 6175096.603]}, {"type": "Feature", "id": "theme-fp19vf_stationer.111", "geometry": {"type": "MultiPoint", "coordinates": [[12.5040705, 55.6674229]]}, "geometry_name": "wkb_geometry", "properties": {"id": 117, "hovedstruk": "Reservationer til overordnede kollektive trafikanlæg", "navn_gen": "Stationer", "navn_spec": "Stationsnære byggemuligheder", "st_navn": "Langgade", "kode": "1", "kortbilag": "G i FP19", "dato_ret": 20190122.0}, "bbox": [720364.238, 6174632.987, 720364.238, 6174632.987]}, {"type": "Feature", "id": "theme-fp19vf_stationer.112", "geometry": {"type": "MultiPoint", "coordinates": [[12.6493826, 55.6303291]]}, "geometry_name": "wkb_geometry", "properties": {"id": 104, "hovedstruk": "Reservationer til overordnede kollektive trafikanlæg", "navn_gen": "Stationer", "navn_spec": "Stationsnære byggemuligheder", "st_navn": "Københavns Lufthavn", "kode": "1", "kortbilag": "G i FP19", "dato_ret": 20190122.0}, "bbox": [729715.442, 6170979.305, 729715.442, 6170979.305]}, {"type": "Feature", "id": "theme-fp19vf_stationer.113", "geometry": {"type": "MultiPoint", "coordinates": [[12.3140128, 55.9124121]]}, "geometry_name": "wkb_geometry", "properties": {"id": 118, "hovedstruk": "Reservationer til overordnede kollektive trafikanlæg", "navn_gen": "Stationer", "navn_spec": "Stationsnære byggemuligheder", "st_navn": "Favrholm", "kode": "1", "kortbilag": "G i FP19", "dato_ret": 20190122.0}, "bbox": [707112.018, 6201294.206, 707112.018, 6201294.206]}, {"type": "Feature", "id": "theme-fp19vf_stationer.114", "geometry": {"type": "MultiPoint", "coordinates": [[12.5405145, 55.6737801]]}, "geometry_name": "wkb_geometry", "properties": {"id": 123, "hovedstruk": "Reservationer til overordnede kollektive trafikanlæg", "navn_gen": "Stationer", "navn_spec": "Stationsnære byggemuligheder", "st_navn": "Frederiksberg Alle", "kode": "1", "kortbilag": "G i FP19", "dato_ret": 20190122.0}, "bbox": [722618.952, 6175456.445, 722618.952, 6175456.445]}, {"type": "Feature", "id": "theme-fp19vf_stationer.115", "geometry": {"type": "MultiPoint", "coordinates": [[12.53447, 55.6490072]]}, "geometry_name": "wkb_geometry", "properties": {"id": 127, "hovedstruk": "Reservationer til overordnede kollektive trafikanlæg", "navn_gen": "Stationer", "navn_spec": "Stationsnære byggemuligheder", "st_navn": "Mozarts Plads", "kode": "1", "kortbilag": "G i FP19", "dato_ret": 20190122.0}, "bbox": [722379.58, 6172681.952, 722379.58, 6172681.952]}, {"type": "Feature", "id": "theme-fp19vf_stationer.116", "geometry": {"type": "MultiPoint", "coordinates": [[12.5951506, 55.7118885]]}, "geometry_name": "wkb_geometry", "properties": {"id": 130, "hovedstruk": "Reservationer til overordnede kollektive trafikanlæg", "navn_gen": "Stationer", "navn_spec": "Stationsnære byggemuligheder", "st_navn": "Orientkaj", "kode": "1", "kortbilag": "G i FP19", "dato_ret": 20190122.0}, "bbox": [725832.748, 6179871.355, 725832.748, 6179871.355]}, {"type": "Feature", "id": "theme-fp19vf_stationer.117", "geometry": {"type": "MultiPoint", "coordinates": [[12.175796, 55.4999523]]}, "geometry_name": "wkb_geometry", "properties": {"id": 135, "hovedstruk": "Reservationer til overordnede kollektive trafikanlæg", "navn_gen": "Stationer", "navn_spec": "Stationsnære byggemuligheder", "st_navn": "Køge Nord", "kode": "1", "kortbilag": "G i FP19", "dato_ret": 20190122.0}, "bbox": [700580.414, 6155011.067, 700580.414, 6155011.067]}, {"type": "Feature", "id": "theme-fp19vf_stationer.118", "geometry": {"type": "MultiPoint", "coordinates": [[12.6049325, 55.7128992]]}, "geometry_name": "wkb_geometry", "properties": {"id": 136, "hovedstruk": "Reservationer til overordnede kollektive trafikanlæg", "navn_gen": "Stationer", "navn_spec": "Stationsnære byggemuligheder", "st_navn": "Levantkaj", "kode": "1", "kortbilag": "G i FP19", "dato_ret": 20190122.0}, "bbox": [726441.065, 6180015.677, 726441.065, 6180015.677]}, {"type": "Feature", "id": "theme-fp19vf_stationer.119", "geometry": {"type": "MultiPoint", "coordinates": [[12.6139144, 55.7148647]]}, "geometry_name": "wkb_geometry", "properties": {"id": 137, "hovedstruk": "Reservationer til overordnede kollektive trafikanlæg", "navn_gen": "Stationer", "navn_spec": "Stationsnære byggemuligheder", "st_navn": "Krydstogtkaj", "kode": "1", "kortbilag": "G i FP19", "dato_ret": 20190122.0}, "bbox": [726993.574, 6180263.661, 726993.574, 6180263.661]}, {"type": "Feature", "id": "theme-fp19vf_stationer.120", "geometry": {"type": "MultiPoint", "coordinates": [[12.302211, 55.6525656]]}, "geometry_name": "wkb_geometry", "properties": {"id": 18, "hovedstruk": "Reservationer til overordnede kollektive trafikanlæg", "navn_gen": "Stationer", "navn_spec": "Stationsnære byggemuligheder", "st_navn": "Taastrup", "kode": "1", "kortbilag": "G i FP19", "dato_ret": 20190122.0}, "bbox": [707753.69, 6172357.39, 707753.69, 6172357.39]}, {"type": "Feature", "id": "theme-fp19vf_stationer.121", "geometry": {"type": "MultiPoint", "coordinates": [[12.1606481, 55.7952298]]}, "geometry_name": "wkb_geometry", "properties": {"id": 40, "hovedstruk": "Reservationer til overordnede kollektive trafikanlæg", "navn_gen": "Stationer", "navn_spec": "Stationsnære byggemuligheder", "st_navn": "Ølstykke", "kode": "1", "kortbilag": "G i FP19", "dato_ret": 20190122.0}, "bbox": [698126.743, 6187810.971, 698126.743, 6187810.971]}, {"type": "Feature", "id": "theme-fp19vf_stationer.122", "geometry": {"type": "MultiPoint", "coordinates": [[12.3733011, 55.782013]]}, "geometry_name": "wkb_geometry", "properties": {"id": 47, "hovedstruk": "Reservationer til overordnede kollektive trafikanlæg", "navn_gen": "Stationer", "navn_spec": "Stationsnære byggemuligheder", "st_navn": "Værløse", "kode": "1", "kortbilag": "G i FP19", "dato_ret": 20190122.0}, "bbox": [711523.159, 6186970.003, 711523.159, 6186970.003]}, {"type": "Feature", "id": "theme-fp19vf_stationer.123", "geometry": {"type": "MultiPoint", "coordinates": [[12.5681903, 55.6764411]]}, "geometry_name": "wkb_geometry", "properties": {"id": 119, "hovedstruk": "Reservationer til overordnede kollektive trafikanlæg", "navn_gen": "Stationer", "navn_spec": "Stationsnære byggemuligheder", "st_navn": "Rådhuspladsen", "kode": "1", "kortbilag": "G i FP19", "dato_ret": 20190122.0}, "bbox": [724343.0785, 6175841.5982, 724343.0785, 6175841.5982]}, {"type": "Feature", "id": "theme-fp19vf_stationer.124", "geometry": {"type": "MultiPoint", "coordinates": [[12.5789968, 55.6776118]]}, "geometry_name": "wkb_geometry", "properties": {"id": 124, "hovedstruk": "Reservationer til overordnede kollektive trafikanlæg", "navn_gen": "Stationer", "navn_spec": "Stationsnære byggemuligheder", "st_navn": "Gammel Strand", "kode": "1", "kortbilag": "G i FP19", "dato_ret": 20190122.0}, "bbox": [725015.4676, 6176006.8231, 725015.4676, 6176006.8231]}, {"type": "Feature", "id": "theme-fp19vf_stationer.125", "geometry": {"type": "MultiPoint", "coordinates": [[12.5890424, 55.6851235]]}, "geometry_name": "wkb_geometry", "properties": {"id": 126, "hovedstruk": "Reservationer til overordnede kollektive trafikanlæg", "navn_gen": "Stationer", "navn_spec": "Stationsnære byggemuligheder", "st_navn": "Marmorkirken", "kode": "1", "kortbilag": "G i FP19", "dato_ret": 20190122.0}, "bbox": [725603.4723, 6176874.8749, 725603.4723, 6176874.8749]}, {"type": "Feature", "id": "theme-fp19vf_stationer.126", "geometry": {"type": "MultiPoint", "coordinates": [[12.5755554, 55.6991866]]}, "geometry_name": "wkb_geometry", "properties": {"id": 133, "hovedstruk": "Reservationer til overordnede kollektive trafikanlæg", "navn_gen": "Stationer", "navn_spec": "Stationsnære byggemuligheder", "st_navn": "Trianglen", "kode": "1", "kortbilag": "G i FP19", "dato_ret": 20190122.0}, "bbox": [724675.3675, 6178395.0522, 724675.3675, 6178395.0522]}, {"type": "Feature", "id": "theme-fp19vf_stationer.127", "geometry": {"type": "MultiPoint", "coordinates": [[12.5761133, 55.7094856]]}, "geometry_name": "wkb_geometry", "properties": {"id": 131, "hovedstruk": "Reservationer til overordnede kollektive trafikanlæg", "navn_gen": "Stationer", "navn_spec": "Stationsnære byggemuligheder", "st_navn": "Poul Henningsens Plads", "kode": "1", "kortbilag": "G i FP19", "dato_ret": 20190122.0}, "bbox": [724651.275, 6179542.2405, 724651.275, 6179542.2405]}, {"type": "Feature", "id": "theme-fp19vf_stationer.128", "geometry": {"type": "MultiPoint", "coordinates": [[12.5646798, 55.7063905]]}, "geometry_name": "wkb_geometry", "properties": {"id": 134, "hovedstruk": "Reservationer til overordnede kollektive trafikanlæg", "navn_gen": "Stationer", "navn_spec": "Stationsnære byggemuligheder", "st_navn": "Vibenhus Runddel", "kode": "1", "kortbilag": "G i FP19", "dato_ret": 20190122.0}, "bbox": [723951.0764, 6179161.0154, 723951.0764, 6179161.0154]}, {"type": "Feature", "id": "theme-fp19vf_stationer.129", "geometry": {"type": "MultiPoint", "coordinates": [[12.5486199, 55.703432]]}, "geometry_name": "wkb_geometry", "properties": {"id": 116, "hovedstruk": "Reservationer til overordnede kollektive trafikanlæg", "navn_gen": "Stationer", "navn_spec": "Stationsnære byggemuligheder", "st_navn": "Skjolds Plads", "kode": "1", "kortbilag": "G i FP19", "dato_ret": 20190122.0}, "bbox": [722959.4406, 6178780.2016, 722959.4406, 6178780.2016]}, {"type": "Feature", "id": "theme-fp19vf_stationer.130", "geometry": {"type": "MultiPoint", "coordinates": [[12.5489107, 55.6935278]]}, "geometry_name": "wkb_geometry", "properties": {"id": 128, "hovedstruk": "Reservationer til overordnede kollektive trafikanlæg", "navn_gen": "Stationer", "navn_spec": "Stationsnære byggemuligheder", "st_navn": "Nørrebros Rundel", "kode": "1", "kortbilag": "G i FP19", "dato_ret": 20190122.0}, "bbox": [723034.1362, 6177679.6493, 723034.1362, 6177679.6493]}, {"type": "Feature", "id": "theme-fp19vf_stationer.131", "geometry": {"type": "MultiPoint", "coordinates": [[12.5425381, 55.6884895]]}, "geometry_name": "wkb_geometry", "properties": {"id": 129, "hovedstruk": "Reservationer til overordnede kollektive trafikanlæg", "navn_gen": "Stationer", "navn_spec": "Stationsnære byggemuligheder", "st_navn": "Nuuks Plads", "kode": "1", "kortbilag": "G i FP19", "dato_ret": 20190122.0}, "bbox": [722662.4856, 6177098.8254, 722662.4856, 6177098.8254]}, {"type": "Feature", "id": "theme-fp19vf_stationer.132", "geometry": {"type": "MultiPoint", "coordinates": [[12.532945, 55.6860552]]}, "geometry_name": "wkb_geometry", "properties": {"id": 120, "hovedstruk": "Reservationer til overordnede kollektive trafikanlæg", "navn_gen": "Stationer", "navn_spec": "Stationsnære byggemuligheder", "st_navn": "Aksel Møllers Have", "kode": "1", "kortbilag": "G i FP19", "dato_ret": 20190122.0}, "bbox": [722073.6079, 6176797.3268, 722073.6079, 6176797.3268]}, {"type": "Feature", "id": "theme-fp19vf_stationer.133", "geometry": {"type": "MultiPoint", "coordinates": [[12.5444522, 55.6458545]]}, "geometry_name": "wkb_geometry", "properties": {"id": 132, "hovedstruk": "Reservationer til overordnede kollektive trafikanlæg", "navn_gen": "Stationer", "navn_spec": "Stationsnære byggemuligheder", "st_navn": "Sluseholmen", "kode": "1", "kortbilag": "G i FP19", "dato_ret": 20190122.0}, "bbox": [723025.2695, 6172363.3854, 723025.2695, 6172363.3854]}, {"type": "Feature", "id": "theme-fp19vf_stationer.134", "geometry": {"type": "MultiPoint", "coordinates": [[12.5468265, 55.6672442]]}, "geometry_name": "wkb_geometry", "properties": {"id": 122, "hovedstruk": "Reservationer til overordnede kollektive trafikanlæg", "navn_gen": "Stationer", "navn_spec": "Stationsnære byggemuligheder", "st_navn": "Enghave Plads", "kode": "1", "kortbilag": "G i FP19", "dato_ret": 20190122.0}, "bbox": [723052.8521, 6174749.8415, 723052.8521, 6174749.8415]}, {"type": "Feature", "id": "theme-fp19vf_stationer.135", "geometry": {"type": "MultiPoint", "coordinates": [[12.5590008, 55.6612053]]}, "geometry_name": "wkb_geometry", "properties": {"id": 125, "hovedstruk": "Reservationer til overordnede kollektive trafikanlæg", "navn_gen": "Stationer", "navn_spec": "Stationsnære byggemuligheder", "st_navn": "Havneholmen", "kode": "1", "kortbilag": "G i FP19", "dato_ret": 20190122.0}, "bbox": [723852.6076, 6174117.4817, 723852.6076, 6174117.4817]}, {"type": "Feature", "id": "theme-fp19vf_stationer.136", "geometry": {"type": "MultiPoint", "coordinates": [[12.5255333, 55.6814825]]}, "geometry_name": "wkb_geometry", "properties": {"id": 138, "hovedstruk": "Reservationer til overordnede kollektive trafikanlæg", "navn_gen": "Stationer", "navn_spec": "Stationsnære byggemuligheder", "st_navn": "Fasanvej", "kode": "1", "kortbilag": "G i FP19", "dato_ret": 20190122.0}, "bbox": [721633.8188, 6176265.0492, 721633.8188, 6176265.0492]}, {"type": "Feature", "id": "theme-fp19vf_stationer.137", "geometry": {"type": "MultiPoint", "coordinates": [[12.2686114, 55.648967]]}, "geometry_name": "wkb_geometry", "properties": {"id": 17, "hovedstruk": "Reservationer til overordnede kollektive trafikanlæg", "navn_gen": "Stationer", "navn_spec": "Udvidet stationsnært kerneområde", "st_navn": "Høje Taastrup", "kode": "2", "kortbilag": "G i FP19", "dato_ret": 20190122.0}, "bbox": [705659.528, 6171856.989, 705659.528, 6171856.989]}, {"type": "Feature", "id": "theme-fp19vf_stationer.138", "geometry": {"type": "MultiPoint", "coordinates": [[12.3115915, 55.92749]]}, "geometry_name": "wkb_geometry", "properties": {"id": 36, "hovedstruk": "Reservationer til overordnede kollektive trafikanlæg", "navn_gen": "Stationer", "navn_spec": "Udvidet stationsnært kerneområde", "st_navn": "Hillerød", "kode": "2", "kortbilag": "G i FP19", "dato_ret": 20190122.0}, "bbox": [706880.388, 6202964.01, 706880.388, 6202964.01]}, {"type": "Feature", "id": "theme-fp19vf_stationer.139", "geometry": {"type": "MultiPoint", "coordinates": [[12.6137576, 56.0335237]]}, "geometry_name": "wkb_geometry", "properties": {"id": 90, "hovedstruk": "Reservationer til overordnede kollektive trafikanlæg", "navn_gen": "Stationer", "navn_spec": "Udvidet stationsnært kerneområde", "st_navn": "Helsingør", "kode": "2", "kortbilag": "G i FP19", "dato_ret": 20190122.0}, "bbox": [725130.946, 6215702.135, 725130.946, 6215702.135]}], "totalFeatures": 139, "numberMatched": 139, "numberReturned": 139, "timeStamp": "2026-09-22T18:10:55.544Z", "crs": {"type": "name", "properties": {"name": "urn:ogc:def:crs:OGC:1.3:CRS84"}}, "bbox": [692025.617, 6150320.071, 729715.442, 6215702.135]}